{"type": "FeatureCollection", "features": [{"type": "Feature", "geometry": {"type": "Point", "coordinates": [-70.536937, 43.605405]}, "properties": {"crashes": 1, "injury": 1, "fatal": 1, "pedestrian": 0, "bicycle": 0, "density": 0.2, "year_range": "2020-2024"}}, {"type": "Feature", "geometry": {"type": "Point", "coordinates": [-70.427027, 43.700901]}, "properties": {"crashes": 1, "injury": 1, "fatal": 1, "pedestrian": 0, "bicycle": 0, "density": 0.2, "year_range": "2020-2024"}}, {"type": "Feature", "geometry": {"type": "Point", "coordinates": [-68.771171, 44.801802]}, "properties": {"crashes": 1, "injury": 1, "fatal": 0, "pedestrian": 0, "bicycle": 0, "density": 0.2, "year_range": "2020-2024"}}, {"type": "Feature", "geometry": {"type": "Point", "coordinates": [-70.257658, 43.636036]}, "properties": {"crashes": 1, "injury": 1, "fatal": 0, "pedestrian": 0, "bicycle": 0, "density": 0.2, "year_range": "2020-2024"}}, {"type": "Feature", "geometry": {"type": "Point", "coordinates": [-70.194595, 43.8]}, "properties": {"crashes": 1, "injury": 1, "fatal": 0, "pedestrian": 0, "bicycle": 0, "density": 0.2, "year_range": "2020-2024"}}, {"type": "Feature", "geometry": {"type": "Point", "coordinates": [-68.772973, 44.796396]}, "properties": {"crashes": 1, "injury": 1, "fatal": 0, "pedestrian": 0, "bicycle": 0, "density": 0.2, "year_range": "2020-2024"}}, {"type": "Feature", "geometry": {"type": "Point", "coordinates": [-70.544144, 44.558559]}, "properties": {"crashes": 1, "injury": 1, "fatal": 0, "pedestrian": 0, "bicycle": 0, "density": 0.2, "year_range": "2020-2024"}}, {"type": "Feature", "geometry": {"type": "Point", "coordinates": [-70.563964, 43.405405]}, "properties": {"crashes": 1, "injury": 1, "fatal": 0, "pedestrian": 0, "bicycle": 0, "density": 0.2, "year_range": "2020-2024"}}, {"type": "Feature", "geometry": {"type": "Point", "coordinates": [-70.302703, 43.621622]}, "properties": {"crashes": 1, "injury": 1, "fatal": 0, "pedestrian": 0, "bicycle": 0, "density": 0.2, "year_range": "2020-2024"}}, {"type": "Feature", "geometry": {"type": "Point", "coordinates": [-70.52973, 44.2]}, "properties": {"crashes": 1, "injury": 1, "fatal": 0, "pedestrian": 0, "bicycle": 0, "density": 0.2, "year_range": "2020-2024"}}, {"type": "Feature", "geometry": {"type": "Point", "coordinates": [-70.324324, 43.90991]}, "properties": {"crashes": 1, "injury": 1, "fatal": 0, "pedestrian": 0, "bicycle": 0, "density": 0.2, "year_range": "2020-2024"}}, {"type": "Feature", "geometry": {"type": "Point", "coordinates": [-70.30991, 43.659459]}, "properties": {"crashes": 1, "injury": 1, "fatal": 0, "pedestrian": 0, "bicycle": 0, "density": 0.2, "year_range": "2020-2024"}}, {"type": "Feature", "geometry": {"type": "Point", "coordinates": [-69.117117, 44.481081]}, "properties": {"crashes": 1, "injury": 1, "fatal": 0, "pedestrian": 0, "bicycle": 0, "density": 0.2, "year_range": "2020-2024"}}, {"type": "Feature", "geometry": {"type": "Point", "coordinates": [-70.443243, 43.500901]}, "properties": {"crashes": 1, "injury": 1, "fatal": 0, "pedestrian": 0, "bicycle": 0, "density": 0.2, "year_range": "2020-2024"}}, {"type": "Feature", "geometry": {"type": "Point", "coordinates": [-70.769369, 43.437838]}, "properties": {"crashes": 1, "injury": 1, "fatal": 0, "pedestrian": 0, "bicycle": 0, "density": 0.2, "year_range": "2020-2024"}}, {"type": "Feature", "geometry": {"type": "Point", "coordinates": [-68.228829, 44.398198]}, "properties": {"crashes": 1, "injury": 1, "fatal": 0, "pedestrian": 0, "bicycle": 0, "density": 0.2, "year_range": "2020-2024"}}, {"type": "Feature", "geometry": {"type": "Point", "coordinates": [-69.403604, 44.136937]}, "properties": {"crashes": 1, "injury": 1, "fatal": 0, "pedestrian": 0, "bicycle": 0, "density": 0.2, "year_range": "2020-2024"}}, {"type": "Feature", "geometry": {"type": "Point", "coordinates": [-68.293694, 44.418018]}, "properties": {"crashes": 1, "injury": 1, "fatal": 0, "pedestrian": 0, "bicycle": 0, "density": 0.2, "year_range": "2020-2024"}}, {"type": "Feature", "geometry": {"type": "Point", "coordinates": [-69.068468, 44.207207]}, "properties": {"crashes": 1, "injury": 1, "fatal": 0, "pedestrian": 0, "bicycle": 0, "density": 0.2, "year_range": "2020-2024"}}, {"type": "Feature", "geometry": {"type": "Point", "coordinates": [-70.428829, 44.034234]}, "properties": {"crashes": 1, "injury": 1, "fatal": 0, "pedestrian": 0, "bicycle": 0, "density": 0.2, "year_range": "2020-2024"}}, {"type": "Feature", "geometry": {"type": "Point", "coordinates": [-70.156757, 44.628829]}, "properties": {"crashes": 1, "injury": 1, "fatal": 0, "pedestrian": 0, "bicycle": 0, "density": 0.2, "year_range": "2020-2024"}}, {"type": "Feature", "geometry": {"type": "Point", "coordinates": [-68.223423, 44.394595]}, "properties": {"crashes": 1, "injury": 1, "fatal": 0, "pedestrian": 0, "bicycle": 0, "density": 0.2, "year_range": "2020-2024"}}, {"type": "Feature", "geometry": {"type": "Point", "coordinates": [-69.908108, 44.320721]}, "properties": {"crashes": 1, "injury": 1, "fatal": 0, "pedestrian": 0, "bicycle": 0, "density": 0.2, "year_range": "2020-2024"}}, {"type": "Feature", "geometry": {"type": "Point", "coordinates": [-68.742342, 44.834234]}, "properties": {"crashes": 1, "injury": 1, "fatal": 0, "pedestrian": 0, "bicycle": 0, "density": 0.2, "year_range": "2020-2024"}}, {"type": "Feature", "geometry": {"type": "Point", "coordinates": [-70.230631, 44.099099]}, "properties": {"crashes": 1, "injury": 1, "fatal": 0, "pedestrian": 0, "bicycle": 0, "density": 0.2, "year_range": "2020-2024"}}, {"type": "Feature", "geometry": {"type": "Point", "coordinates": [-68.812613, 44.787387]}, "properties": {"crashes": 1, "injury": 1, "fatal": 0, "pedestrian": 0, "bicycle": 0, "density": 0.2, "year_range": "2020-2024"}}, {"type": "Feature", "geometry": {"type": "Point", "coordinates": [-68.023423, 46.810811]}, "properties": {"crashes": 1, "injury": 1, "fatal": 0, "pedestrian": 0, "bicycle": 0, "density": 0.2, "year_range": "2020-2024"}}, {"type": "Feature", "geometry": {"type": "Point", "coordinates": [-69.457658, 44.848649]}, "properties": {"crashes": 1, "injury": 1, "fatal": 0, "pedestrian": 0, "bicycle": 0, "density": 0.2, "year_range": "2020-2024"}}, {"type": "Feature", "geometry": {"type": "Point", "coordinates": [-67.956757, 45.412613]}, "properties": {"crashes": 1, "injury": 1, "fatal": 0, "pedestrian": 0, "bicycle": 0, "density": 0.2, "year_range": "2020-2024"}}, {"type": "Feature", "geometry": {"type": "Point", "coordinates": [-70.646847, 43.477477]}, "properties": {"crashes": 1, "injury": 1, "fatal": 0, "pedestrian": 0, "bicycle": 0, "density": 0.2, "year_range": "2020-2024"}}, {"type": "Feature", "geometry": {"type": "Point", "coordinates": [-70.522523, 43.645045]}, "properties": {"crashes": 1, "injury": 1, "fatal": 0, "pedestrian": 0, "bicycle": 0, "density": 0.2, "year_range": "2020-2024"}}, {"type": "Feature", "geometry": {"type": "Point", "coordinates": [-70.218018, 44.257658]}, "properties": {"crashes": 1, "injury": 1, "fatal": 0, "pedestrian": 0, "bicycle": 0, "density": 0.2, "year_range": "2020-2024"}}, {"type": "Feature", "geometry": {"type": "Point", "coordinates": [-68.772973, 44.798198]}, "properties": {"crashes": 1, "injury": 1, "fatal": 0, "pedestrian": 0, "bicycle": 0, "density": 0.2, "year_range": "2020-2024"}}, {"type": "Feature", "geometry": {"type": "Point", "coordinates": [-70.21982, 44.27027]}, "properties": {"crashes": 1, "injury": 1, "fatal": 0, "pedestrian": 0, "bicycle": 0, "density": 0.2, "year_range": "2020-2024"}}, {"type": "Feature", "geometry": {"type": "Point", "coordinates": [-70.282883, 43.704505]}, "properties": {"crashes": 1, "injury": 1, "fatal": 0, "pedestrian": 0, "bicycle": 0, "density": 0.2, "year_range": "2020-2024"}}, {"type": "Feature", "geometry": {"type": "Point", "coordinates": [-70.16036, 44.96036]}, "properties": {"crashes": 1, "injury": 1, "fatal": 0, "pedestrian": 0, "bicycle": 0, "density": 0.2, "year_range": "2020-2024"}}, {"type": "Feature", "geometry": {"type": "Point", "coordinates": [-70.61982, 43.192793]}, "properties": {"crashes": 1, "injury": 1, "fatal": 0, "pedestrian": 0, "bicycle": 0, "density": 0.2, "year_range": "2020-2024"}}, {"type": "Feature", "geometry": {"type": "Point", "coordinates": [-69.410811, 44.90991]}, "properties": {"crashes": 1, "injury": 1, "fatal": 0, "pedestrian": 0, "bicycle": 0, "density": 0.2, "year_range": "2020-2024"}}, {"type": "Feature", "geometry": {"type": "Point", "coordinates": [-70.172973, 44.801802]}, "properties": {"crashes": 1, "injury": 1, "fatal": 0, "pedestrian": 0, "bicycle": 0, "density": 0.2, "year_range": "2020-2024"}}, {"type": "Feature", "geometry": {"type": "Point", "coordinates": [-69.978378, 44.135135]}, "properties": {"crashes": 1, "injury": 1, "fatal": 0, "pedestrian": 0, "bicycle": 0, "density": 0.2, "year_range": "2020-2024"}}, {"type": "Feature", "geometry": {"type": "Point", "coordinates": [-67.273874, 45.183784]}, "properties": {"crashes": 1, "injury": 1, "fatal": 0, "pedestrian": 0, "bicycle": 0, "density": 0.2, "year_range": "2020-2024"}}, {"type": "Feature", "geometry": {"type": "Point", "coordinates": [-68.771171, 44.798198]}, "properties": {"crashes": 1, "injury": 1, "fatal": 0, "pedestrian": 0, "bicycle": 0, "density": 0.2, "year_range": "2020-2024"}}, {"type": "Feature", "geometry": {"type": "Point", "coordinates": [-70.326126, 43.648649]}, "properties": {"crashes": 1, "injury": 1, "fatal": 0, "pedestrian": 0, "bicycle": 0, "density": 0.2, "year_range": "2020-2024"}}, {"type": "Feature", "geometry": {"type": "Point", "coordinates": [-70.209009, 43.758559]}, "properties": {"crashes": 1, "injury": 1, "fatal": 0, "pedestrian": 0, "bicycle": 0, "density": 0.2, "year_range": "2020-2024"}}, {"type": "Feature", "geometry": {"type": "Point", "coordinates": [-69.295495, 44.657658]}, "properties": {"crashes": 1, "injury": 1, "fatal": 0, "pedestrian": 0, "bicycle": 0, "density": 0.2, "year_range": "2020-2024"}}, {"type": "Feature", "geometry": {"type": "Point", "coordinates": [-70.762162, 43.459459]}, "properties": {"crashes": 1, "injury": 1, "fatal": 0, "pedestrian": 0, "bicycle": 0, "density": 0.2, "year_range": "2020-2024"}}, {"type": "Feature", "geometry": {"type": "Point", "coordinates": [-69.637838, 44.556757]}, "properties": {"crashes": 1, "injury": 1, "fatal": 0, "pedestrian": 0, "bicycle": 0, "density": 0.2, "year_range": "2020-2024"}}, {"type": "Feature", "geometry": {"type": "Point", "coordinates": [-70.333333, 44.115315]}, "properties": {"crashes": 1, "injury": 1, "fatal": 0, "pedestrian": 0, "bicycle": 0, "density": 0.2, "year_range": "2020-2024"}}, {"type": "Feature", "geometry": {"type": "Point", "coordinates": [-69.308108, 44.043243]}, "properties": {"crashes": 1, "injury": 1, "fatal": 0, "pedestrian": 0, "bicycle": 0, "density": 0.2, "year_range": "2020-2024"}}, {"type": "Feature", "geometry": {"type": "Point", "coordinates": [-68.863063, 44.776577]}, "properties": {"crashes": 1, "injury": 1, "fatal": 0, "pedestrian": 0, "bicycle": 0, "density": 0.2, "year_range": "2020-2024"}}, {"type": "Feature", "geometry": {"type": "Point", "coordinates": [-68.774775, 44.8]}, "properties": {"crashes": 1, "injury": 1, "fatal": 0, "pedestrian": 0, "bicycle": 0, "density": 0.2, "year_range": "2020-2024"}}, {"type": "Feature", "geometry": {"type": "Point", "coordinates": [-68.789189, 44.823423]}, "properties": {"crashes": 1, "injury": 1, "fatal": 0, "pedestrian": 0, "bicycle": 0, "density": 0.2, "year_range": "2020-2024"}}, {"type": "Feature", "geometry": {"type": "Point", "coordinates": [-70.372973, 43.668468]}, "properties": {"crashes": 1, "injury": 1, "fatal": 0, "pedestrian": 0, "bicycle": 0, "density": 0.2, "year_range": "2020-2024"}}, {"type": "Feature", "geometry": {"type": "Point", "coordinates": [-70.356757, 43.679279]}, "properties": {"crashes": 1, "injury": 1, "fatal": 0, "pedestrian": 0, "bicycle": 0, "density": 0.2, "year_range": "2020-2024"}}, {"type": "Feature", "geometry": {"type": "Point", "coordinates": [-68.010811, 46.679279]}, "properties": {"crashes": 1, "injury": 1, "fatal": 0, "pedestrian": 0, "bicycle": 0, "density": 0.2, "year_range": "2020-2024"}}, {"type": "Feature", "geometry": {"type": "Point", "coordinates": [-69.812613, 43.843243]}, "properties": {"crashes": 1, "injury": 1, "fatal": 0, "pedestrian": 0, "bicycle": 0, "density": 0.2, "year_range": "2020-2024"}}, {"type": "Feature", "geometry": {"type": "Point", "coordinates": [-70.259459, 43.659459]}, "properties": {"crashes": 1, "injury": 1, "fatal": 0, "pedestrian": 0, "bicycle": 0, "density": 0.2, "year_range": "2020-2024"}}, {"type": "Feature", "geometry": {"type": "Point", "coordinates": [-69.771171, 44.243243]}, "properties": {"crashes": 1, "injury": 1, "fatal": 0, "pedestrian": 0, "bicycle": 0, "density": 0.2, "year_range": "2020-2024"}}, {"type": "Feature", "geometry": {"type": "Point", "coordinates": [-68.673874, 44.203604]}, "properties": {"crashes": 1, "injury": 1, "fatal": 0, "pedestrian": 0, "bicycle": 0, "density": 0.2, "year_range": "2020-2024"}}, {"type": "Feature", "geometry": {"type": "Point", "coordinates": [-70.34955, 43.695495]}, "properties": {"crashes": 1, "injury": 1, "fatal": 0, "pedestrian": 0, "bicycle": 0, "density": 0.2, "year_range": "2020-2024"}}, {"type": "Feature", "geometry": {"type": "Point", "coordinates": [-68.956757, 44.367568]}, "properties": {"crashes": 1, "injury": 1, "fatal": 0, "pedestrian": 0, "bicycle": 0, "density": 0.2, "year_range": "2020-2024"}}, {"type": "Feature", "geometry": {"type": "Point", "coordinates": [-69.637838, 44.547748]}, "properties": {"crashes": 1, "injury": 1, "fatal": 0, "pedestrian": 0, "bicycle": 0, "density": 0.2, "year_range": "2020-2024"}}, {"type": "Feature", "geometry": {"type": "Point", "coordinates": [-70.457658, 43.495495]}, "properties": {"crashes": 1, "injury": 1, "fatal": 0, "pedestrian": 0, "bicycle": 0, "density": 0.2, "year_range": "2020-2024"}}, {"type": "Feature", "geometry": {"type": "Point", "coordinates": [-70.264865, 43.655856]}, "properties": {"crashes": 1, "injury": 1, "fatal": 0, "pedestrian": 0, "bicycle": 0, "density": 0.2, "year_range": "2020-2024"}}, {"type": "Feature", "geometry": {"type": "Point", "coordinates": [-69.115315, 44.151351]}, "properties": {"crashes": 1, "injury": 1, "fatal": 0, "pedestrian": 0, "bicycle": 0, "density": 0.2, "year_range": "2020-2024"}}, {"type": "Feature", "geometry": {"type": "Point", "coordinates": [-69.673874, 44.558559]}, "properties": {"crashes": 1, "injury": 1, "fatal": 0, "pedestrian": 0, "bicycle": 0, "density": 0.2, "year_range": "2020-2024"}}, {"type": "Feature", "geometry": {"type": "Point", "coordinates": [-70.34955, 43.634234]}, "properties": {"crashes": 1, "injury": 1, "fatal": 0, "pedestrian": 0, "bicycle": 0, "density": 0.2, "year_range": "2020-2024"}}, {"type": "Feature", "geometry": {"type": "Point", "coordinates": [-68.790991, 44.836036]}, "properties": {"crashes": 2, "injury": 2, "fatal": 0, "pedestrian": 0, "bicycle": 0, "density": 0.5, "year_range": "2020-2024"}}, {"type": "Feature", "geometry": {"type": "Point", "coordinates": [-70.830631, 43.425225]}, "properties": {"crashes": 1, "injury": 1, "fatal": 0, "pedestrian": 0, "bicycle": 0, "density": 0.2, "year_range": "2020-2024"}}, {"type": "Feature", "geometry": {"type": "Point", "coordinates": [-69.861261, 43.920721]}, "properties": {"crashes": 1, "injury": 1, "fatal": 0, "pedestrian": 0, "bicycle": 0, "density": 0.2, "year_range": "2020-2024"}}, {"type": "Feature", "geometry": {"type": "Point", "coordinates": [-69.156757, 45.178378]}, "properties": {"crashes": 1, "injury": 1, "fatal": 0, "pedestrian": 0, "bicycle": 0, "density": 0.2, "year_range": "2020-2024"}}, {"type": "Feature", "geometry": {"type": "Point", "coordinates": [-70.598198, 43.318919]}, "properties": {"crashes": 1, "injury": 1, "fatal": 0, "pedestrian": 0, "bicycle": 0, "density": 0.2, "year_range": "2020-2024"}}, {"type": "Feature", "geometry": {"type": "Point", "coordinates": [-69.821622, 43.904505]}, "properties": {"crashes": 1, "injury": 1, "fatal": 0, "pedestrian": 0, "bicycle": 0, "density": 0.2, "year_range": "2020-2024"}}, {"type": "Feature", "geometry": {"type": "Point", "coordinates": [-70.475676, 43.482883]}, "properties": {"crashes": 1, "injury": 1, "fatal": 0, "pedestrian": 0, "bicycle": 0, "density": 0.2, "year_range": "2020-2024"}}, {"type": "Feature", "geometry": {"type": "Point", "coordinates": [-69.772973, 44.254054]}, "properties": {"crashes": 1, "injury": 1, "fatal": 0, "pedestrian": 0, "bicycle": 0, "density": 0.2, "year_range": "2020-2024"}}, {"type": "Feature", "geometry": {"type": "Point", "coordinates": [-69.738739, 44.236036]}, "properties": {"crashes": 1, "injury": 1, "fatal": 0, "pedestrian": 0, "bicycle": 0, "density": 0.2, "year_range": "2020-2024"}}, {"type": "Feature", "geometry": {"type": "Point", "coordinates": [-70.36036, 43.675676]}, "properties": {"crashes": 1, "injury": 1, "fatal": 0, "pedestrian": 0, "bicycle": 0, "density": 0.2, "year_range": "2020-2024"}}, {"type": "Feature", "geometry": {"type": "Point", "coordinates": [-70.18018, 44.102703]}, "properties": {"crashes": 1, "injury": 1, "fatal": 0, "pedestrian": 0, "bicycle": 0, "density": 0.2, "year_range": "2020-2024"}}, {"type": "Feature", "geometry": {"type": "Point", "coordinates": [-70.445045, 43.522523]}, "properties": {"crashes": 1, "injury": 1, "fatal": 0, "pedestrian": 0, "bicycle": 0, "density": 0.2, "year_range": "2020-2024"}}, {"type": "Feature", "geometry": {"type": "Point", "coordinates": [-70.277477, 43.627027]}, "properties": {"crashes": 1, "injury": 1, "fatal": 0, "pedestrian": 0, "bicycle": 0, "density": 0.2, "year_range": "2020-2024"}}, {"type": "Feature", "geometry": {"type": "Point", "coordinates": [-70.313514, 43.65045]}, "properties": {"crashes": 1, "injury": 1, "fatal": 0, "pedestrian": 0, "bicycle": 0, "density": 0.2, "year_range": "2020-2024"}}, {"type": "Feature", "geometry": {"type": "Point", "coordinates": [-70.192793, 44.102703]}, "properties": {"crashes": 1, "injury": 1, "fatal": 0, "pedestrian": 0, "bicycle": 0, "density": 0.2, "year_range": "2020-2024"}}, {"type": "Feature", "geometry": {"type": "Point", "coordinates": [-69.536937, 44.034234]}, "properties": {"crashes": 1, "injury": 1, "fatal": 0, "pedestrian": 0, "bicycle": 0, "density": 0.2, "year_range": "2020-2024"}}, {"type": "Feature", "geometry": {"type": "Point", "coordinates": [-70.63964, 43.169369]}, "properties": {"crashes": 1, "injury": 1, "fatal": 0, "pedestrian": 0, "bicycle": 0, "density": 0.2, "year_range": "2020-2024"}}, {"type": "Feature", "geometry": {"type": "Point", "coordinates": [-70.430631, 43.50991]}, "properties": {"crashes": 1, "injury": 1, "fatal": 0, "pedestrian": 0, "bicycle": 0, "density": 0.2, "year_range": "2020-2024"}}, {"type": "Feature", "geometry": {"type": "Point", "coordinates": [-70.273874, 43.657658]}, "properties": {"crashes": 1, "injury": 1, "fatal": 0, "pedestrian": 0, "bicycle": 0, "density": 0.2, "year_range": "2020-2024"}}, {"type": "Feature", "geometry": {"type": "Point", "coordinates": [-70.455856, 43.942342]}, "properties": {"crashes": 1, "injury": 1, "fatal": 0, "pedestrian": 0, "bicycle": 0, "density": 0.2, "year_range": "2020-2024"}}, {"type": "Feature", "geometry": {"type": "Point", "coordinates": [-69.67027, 43.895495]}, "properties": {"crashes": 1, "injury": 1, "fatal": 0, "pedestrian": 0, "bicycle": 0, "density": 0.2, "year_range": "2020-2024"}}, {"type": "Feature", "geometry": {"type": "Point", "coordinates": [-68.985586, 44.726126]}, "properties": {"crashes": 1, "injury": 1, "fatal": 0, "pedestrian": 0, "bicycle": 0, "density": 0.2, "year_range": "2020-2024"}}, {"type": "Feature", "geometry": {"type": "Point", "coordinates": [-68.823423, 44.836036]}, "properties": {"crashes": 1, "injury": 1, "fatal": 0, "pedestrian": 0, "bicycle": 0, "density": 0.2, "year_range": "2020-2024"}}, {"type": "Feature", "geometry": {"type": "Point", "coordinates": [-70.410811, 43.47027]}, "properties": {"crashes": 1, "injury": 1, "fatal": 0, "pedestrian": 0, "bicycle": 0, "density": 0.2, "year_range": "2020-2024"}}, {"type": "Feature", "geometry": {"type": "Point", "coordinates": [-70.383784, 43.778378]}, "properties": {"crashes": 1, "injury": 1, "fatal": 0, "pedestrian": 0, "bicycle": 0, "density": 0.2, "year_range": "2020-2024"}}, {"type": "Feature", "geometry": {"type": "Point", "coordinates": [-70.522523, 43.664865]}, "properties": {"crashes": 1, "injury": 1, "fatal": 0, "pedestrian": 0, "bicycle": 0, "density": 0.2, "year_range": "2020-2024"}}, {"type": "Feature", "geometry": {"type": "Point", "coordinates": [-70.362162, 43.686486]}, "properties": {"crashes": 1, "injury": 1, "fatal": 0, "pedestrian": 0, "bicycle": 0, "density": 0.2, "year_range": "2020-2024"}}, {"type": "Feature", "geometry": {"type": "Point", "coordinates": [-68.965766, 45.063063]}, "properties": {"crashes": 1, "injury": 1, "fatal": 0, "pedestrian": 0, "bicycle": 0, "density": 0.2, "year_range": "2020-2024"}}, {"type": "Feature", "geometry": {"type": "Point", "coordinates": [-68.940541, 44.935135]}, "properties": {"crashes": 1, "injury": 1, "fatal": 0, "pedestrian": 0, "bicycle": 0, "density": 0.2, "year_range": "2020-2024"}}, {"type": "Feature", "geometry": {"type": "Point", "coordinates": [-70.434234, 43.535135]}, "properties": {"crashes": 1, "injury": 1, "fatal": 0, "pedestrian": 0, "bicycle": 0, "density": 0.2, "year_range": "2020-2024"}}, {"type": "Feature", "geometry": {"type": "Point", "coordinates": [-70.30991, 43.627027]}, "properties": {"crashes": 1, "injury": 1, "fatal": 0, "pedestrian": 0, "bicycle": 0, "density": 0.2, "year_range": "2020-2024"}}, {"type": "Feature", "geometry": {"type": "Point", "coordinates": [-67.434234, 45.163964]}, "properties": {"crashes": 1, "injury": 1, "fatal": 0, "pedestrian": 0, "bicycle": 0, "density": 0.2, "year_range": "2020-2024"}}, {"type": "Feature", "geometry": {"type": "Point", "coordinates": [-69.27027, 44.834234]}, "properties": {"crashes": 1, "injury": 1, "fatal": 0, "pedestrian": 0, "bicycle": 0, "density": 0.2, "year_range": "2020-2024"}}, {"type": "Feature", "geometry": {"type": "Point", "coordinates": [-70.778378, 43.383784]}, "properties": {"crashes": 1, "injury": 1, "fatal": 0, "pedestrian": 0, "bicycle": 0, "density": 0.2, "year_range": "2020-2024"}}, {"type": "Feature", "geometry": {"type": "Point", "coordinates": [-70.214414, 44.099099]}, "properties": {"crashes": 1, "injury": 1, "fatal": 0, "pedestrian": 0, "bicycle": 0, "density": 0.2, "year_range": "2020-2024"}}, {"type": "Feature", "geometry": {"type": "Point", "coordinates": [-70.41982, 43.641441]}, "properties": {"crashes": 1, "injury": 1, "fatal": 0, "pedestrian": 0, "bicycle": 0, "density": 0.2, "year_range": "2020-2024"}}, {"type": "Feature", "geometry": {"type": "Point", "coordinates": [-70.345946, 43.623423]}, "properties": {"crashes": 1, "injury": 1, "fatal": 0, "pedestrian": 0, "bicycle": 0, "density": 0.2, "year_range": "2020-2024"}}, {"type": "Feature", "geometry": {"type": "Point", "coordinates": [-70.621622, 43.255856]}, "properties": {"crashes": 1, "injury": 1, "fatal": 0, "pedestrian": 0, "bicycle": 0, "density": 0.2, "year_range": "2020-2024"}}, {"type": "Feature", "geometry": {"type": "Point", "coordinates": [-68.771171, 44.8]}, "properties": {"crashes": 1, "injury": 1, "fatal": 0, "pedestrian": 0, "bicycle": 0, "density": 0.2, "year_range": "2020-2024"}}, {"type": "Feature", "geometry": {"type": "Point", "coordinates": [-70.331532, 43.645045]}, "properties": {"crashes": 1, "injury": 1, "fatal": 0, "pedestrian": 0, "bicycle": 0, "density": 0.2, "year_range": "2020-2024"}}, {"type": "Feature", "geometry": {"type": "Point", "coordinates": [-70.609009, 43.322523]}, "properties": {"crashes": 1, "injury": 1, "fatal": 0, "pedestrian": 0, "bicycle": 0, "density": 0.2, "year_range": "2020-2024"}}, {"type": "Feature", "geometry": {"type": "Point", "coordinates": [-70.293694, 43.69009]}, "properties": {"crashes": 1, "injury": 1, "fatal": 0, "pedestrian": 0, "bicycle": 0, "density": 0.2, "year_range": "2020-2024"}}, {"type": "Feature", "geometry": {"type": "Point", "coordinates": [-70.27027, 43.630631]}, "properties": {"crashes": 1, "injury": 1, "fatal": 0, "pedestrian": 0, "bicycle": 0, "density": 0.2, "year_range": "2020-2024"}}, {"type": "Feature", "geometry": {"type": "Point", "coordinates": [-69.65045, 44.437838]}, "properties": {"crashes": 1, "injury": 1, "fatal": 0, "pedestrian": 0, "bicycle": 0, "density": 0.2, "year_range": "2020-2024"}}, {"type": "Feature", "geometry": {"type": "Point", "coordinates": [-70.540541, 43.612613]}, "properties": {"crashes": 1, "injury": 1, "fatal": 0, "pedestrian": 0, "bicycle": 0, "density": 0.2, "year_range": "2020-2024"}}, {"type": "Feature", "geometry": {"type": "Point", "coordinates": [-70.787387, 43.29009]}, "properties": {"crashes": 1, "injury": 1, "fatal": 0, "pedestrian": 0, "bicycle": 0, "density": 0.2, "year_range": "2020-2024"}}, {"type": "Feature", "geometry": {"type": "Point", "coordinates": [-70.288288, 43.699099]}, "properties": {"crashes": 1, "injury": 1, "fatal": 0, "pedestrian": 0, "bicycle": 0, "density": 0.2, "year_range": "2020-2024"}}, {"type": "Feature", "geometry": {"type": "Point", "coordinates": [-70.291892, 43.686486]}, "properties": {"crashes": 1, "injury": 1, "fatal": 0, "pedestrian": 0, "bicycle": 0, "density": 0.2, "year_range": "2020-2024"}}, {"type": "Feature", "geometry": {"type": "Point", "coordinates": [-70.232432, 44.117117]}, "properties": {"crashes": 1, "injury": 1, "fatal": 0, "pedestrian": 0, "bicycle": 0, "density": 0.2, "year_range": "2020-2024"}}, {"type": "Feature", "geometry": {"type": "Point", "coordinates": [-70.336937, 43.637838]}, "properties": {"crashes": 1, "injury": 1, "fatal": 0, "pedestrian": 0, "bicycle": 0, "density": 0.2, "year_range": "2020-2024"}}, {"type": "Feature", "geometry": {"type": "Point", "coordinates": [-69.266667, 44.538739]}, "properties": {"crashes": 1, "injury": 1, "fatal": 0, "pedestrian": 0, "bicycle": 0, "density": 0.2, "year_range": "2020-2024"}}, {"type": "Feature", "geometry": {"type": "Point", "coordinates": [-69.996396, 43.911712]}, "properties": {"crashes": 1, "injury": 1, "fatal": 0, "pedestrian": 0, "bicycle": 0, "density": 0.2, "year_range": "2020-2024"}}, {"type": "Feature", "geometry": {"type": "Point", "coordinates": [-70.282883, 43.654054]}, "properties": {"crashes": 1, "injury": 1, "fatal": 0, "pedestrian": 0, "bicycle": 0, "density": 0.2, "year_range": "2020-2024"}}, {"type": "Feature", "geometry": {"type": "Point", "coordinates": [-68.978378, 44.854054]}, "properties": {"crashes": 1, "injury": 1, "fatal": 0, "pedestrian": 0, "bicycle": 0, "density": 0.2, "year_range": "2020-2024"}}, {"type": "Feature", "geometry": {"type": "Point", "coordinates": [-70.558559, 43.414414]}, "properties": {"crashes": 1, "injury": 1, "fatal": 0, "pedestrian": 0, "bicycle": 0, "density": 0.2, "year_range": "2020-2024"}}, {"type": "Feature", "geometry": {"type": "Point", "coordinates": [-70.32973, 43.677477]}, "properties": {"crashes": 1, "injury": 1, "fatal": 0, "pedestrian": 0, "bicycle": 0, "density": 0.2, "year_range": "2020-2024"}}, {"type": "Feature", "geometry": {"type": "Point", "coordinates": [-70.194595, 44.100901]}, "properties": {"crashes": 1, "injury": 1, "fatal": 0, "pedestrian": 0, "bicycle": 0, "density": 0.2, "year_range": "2020-2024"}}, {"type": "Feature", "geometry": {"type": "Point", "coordinates": [-70.587387, 43.36036]}, "properties": {"crashes": 1, "injury": 1, "fatal": 0, "pedestrian": 0, "bicycle": 0, "density": 0.2, "year_range": "2020-2024"}}, {"type": "Feature", "geometry": {"type": "Point", "coordinates": [-70.153153, 44.657658]}, "properties": {"crashes": 1, "injury": 1, "fatal": 0, "pedestrian": 0, "bicycle": 0, "density": 0.2, "year_range": "2020-2024"}}, {"type": "Feature", "geometry": {"type": "Point", "coordinates": [-70.299099, 43.747748]}, "properties": {"crashes": 1, "injury": 1, "fatal": 0, "pedestrian": 0, "bicycle": 0, "density": 0.2, "year_range": "2020-2024"}}, {"type": "Feature", "geometry": {"type": "Point", "coordinates": [-70.427027, 44.38018]}, "properties": {"crashes": 1, "injury": 1, "fatal": 0, "pedestrian": 0, "bicycle": 0, "density": 0.2, "year_range": "2020-2024"}}, {"type": "Feature", "geometry": {"type": "Point", "coordinates": [-70.227027, 44.099099]}, "properties": {"crashes": 1, "injury": 1, "fatal": 0, "pedestrian": 0, "bicycle": 0, "density": 0.2, "year_range": "2020-2024"}}, {"type": "Feature", "geometry": {"type": "Point", "coordinates": [-70.300901, 43.693694]}, "properties": {"crashes": 1, "injury": 1, "fatal": 0, "pedestrian": 0, "bicycle": 0, "density": 0.2, "year_range": "2020-2024"}}, {"type": "Feature", "geometry": {"type": "Point", "coordinates": [-70.257658, 43.654054]}, "properties": {"crashes": 1, "injury": 1, "fatal": 0, "pedestrian": 0, "bicycle": 0, "density": 0.2, "year_range": "2020-2024"}}, {"type": "Feature", "geometry": {"type": "Point", "coordinates": [-70.254054, 43.661261]}, "properties": {"crashes": 1, "injury": 1, "fatal": 0, "pedestrian": 0, "bicycle": 0, "density": 0.2, "year_range": "2020-2024"}}, {"type": "Feature", "geometry": {"type": "Point", "coordinates": [-69.396396, 44.099099]}, "properties": {"crashes": 1, "injury": 1, "fatal": 0, "pedestrian": 0, "bicycle": 0, "density": 0.2, "year_range": "2020-2024"}}, {"type": "Feature", "geometry": {"type": "Point", "coordinates": [-68.812613, 44.827027]}, "properties": {"crashes": 1, "injury": 1, "fatal": 0, "pedestrian": 0, "bicycle": 0, "density": 0.2, "year_range": "2020-2024"}}, {"type": "Feature", "geometry": {"type": "Point", "coordinates": [-70.268468, 43.659459]}, "properties": {"crashes": 1, "injury": 1, "fatal": 0, "pedestrian": 0, "bicycle": 0, "density": 0.2, "year_range": "2020-2024"}}, {"type": "Feature", "geometry": {"type": "Point", "coordinates": [-70.587387, 43.479279]}, "properties": {"crashes": 1, "injury": 1, "fatal": 0, "pedestrian": 0, "bicycle": 0, "density": 0.2, "year_range": "2020-2024"}}, {"type": "Feature", "geometry": {"type": "Point", "coordinates": [-70.216216, 44.100901]}, "properties": {"crashes": 1, "injury": 1, "fatal": 0, "pedestrian": 0, "bicycle": 0, "density": 0.2, "year_range": "2020-2024"}}]}