{"type": "FeatureCollection", "features": [{"type": "Feature", "geometry": {"type": "Point", "coordinates": [-97.414414, 42.034234]}, "properties": {"crashes": 5, "injury": 1, "fatal": 0, "pedestrian": 0, "bicycle": 0, "density": 1.2, "year_range": "2016-2020"}}, {"type": "Feature", "geometry": {"type": "Point", "coordinates": [-97.403604, 42.01982]}, "properties": {"crashes": 1, "injury": 1, "fatal": 0, "pedestrian": 0, "bicycle": 0, "density": 0.2, "year_range": "2016-2020"}}, {"type": "Feature", "geometry": {"type": "Point", "coordinates": [-97.4, 42.046847]}, "properties": {"crashes": 1, "injury": 1, "fatal": 0, "pedestrian": 0, "bicycle": 0, "density": 0.2, "year_range": "2016-2020"}}, {"type": "Feature", "geometry": {"type": "Point", "coordinates": [-97.412613, 42.025225]}, "properties": {"crashes": 7, "injury": 1, "fatal": 0, "pedestrian": 0, "bicycle": 0, "density": 1.8, "year_range": "2016-2020"}}, {"type": "Feature", "geometry": {"type": "Point", "coordinates": [-97.403604, 42.023423]}, "properties": {"crashes": 3, "injury": 0, "fatal": 0, "pedestrian": 0, "bicycle": 0, "density": 0.8, "year_range": "2016-2020"}}, {"type": "Feature", "geometry": {"type": "Point", "coordinates": [-97.416216, 42.048649]}, "properties": {"crashes": 2, "injury": 1, "fatal": 0, "pedestrian": 0, "bicycle": 0, "density": 0.5, "year_range": "2016-2020"}}, {"type": "Feature", "geometry": {"type": "Point", "coordinates": [-97.446847, 42.052252]}, "properties": {"crashes": 2, "injury": 0, "fatal": 0, "pedestrian": 0, "bicycle": 0, "density": 0.5, "year_range": "2016-2020"}}, {"type": "Feature", "geometry": {"type": "Point", "coordinates": [-97.407207, 42.030631]}, "properties": {"crashes": 22, "injury": 8, "fatal": 0, "pedestrian": 0, "bicycle": 0, "density": 5.5, "year_range": "2016-2020"}}, {"type": "Feature", "geometry": {"type": "Point", "coordinates": [-97.407207, 42.037838]}, "properties": {"crashes": 24, "injury": 6, "fatal": 0, "pedestrian": 0, "bicycle": 0, "density": 6.0, "year_range": "2016-2020"}}, {"type": "Feature", "geometry": {"type": "Point", "coordinates": [-97.423423, 42.028829]}, "properties": {"crashes": 3, "injury": 1, "fatal": 0, "pedestrian": 0, "bicycle": 0, "density": 0.8, "year_range": "2016-2020"}}, {"type": "Feature", "geometry": {"type": "Point", "coordinates": [-97.41982, 42.032432]}, "properties": {"crashes": 7, "injury": 1, "fatal": 0, "pedestrian": 0, "bicycle": 0, "density": 1.8, "year_range": "2016-2020"}}, {"type": "Feature", "geometry": {"type": "Point", "coordinates": [-97.387387, 42.032432]}, "properties": {"crashes": 47, "injury": 7, "fatal": 0, "pedestrian": 0, "bicycle": 0, "density": 11.8, "year_range": "2016-2020"}}, {"type": "Feature", "geometry": {"type": "Point", "coordinates": [-97.423423, 42.032432]}, "properties": {"crashes": 8, "injury": 4, "fatal": 0, "pedestrian": 0, "bicycle": 0, "density": 2.0, "year_range": "2016-2020"}}, {"type": "Feature", "geometry": {"type": "Point", "coordinates": [-97.45045, 42.032432]}, "properties": {"crashes": 5, "injury": 2, "fatal": 0, "pedestrian": 0, "bicycle": 0, "density": 1.2, "year_range": "2016-2020"}}, {"type": "Feature", "geometry": {"type": "Point", "coordinates": [-97.418018, 42.03964]}, "properties": {"crashes": 10, "injury": 1, "fatal": 0, "pedestrian": 0, "bicycle": 0, "density": 2.5, "year_range": "2016-2020"}}, {"type": "Feature", "geometry": {"type": "Point", "coordinates": [-97.394595, 42.046847]}, "properties": {"crashes": 3, "injury": 2, "fatal": 0, "pedestrian": 0, "bicycle": 0, "density": 0.8, "year_range": "2016-2020"}}, {"type": "Feature", "geometry": {"type": "Point", "coordinates": [-97.416216, 42.034234]}, "properties": {"crashes": 3, "injury": 0, "fatal": 0, "pedestrian": 0, "bicycle": 0, "density": 0.8, "year_range": "2016-2020"}}, {"type": "Feature", "geometry": {"type": "Point", "coordinates": [-97.421622, 42.046847]}, "properties": {"crashes": 25, "injury": 7, "fatal": 1, "pedestrian": 0, "bicycle": 0, "density": 6.2, "year_range": "2016-2020"}}, {"type": "Feature", "geometry": {"type": "Point", "coordinates": [-97.418018, 42.028829]}, "properties": {"crashes": 2, "injury": 0, "fatal": 0, "pedestrian": 0, "bicycle": 0, "density": 0.5, "year_range": "2016-2020"}}, {"type": "Feature", "geometry": {"type": "Point", "coordinates": [-97.412613, 42.037838]}, "properties": {"crashes": 10, "injury": 4, "fatal": 0, "pedestrian": 0, "bicycle": 0, "density": 2.5, "year_range": "2016-2020"}}, {"type": "Feature", "geometry": {"type": "Point", "coordinates": [-97.405405, 42.030631]}, "properties": {"crashes": 4, "injury": 0, "fatal": 0, "pedestrian": 0, "bicycle": 0, "density": 1.0, "year_range": "2016-2020"}}, {"type": "Feature", "geometry": {"type": "Point", "coordinates": [-97.437838, 42.046847]}, "properties": {"crashes": 3, "injury": 0, "fatal": 0, "pedestrian": 0, "bicycle": 0, "density": 0.8, "year_range": "2016-2020"}}, {"type": "Feature", "geometry": {"type": "Point", "coordinates": [-97.454054, 42.032432]}, "properties": {"crashes": 4, "injury": 1, "fatal": 0, "pedestrian": 0, "bicycle": 0, "density": 1.0, "year_range": "2016-2020"}}, {"type": "Feature", "geometry": {"type": "Point", "coordinates": [-97.416216, 42.021622]}, "properties": {"crashes": 5, "injury": 2, "fatal": 0, "pedestrian": 0, "bicycle": 0, "density": 1.2, "year_range": "2016-2020"}}, {"type": "Feature", "geometry": {"type": "Point", "coordinates": [-97.446847, 42.046847]}, "properties": {"crashes": 13, "injury": 3, "fatal": 0, "pedestrian": 0, "bicycle": 0, "density": 3.2, "year_range": "2016-2020"}}, {"type": "Feature", "geometry": {"type": "Point", "coordinates": [-97.461261, 42.034234]}, "properties": {"crashes": 2, "injury": 0, "fatal": 0, "pedestrian": 0, "bicycle": 0, "density": 0.5, "year_range": "2016-2020"}}, {"type": "Feature", "geometry": {"type": "Point", "coordinates": [-97.412613, 42.027027]}, "properties": {"crashes": 13, "injury": 3, "fatal": 0, "pedestrian": 0, "bicycle": 0, "density": 3.2, "year_range": "2016-2020"}}, {"type": "Feature", "geometry": {"type": "Point", "coordinates": [-97.428829, 42.028829]}, "properties": {"crashes": 6, "injury": 3, "fatal": 0, "pedestrian": 0, "bicycle": 0, "density": 1.5, "year_range": "2016-2020"}}, {"type": "Feature", "geometry": {"type": "Point", "coordinates": [-97.410811, 42.018018]}, "properties": {"crashes": 3, "injury": 0, "fatal": 0, "pedestrian": 0, "bicycle": 0, "density": 0.8, "year_range": "2016-2020"}}, {"type": "Feature", "geometry": {"type": "Point", "coordinates": [-97.421622, 42.041441]}, "properties": {"crashes": 1, "injury": 0, "fatal": 0, "pedestrian": 0, "bicycle": 0, "density": 0.2, "year_range": "2016-2020"}}, {"type": "Feature", "geometry": {"type": "Point", "coordinates": [-97.427027, 42.037838]}, "properties": {"crashes": 11, "injury": 1, "fatal": 0, "pedestrian": 0, "bicycle": 0, "density": 2.8, "year_range": "2016-2020"}}, {"type": "Feature", "geometry": {"type": "Point", "coordinates": [-97.412613, 42.018018]}, "properties": {"crashes": 7, "injury": 4, "fatal": 0, "pedestrian": 0, "bicycle": 0, "density": 1.8, "year_range": "2016-2020"}}, {"type": "Feature", "geometry": {"type": "Point", "coordinates": [-97.409009, 42.018018]}, "properties": {"crashes": 8, "injury": 2, "fatal": 0, "pedestrian": 0, "bicycle": 0, "density": 2.0, "year_range": "2016-2020"}}, {"type": "Feature", "geometry": {"type": "Point", "coordinates": [-97.403604, 42.025225]}, "properties": {"crashes": 3, "injury": 1, "fatal": 0, "pedestrian": 0, "bicycle": 0, "density": 0.8, "year_range": "2016-2020"}}, {"type": "Feature", "geometry": {"type": "Point", "coordinates": [-97.418018, 42.048649]}, "properties": {"crashes": 4, "injury": 1, "fatal": 0, "pedestrian": 0, "bicycle": 0, "density": 1.0, "year_range": "2016-2020"}}, {"type": "Feature", "geometry": {"type": "Point", "coordinates": [-97.427027, 42.043243]}, "properties": {"crashes": 4, "injury": 1, "fatal": 0, "pedestrian": 0, "bicycle": 0, "density": 1.0, "year_range": "2016-2020"}}, {"type": "Feature", "geometry": {"type": "Point", "coordinates": [-97.428829, 42.025225]}, "properties": {"crashes": 8, "injury": 3, "fatal": 0, "pedestrian": 0, "bicycle": 0, "density": 2.0, "year_range": "2016-2020"}}, {"type": "Feature", "geometry": {"type": "Point", "coordinates": [-97.41982, 42.028829]}, "properties": {"crashes": 16, "injury": 5, "fatal": 0, "pedestrian": 0, "bicycle": 0, "density": 4.0, "year_range": "2016-2020"}}, {"type": "Feature", "geometry": {"type": "Point", "coordinates": [-97.421622, 42.030631]}, "properties": {"crashes": 6, "injury": 0, "fatal": 0, "pedestrian": 0, "bicycle": 0, "density": 1.5, "year_range": "2016-2020"}}, {"type": "Feature", "geometry": {"type": "Point", "coordinates": [-97.427027, 42.028829]}, "properties": {"crashes": 10, "injury": 2, "fatal": 0, "pedestrian": 0, "bicycle": 0, "density": 2.5, "year_range": "2016-2020"}}, {"type": "Feature", "geometry": {"type": "Point", "coordinates": [-97.423423, 42.046847]}, "properties": {"crashes": 15, "injury": 7, "fatal": 0, "pedestrian": 0, "bicycle": 0, "density": 3.8, "year_range": "2016-2020"}}, {"type": "Feature", "geometry": {"type": "Point", "coordinates": [-97.418018, 42.032432]}, "properties": {"crashes": 8, "injury": 1, "fatal": 0, "pedestrian": 0, "bicycle": 0, "density": 2.0, "year_range": "2016-2020"}}, {"type": "Feature", "geometry": {"type": "Point", "coordinates": [-97.398198, 42.037838]}, "properties": {"crashes": 1, "injury": 0, "fatal": 0, "pedestrian": 0, "bicycle": 0, "density": 0.2, "year_range": "2016-2020"}}, {"type": "Feature", "geometry": {"type": "Point", "coordinates": [-97.427027, 42.027027]}, "properties": {"crashes": 11, "injury": 3, "fatal": 0, "pedestrian": 0, "bicycle": 0, "density": 2.8, "year_range": "2016-2020"}}, {"type": "Feature", "geometry": {"type": "Point", "coordinates": [-97.416216, 42.01982]}, "properties": {"crashes": 1, "injury": 0, "fatal": 0, "pedestrian": 0, "bicycle": 0, "density": 0.2, "year_range": "2016-2020"}}, {"type": "Feature", "geometry": {"type": "Point", "coordinates": [-97.414414, 42.016216]}, "properties": {"crashes": 1, "injury": 0, "fatal": 0, "pedestrian": 0, "bicycle": 0, "density": 0.2, "year_range": "2016-2020"}}, {"type": "Feature", "geometry": {"type": "Point", "coordinates": [-97.448649, 42.032432]}, "properties": {"crashes": 2, "injury": 0, "fatal": 0, "pedestrian": 0, "bicycle": 0, "density": 0.5, "year_range": "2016-2020"}}, {"type": "Feature", "geometry": {"type": "Point", "coordinates": [-97.421622, 42.025225]}, "properties": {"crashes": 9, "injury": 2, "fatal": 0, "pedestrian": 1, "bicycle": 0, "density": 2.2, "year_range": "2016-2020"}}, {"type": "Feature", "geometry": {"type": "Point", "coordinates": [-97.401802, 42.036036]}, "properties": {"crashes": 2, "injury": 1, "fatal": 1, "pedestrian": 0, "bicycle": 0, "density": 0.5, "year_range": "2016-2020"}}, {"type": "Feature", "geometry": {"type": "Point", "coordinates": [-97.398198, 42.032432]}, "properties": {"crashes": 6, "injury": 2, "fatal": 0, "pedestrian": 0, "bicycle": 0, "density": 1.5, "year_range": "2016-2020"}}, {"type": "Feature", "geometry": {"type": "Point", "coordinates": [-97.443243, 42.032432]}, "properties": {"crashes": 4, "injury": 0, "fatal": 0, "pedestrian": 0, "bicycle": 0, "density": 1.0, "year_range": "2016-2020"}}, {"type": "Feature", "geometry": {"type": "Point", "coordinates": [-97.414414, 42.025225]}, "properties": {"crashes": 4, "injury": 1, "fatal": 0, "pedestrian": 0, "bicycle": 0, "density": 1.0, "year_range": "2016-2020"}}, {"type": "Feature", "geometry": {"type": "Point", "coordinates": [-97.409009, 42.021622]}, "properties": {"crashes": 3, "injury": 0, "fatal": 0, "pedestrian": 0, "bicycle": 0, "density": 0.8, "year_range": "2016-2020"}}, {"type": "Feature", "geometry": {"type": "Point", "coordinates": [-97.41982, 42.030631]}, "properties": {"crashes": 11, "injury": 2, "fatal": 0, "pedestrian": 0, "bicycle": 0, "density": 2.8, "year_range": "2016-2020"}}, {"type": "Feature", "geometry": {"type": "Point", "coordinates": [-97.41982, 42.046847]}, "properties": {"crashes": 15, "injury": 7, "fatal": 0, "pedestrian": 0, "bicycle": 0, "density": 3.8, "year_range": "2016-2020"}}, {"type": "Feature", "geometry": {"type": "Point", "coordinates": [-97.430631, 42.018018]}, "properties": {"crashes": 4, "injury": 1, "fatal": 0, "pedestrian": 0, "bicycle": 0, "density": 1.0, "year_range": "2016-2020"}}, {"type": "Feature", "geometry": {"type": "Point", "coordinates": [-97.416216, 42.036036]}, "properties": {"crashes": 10, "injury": 1, "fatal": 0, "pedestrian": 0, "bicycle": 0, "density": 2.5, "year_range": "2016-2020"}}, {"type": "Feature", "geometry": {"type": "Point", "coordinates": [-97.421622, 42.034234]}, "properties": {"crashes": 6, "injury": 2, "fatal": 0, "pedestrian": 0, "bicycle": 0, "density": 1.5, "year_range": "2016-2020"}}, {"type": "Feature", "geometry": {"type": "Point", "coordinates": [-97.416216, 42.030631]}, "properties": {"crashes": 15, "injury": 3, "fatal": 0, "pedestrian": 0, "bicycle": 0, "density": 3.8, "year_range": "2016-2020"}}, {"type": "Feature", "geometry": {"type": "Point", "coordinates": [-97.464865, 42.032432]}, "properties": {"crashes": 23, "injury": 5, "fatal": 0, "pedestrian": 0, "bicycle": 0, "density": 5.8, "year_range": "2016-2020"}}, {"type": "Feature", "geometry": {"type": "Point", "coordinates": [-97.416216, 42.027027]}, "properties": {"crashes": 3, "injury": 1, "fatal": 1, "pedestrian": 0, "bicycle": 0, "density": 0.8, "year_range": "2016-2020"}}, {"type": "Feature", "geometry": {"type": "Point", "coordinates": [-97.421622, 42.032432]}, "properties": {"crashes": 3, "injury": 1, "fatal": 0, "pedestrian": 0, "bicycle": 0, "density": 0.8, "year_range": "2016-2020"}}, {"type": "Feature", "geometry": {"type": "Point", "coordinates": [-97.410811, 42.046847]}, "properties": {"crashes": 9, "injury": 3, "fatal": 0, "pedestrian": 0, "bicycle": 0, "density": 2.2, "year_range": "2016-2020"}}, {"type": "Feature", "geometry": {"type": "Point", "coordinates": [-97.43964, 42.025225]}, "properties": {"crashes": 3, "injury": 2, "fatal": 0, "pedestrian": 0, "bicycle": 0, "density": 0.8, "year_range": "2016-2020"}}, {"type": "Feature", "geometry": {"type": "Point", "coordinates": [-97.403604, 42.032432]}, "properties": {"crashes": 7, "injury": 4, "fatal": 0, "pedestrian": 0, "bicycle": 0, "density": 1.8, "year_range": "2016-2020"}}, {"type": "Feature", "geometry": {"type": "Point", "coordinates": [-97.41982, 42.034234]}, "properties": {"crashes": 13, "injury": 4, "fatal": 0, "pedestrian": 0, "bicycle": 0, "density": 3.2, "year_range": "2016-2020"}}, {"type": "Feature", "geometry": {"type": "Point", "coordinates": [-97.416216, 42.018018]}, "properties": {"crashes": 9, "injury": 2, "fatal": 0, "pedestrian": 0, "bicycle": 0, "density": 2.2, "year_range": "2016-2020"}}, {"type": "Feature", "geometry": {"type": "Point", "coordinates": [-97.416216, 42.025225]}, "properties": {"crashes": 15, "injury": 2, "fatal": 0, "pedestrian": 0, "bicycle": 0, "density": 3.8, "year_range": "2016-2020"}}, {"type": "Feature", "geometry": {"type": "Point", "coordinates": [-97.430631, 42.028829]}, "properties": {"crashes": 3, "injury": 1, "fatal": 0, "pedestrian": 0, "bicycle": 0, "density": 0.8, "year_range": "2016-2020"}}, {"type": "Feature", "geometry": {"type": "Point", "coordinates": [-97.409009, 42.025225]}, "properties": {"crashes": 2, "injury": 1, "fatal": 0, "pedestrian": 0, "bicycle": 0, "density": 0.5, "year_range": "2016-2020"}}, {"type": "Feature", "geometry": {"type": "Point", "coordinates": [-97.437838, 42.048649]}, "properties": {"crashes": 1, "injury": 0, "fatal": 0, "pedestrian": 0, "bicycle": 0, "density": 0.2, "year_range": "2016-2020"}}, {"type": "Feature", "geometry": {"type": "Point", "coordinates": [-97.414414, 42.018018]}, "properties": {"crashes": 8, "injury": 2, "fatal": 0, "pedestrian": 0, "bicycle": 0, "density": 2.0, "year_range": "2016-2020"}}, {"type": "Feature", "geometry": {"type": "Point", "coordinates": [-97.409009, 42.016216]}, "properties": {"crashes": 4, "injury": 0, "fatal": 0, "pedestrian": 0, "bicycle": 0, "density": 1.0, "year_range": "2016-2020"}}, {"type": "Feature", "geometry": {"type": "Point", "coordinates": [-97.434234, 42.030631]}, "properties": {"crashes": 5, "injury": 4, "fatal": 0, "pedestrian": 0, "bicycle": 0, "density": 1.2, "year_range": "2016-2020"}}, {"type": "Feature", "geometry": {"type": "Point", "coordinates": [-97.430631, 42.025225]}, "properties": {"crashes": 4, "injury": 4, "fatal": 0, "pedestrian": 0, "bicycle": 0, "density": 1.0, "year_range": "2016-2020"}}, {"type": "Feature", "geometry": {"type": "Point", "coordinates": [-97.414414, 42.027027]}, "properties": {"crashes": 15, "injury": 6, "fatal": 0, "pedestrian": 0, "bicycle": 0, "density": 3.8, "year_range": "2016-2020"}}, {"type": "Feature", "geometry": {"type": "Point", "coordinates": [-97.414414, 42.032432]}, "properties": {"crashes": 7, "injury": 2, "fatal": 0, "pedestrian": 0, "bicycle": 0, "density": 1.8, "year_range": "2016-2020"}}, {"type": "Feature", "geometry": {"type": "Point", "coordinates": [-97.4, 42.018018]}, "properties": {"crashes": 2, "injury": 1, "fatal": 0, "pedestrian": 0, "bicycle": 0, "density": 0.5, "year_range": "2016-2020"}}, {"type": "Feature", "geometry": {"type": "Point", "coordinates": [-97.410811, 42.032432]}, "properties": {"crashes": 9, "injury": 0, "fatal": 0, "pedestrian": 0, "bicycle": 0, "density": 2.2, "year_range": "2016-2020"}}, {"type": "Feature", "geometry": {"type": "Point", "coordinates": [-97.4, 42.025225]}, "properties": {"crashes": 2, "injury": 0, "fatal": 0, "pedestrian": 0, "bicycle": 0, "density": 0.5, "year_range": "2016-2020"}}, {"type": "Feature", "geometry": {"type": "Point", "coordinates": [-97.425225, 42.054054]}, "properties": {"crashes": 3, "injury": 1, "fatal": 0, "pedestrian": 0, "bicycle": 0, "density": 0.8, "year_range": "2016-2020"}}, {"type": "Feature", "geometry": {"type": "Point", "coordinates": [-97.423423, 42.021622]}, "properties": {"crashes": 2, "injury": 0, "fatal": 0, "pedestrian": 0, "bicycle": 0, "density": 0.5, "year_range": "2016-2020"}}, {"type": "Feature", "geometry": {"type": "Point", "coordinates": [-97.428829, 42.043243]}, "properties": {"crashes": 1, "injury": 0, "fatal": 0, "pedestrian": 0, "bicycle": 0, "density": 0.2, "year_range": "2016-2020"}}, {"type": "Feature", "geometry": {"type": "Point", "coordinates": [-97.414414, 42.021622]}, "properties": {"crashes": 5, "injury": 1, "fatal": 0, "pedestrian": 0, "bicycle": 0, "density": 1.2, "year_range": "2016-2020"}}, {"type": "Feature", "geometry": {"type": "Point", "coordinates": [-97.43964, 42.046847]}, "properties": {"crashes": 6, "injury": 2, "fatal": 0, "pedestrian": 0, "bicycle": 0, "density": 1.5, "year_range": "2016-2020"}}, {"type": "Feature", "geometry": {"type": "Point", "coordinates": [-97.381982, 42.018018]}, "properties": {"crashes": 28, "injury": 13, "fatal": 0, "pedestrian": 0, "bicycle": 0, "density": 7.0, "year_range": "2016-2020"}}, {"type": "Feature", "geometry": {"type": "Point", "coordinates": [-97.409009, 42.012613]}, "properties": {"crashes": 3, "injury": 1, "fatal": 0, "pedestrian": 0, "bicycle": 0, "density": 0.8, "year_range": "2016-2020"}}, {"type": "Feature", "geometry": {"type": "Point", "coordinates": [-97.436036, 42.055856]}, "properties": {"crashes": 2, "injury": 1, "fatal": 0, "pedestrian": 0, "bicycle": 0, "density": 0.5, "year_range": "2016-2020"}}, {"type": "Feature", "geometry": {"type": "Point", "coordinates": [-97.407207, 42.036036]}, "properties": {"crashes": 12, "injury": 3, "fatal": 0, "pedestrian": 0, "bicycle": 0, "density": 3.0, "year_range": "2016-2020"}}, {"type": "Feature", "geometry": {"type": "Point", "coordinates": [-97.418018, 42.037838]}, "properties": {"crashes": 20, "injury": 7, "fatal": 0, "pedestrian": 0, "bicycle": 0, "density": 5.0, "year_range": "2016-2020"}}, {"type": "Feature", "geometry": {"type": "Point", "coordinates": [-97.403604, 42.021622]}, "properties": {"crashes": 3, "injury": 0, "fatal": 0, "pedestrian": 0, "bicycle": 0, "density": 0.8, "year_range": "2016-2020"}}, {"type": "Feature", "geometry": {"type": "Point", "coordinates": [-97.446847, 42.036036]}, "properties": {"crashes": 6, "injury": 1, "fatal": 0, "pedestrian": 0, "bicycle": 0, "density": 1.5, "year_range": "2016-2020"}}, {"type": "Feature", "geometry": {"type": "Point", "coordinates": [-97.423423, 42.025225]}, "properties": {"crashes": 9, "injury": 2, "fatal": 0, "pedestrian": 0, "bicycle": 0, "density": 2.2, "year_range": "2016-2020"}}, {"type": "Feature", "geometry": {"type": "Point", "coordinates": [-97.432432, 42.046847]}, "properties": {"crashes": 3, "injury": 0, "fatal": 0, "pedestrian": 0, "bicycle": 0, "density": 0.8, "year_range": "2016-2020"}}, {"type": "Feature", "geometry": {"type": "Point", "coordinates": [-97.407207, 42.028829]}, "properties": {"crashes": 5, "injury": 2, "fatal": 0, "pedestrian": 0, "bicycle": 0, "density": 1.2, "year_range": "2016-2020"}}, {"type": "Feature", "geometry": {"type": "Point", "coordinates": [-97.425225, 42.023423]}, "properties": {"crashes": 4, "injury": 1, "fatal": 0, "pedestrian": 0, "bicycle": 0, "density": 1.0, "year_range": "2016-2020"}}, {"type": "Feature", "geometry": {"type": "Point", "coordinates": [-97.434234, 42.025225]}, "properties": {"crashes": 18, "injury": 2, "fatal": 0, "pedestrian": 0, "bicycle": 0, "density": 4.5, "year_range": "2016-2020"}}, {"type": "Feature", "geometry": {"type": "Point", "coordinates": [-97.427027, 42.034234]}, "properties": {"crashes": 4, "injury": 2, "fatal": 0, "pedestrian": 0, "bicycle": 0, "density": 1.0, "year_range": "2016-2020"}}, {"type": "Feature", "geometry": {"type": "Point", "coordinates": [-97.434234, 42.03964]}, "properties": {"crashes": 1, "injury": 1, "fatal": 0, "pedestrian": 0, "bicycle": 0, "density": 0.2, "year_range": "2016-2020"}}, {"type": "Feature", "geometry": {"type": "Point", "coordinates": [-97.409009, 42.032432]}, "properties": {"crashes": 9, "injury": 4, "fatal": 0, "pedestrian": 0, "bicycle": 0, "density": 2.2, "year_range": "2016-2020"}}, {"type": "Feature", "geometry": {"type": "Point", "coordinates": [-97.403604, 42.027027]}, "properties": {"crashes": 2, "injury": 0, "fatal": 0, "pedestrian": 0, "bicycle": 0, "density": 0.5, "year_range": "2016-2020"}}, {"type": "Feature", "geometry": {"type": "Point", "coordinates": [-97.423423, 42.037838]}, "properties": {"crashes": 7, "injury": 2, "fatal": 0, "pedestrian": 0, "bicycle": 0, "density": 1.8, "year_range": "2016-2020"}}, {"type": "Feature", "geometry": {"type": "Point", "coordinates": [-97.41982, 42.043243]}, "properties": {"crashes": 9, "injury": 3, "fatal": 0, "pedestrian": 0, "bicycle": 0, "density": 2.2, "year_range": "2016-2020"}}, {"type": "Feature", "geometry": {"type": "Point", "coordinates": [-97.401802, 42.032432]}, "properties": {"crashes": 4, "injury": 2, "fatal": 0, "pedestrian": 0, "bicycle": 0, "density": 1.0, "year_range": "2016-2020"}}, {"type": "Feature", "geometry": {"type": "Point", "coordinates": [-97.434234, 42.01982]}, "properties": {"crashes": 7, "injury": 3, "fatal": 0, "pedestrian": 0, "bicycle": 0, "density": 1.8, "year_range": "2016-2020"}}, {"type": "Feature", "geometry": {"type": "Point", "coordinates": [-97.434234, 42.018018]}, "properties": {"crashes": 1, "injury": 0, "fatal": 0, "pedestrian": 0, "bicycle": 0, "density": 0.2, "year_range": "2016-2020"}}, {"type": "Feature", "geometry": {"type": "Point", "coordinates": [-97.412613, 42.036036]}, "properties": {"crashes": 4, "injury": 1, "fatal": 0, "pedestrian": 0, "bicycle": 0, "density": 1.0, "year_range": "2016-2020"}}, {"type": "Feature", "geometry": {"type": "Point", "coordinates": [-97.423423, 42.030631]}, "properties": {"crashes": 6, "injury": 1, "fatal": 0, "pedestrian": 0, "bicycle": 0, "density": 1.5, "year_range": "2016-2020"}}, {"type": "Feature", "geometry": {"type": "Point", "coordinates": [-97.418018, 42.041441]}, "properties": {"crashes": 2, "injury": 0, "fatal": 0, "pedestrian": 0, "bicycle": 0, "density": 0.5, "year_range": "2016-2020"}}, {"type": "Feature", "geometry": {"type": "Point", "coordinates": [-97.412613, 42.030631]}, "properties": {"crashes": 8, "injury": 4, "fatal": 0, "pedestrian": 0, "bicycle": 0, "density": 2.0, "year_range": "2016-2020"}}, {"type": "Feature", "geometry": {"type": "Point", "coordinates": [-97.412613, 42.023423]}, "properties": {"crashes": 5, "injury": 0, "fatal": 0, "pedestrian": 0, "bicycle": 0, "density": 1.2, "year_range": "2016-2020"}}, {"type": "Feature", "geometry": {"type": "Point", "coordinates": [-97.407207, 42.010811]}, "properties": {"crashes": 6, "injury": 2, "fatal": 0, "pedestrian": 0, "bicycle": 0, "density": 1.5, "year_range": "2016-2020"}}, {"type": "Feature", "geometry": {"type": "Point", "coordinates": [-97.446847, 42.028829]}, "properties": {"crashes": 7, "injury": 1, "fatal": 0, "pedestrian": 0, "bicycle": 0, "density": 1.8, "year_range": "2016-2020"}}, {"type": "Feature", "geometry": {"type": "Point", "coordinates": [-97.428829, 42.018018]}, "properties": {"crashes": 5, "injury": 1, "fatal": 0, "pedestrian": 0, "bicycle": 0, "density": 1.2, "year_range": "2016-2020"}}, {"type": "Feature", "geometry": {"type": "Point", "coordinates": [-97.421622, 42.048649]}, "properties": {"crashes": 5, "injury": 0, "fatal": 0, "pedestrian": 0, "bicycle": 0, "density": 1.2, "year_range": "2016-2020"}}, {"type": "Feature", "geometry": {"type": "Point", "coordinates": [-97.401802, 42.034234]}, "properties": {"crashes": 2, "injury": 0, "fatal": 0, "pedestrian": 0, "bicycle": 0, "density": 0.5, "year_range": "2016-2020"}}, {"type": "Feature", "geometry": {"type": "Point", "coordinates": [-97.414414, 42.030631]}, "properties": {"crashes": 14, "injury": 5, "fatal": 0, "pedestrian": 0, "bicycle": 0, "density": 3.5, "year_range": "2016-2020"}}, {"type": "Feature", "geometry": {"type": "Point", "coordinates": [-97.407207, 42.03964]}, "properties": {"crashes": 5, "injury": 2, "fatal": 0, "pedestrian": 0, "bicycle": 0, "density": 1.2, "year_range": "2016-2020"}}, {"type": "Feature", "geometry": {"type": "Point", "coordinates": [-97.405405, 42.028829]}, "properties": {"crashes": 1, "injury": 0, "fatal": 0, "pedestrian": 0, "bicycle": 0, "density": 0.2, "year_range": "2016-2020"}}, {"type": "Feature", "geometry": {"type": "Point", "coordinates": [-97.423423, 42.027027]}, "properties": {"crashes": 5, "injury": 4, "fatal": 0, "pedestrian": 0, "bicycle": 0, "density": 1.2, "year_range": "2016-2020"}}, {"type": "Feature", "geometry": {"type": "Point", "coordinates": [-97.41982, 42.027027]}, "properties": {"crashes": 2, "injury": 1, "fatal": 0, "pedestrian": 0, "bicycle": 0, "density": 0.5, "year_range": "2016-2020"}}, {"type": "Feature", "geometry": {"type": "Point", "coordinates": [-97.410811, 42.037838]}, "properties": {"crashes": 2, "injury": 1, "fatal": 0, "pedestrian": 0, "bicycle": 0, "density": 0.5, "year_range": "2016-2020"}}, {"type": "Feature", "geometry": {"type": "Point", "coordinates": [-97.385586, 42.018018]}, "properties": {"crashes": 2, "injury": 1, "fatal": 0, "pedestrian": 0, "bicycle": 0, "density": 0.5, "year_range": "2016-2020"}}, {"type": "Feature", "geometry": {"type": "Point", "coordinates": [-97.416216, 42.043243]}, "properties": {"crashes": 5, "injury": 1, "fatal": 0, "pedestrian": 0, "bicycle": 0, "density": 1.2, "year_range": "2016-2020"}}, {"type": "Feature", "geometry": {"type": "Point", "coordinates": [-97.432432, 42.018018]}, "properties": {"crashes": 5, "injury": 1, "fatal": 0, "pedestrian": 0, "bicycle": 0, "density": 1.2, "year_range": "2016-2020"}}, {"type": "Feature", "geometry": {"type": "Point", "coordinates": [-97.396396, 42.018018]}, "properties": {"crashes": 1, "injury": 1, "fatal": 0, "pedestrian": 0, "bicycle": 0, "density": 0.2, "year_range": "2016-2020"}}, {"type": "Feature", "geometry": {"type": "Point", "coordinates": [-97.421622, 42.028829]}, "properties": {"crashes": 3, "injury": 0, "fatal": 0, "pedestrian": 0, "bicycle": 0, "density": 0.8, "year_range": "2016-2020"}}, {"type": "Feature", "geometry": {"type": "Point", "coordinates": [-97.428829, 42.010811]}, "properties": {"crashes": 1, "injury": 0, "fatal": 0, "pedestrian": 0, "bicycle": 0, "density": 0.2, "year_range": "2016-2020"}}, {"type": "Feature", "geometry": {"type": "Point", "coordinates": [-97.454054, 42.030631]}, "properties": {"crashes": 11, "injury": 3, "fatal": 0, "pedestrian": 0, "bicycle": 0, "density": 2.8, "year_range": "2016-2020"}}, {"type": "Feature", "geometry": {"type": "Point", "coordinates": [-97.421622, 42.054054]}, "properties": {"crashes": 3, "injury": 2, "fatal": 0, "pedestrian": 0, "bicycle": 0, "density": 0.8, "year_range": "2016-2020"}}, {"type": "Feature", "geometry": {"type": "Point", "coordinates": [-97.412613, 42.021622]}, "properties": {"crashes": 1, "injury": 0, "fatal": 0, "pedestrian": 0, "bicycle": 0, "density": 0.2, "year_range": "2016-2020"}}, {"type": "Feature", "geometry": {"type": "Point", "coordinates": [-97.421622, 42.021622]}, "properties": {"crashes": 3, "injury": 1, "fatal": 0, "pedestrian": 0, "bicycle": 0, "density": 0.8, "year_range": "2016-2020"}}, {"type": "Feature", "geometry": {"type": "Point", "coordinates": [-97.434234, 42.045045]}, "properties": {"crashes": 1, "injury": 0, "fatal": 0, "pedestrian": 0, "bicycle": 0, "density": 0.2, "year_range": "2016-2020"}}, {"type": "Feature", "geometry": {"type": "Point", "coordinates": [-97.401802, 42.03964]}, "properties": {"crashes": 1, "injury": 1, "fatal": 0, "pedestrian": 0, "bicycle": 0, "density": 0.2, "year_range": "2016-2020"}}, {"type": "Feature", "geometry": {"type": "Point", "coordinates": [-97.446847, 42.05045]}, "properties": {"crashes": 1, "injury": 0, "fatal": 0, "pedestrian": 0, "bicycle": 0, "density": 0.2, "year_range": "2016-2020"}}, {"type": "Feature", "geometry": {"type": "Point", "coordinates": [-97.427027, 42.054054]}, "properties": {"crashes": 3, "injury": 2, "fatal": 0, "pedestrian": 0, "bicycle": 0, "density": 0.8, "year_range": "2016-2020"}}, {"type": "Feature", "geometry": {"type": "Point", "coordinates": [-97.407207, 42.012613]}, "properties": {"crashes": 2, "injury": 1, "fatal": 0, "pedestrian": 0, "bicycle": 0, "density": 0.5, "year_range": "2016-2020"}}, {"type": "Feature", "geometry": {"type": "Point", "coordinates": [-97.409009, 42.023423]}, "properties": {"crashes": 4, "injury": 1, "fatal": 0, "pedestrian": 0, "bicycle": 0, "density": 1.0, "year_range": "2016-2020"}}, {"type": "Feature", "geometry": {"type": "Point", "coordinates": [-97.464865, 42.05045]}, "properties": {"crashes": 1, "injury": 0, "fatal": 0, "pedestrian": 0, "bicycle": 0, "density": 0.2, "year_range": "2016-2020"}}, {"type": "Feature", "geometry": {"type": "Point", "coordinates": [-97.427027, 42.021622]}, "properties": {"crashes": 43, "injury": 16, "fatal": 0, "pedestrian": 0, "bicycle": 0, "density": 10.8, "year_range": "2016-2020"}}, {"type": "Feature", "geometry": {"type": "Point", "coordinates": [-97.434234, 42.041441]}, "properties": {"crashes": 2, "injury": 1, "fatal": 0, "pedestrian": 0, "bicycle": 0, "density": 0.5, "year_range": "2016-2020"}}, {"type": "Feature", "geometry": {"type": "Point", "coordinates": [-97.41982, 42.036036]}, "properties": {"crashes": 7, "injury": 1, "fatal": 0, "pedestrian": 0, "bicycle": 0, "density": 1.8, "year_range": "2016-2020"}}, {"type": "Feature", "geometry": {"type": "Point", "coordinates": [-97.425225, 42.010811]}, "properties": {"crashes": 3, "injury": 0, "fatal": 0, "pedestrian": 0, "bicycle": 0, "density": 0.8, "year_range": "2016-2020"}}, {"type": "Feature", "geometry": {"type": "Point", "coordinates": [-97.414414, 42.043243]}, "properties": {"crashes": 4, "injury": 1, "fatal": 0, "pedestrian": 0, "bicycle": 0, "density": 1.0, "year_range": "2016-2020"}}, {"type": "Feature", "geometry": {"type": "Point", "coordinates": [-97.445045, 42.021622]}, "properties": {"crashes": 2, "injury": 0, "fatal": 0, "pedestrian": 0, "bicycle": 0, "density": 0.5, "year_range": "2016-2020"}}, {"type": "Feature", "geometry": {"type": "Point", "coordinates": [-97.421622, 42.027027]}, "properties": {"crashes": 1, "injury": 0, "fatal": 0, "pedestrian": 0, "bicycle": 0, "density": 0.2, "year_range": "2016-2020"}}, {"type": "Feature", "geometry": {"type": "Point", "coordinates": [-97.412613, 42.028829]}, "properties": {"crashes": 5, "injury": 1, "fatal": 0, "pedestrian": 0, "bicycle": 0, "density": 1.2, "year_range": "2016-2020"}}, {"type": "Feature", "geometry": {"type": "Point", "coordinates": [-97.403604, 42.018018]}, "properties": {"crashes": 1, "injury": 0, "fatal": 0, "pedestrian": 0, "bicycle": 0, "density": 0.2, "year_range": "2016-2020"}}, {"type": "Feature", "geometry": {"type": "Point", "coordinates": [-97.41982, 42.01982]}, "properties": {"crashes": 1, "injury": 0, "fatal": 0, "pedestrian": 0, "bicycle": 0, "density": 0.2, "year_range": "2016-2020"}}, {"type": "Feature", "geometry": {"type": "Point", "coordinates": [-97.427027, 42.052252]}, "properties": {"crashes": 3, "injury": 0, "fatal": 0, "pedestrian": 0, "bicycle": 0, "density": 0.8, "year_range": "2016-2020"}}, {"type": "Feature", "geometry": {"type": "Point", "coordinates": [-97.446847, 42.03964]}, "properties": {"crashes": 3, "injury": 0, "fatal": 0, "pedestrian": 0, "bicycle": 0, "density": 0.8, "year_range": "2016-2020"}}, {"type": "Feature", "geometry": {"type": "Point", "coordinates": [-97.434234, 42.043243]}, "properties": {"crashes": 2, "injury": 1, "fatal": 0, "pedestrian": 0, "bicycle": 0, "density": 0.5, "year_range": "2016-2020"}}, {"type": "Feature", "geometry": {"type": "Point", "coordinates": [-97.428829, 42.036036]}, "properties": {"crashes": 3, "injury": 0, "fatal": 0, "pedestrian": 0, "bicycle": 0, "density": 0.8, "year_range": "2016-2020"}}, {"type": "Feature", "geometry": {"type": "Point", "coordinates": [-97.425225, 42.028829]}, "properties": {"crashes": 4, "injury": 0, "fatal": 0, "pedestrian": 0, "bicycle": 0, "density": 1.0, "year_range": "2016-2020"}}, {"type": "Feature", "geometry": {"type": "Point", "coordinates": [-97.443243, 42.028829]}, "properties": {"crashes": 1, "injury": 0, "fatal": 0, "pedestrian": 0, "bicycle": 0, "density": 0.2, "year_range": "2016-2020"}}, {"type": "Feature", "geometry": {"type": "Point", "coordinates": [-97.445045, 42.046847]}, "properties": {"crashes": 1, "injury": 0, "fatal": 0, "pedestrian": 0, "bicycle": 0, "density": 0.2, "year_range": "2016-2020"}}, {"type": "Feature", "geometry": {"type": "Point", "coordinates": [-97.403604, 42.030631]}, "properties": {"crashes": 2, "injury": 1, "fatal": 0, "pedestrian": 0, "bicycle": 0, "density": 0.5, "year_range": "2016-2020"}}, {"type": "Feature", "geometry": {"type": "Point", "coordinates": [-97.407207, 42.01982]}, "properties": {"crashes": 5, "injury": 4, "fatal": 0, "pedestrian": 0, "bicycle": 0, "density": 1.2, "year_range": "2016-2020"}}, {"type": "Feature", "geometry": {"type": "Point", "coordinates": [-97.407207, 42.016216]}, "properties": {"crashes": 5, "injury": 0, "fatal": 0, "pedestrian": 0, "bicycle": 0, "density": 1.2, "year_range": "2016-2020"}}, {"type": "Feature", "geometry": {"type": "Point", "coordinates": [-97.427027, 42.03964]}, "properties": {"crashes": 8, "injury": 6, "fatal": 0, "pedestrian": 0, "bicycle": 0, "density": 2.0, "year_range": "2016-2020"}}, {"type": "Feature", "geometry": {"type": "Point", "coordinates": [-97.410811, 42.016216]}, "properties": {"crashes": 3, "injury": 1, "fatal": 0, "pedestrian": 0, "bicycle": 0, "density": 0.8, "year_range": "2016-2020"}}, {"type": "Feature", "geometry": {"type": "Point", "coordinates": [-97.428829, 42.045045]}, "properties": {"crashes": 2, "injury": 0, "fatal": 0, "pedestrian": 0, "bicycle": 0, "density": 0.5, "year_range": "2016-2020"}}, {"type": "Feature", "geometry": {"type": "Point", "coordinates": [-97.390991, 42.018018]}, "properties": {"crashes": 2, "injury": 1, "fatal": 0, "pedestrian": 0, "bicycle": 0, "density": 0.5, "year_range": "2016-2020"}}, {"type": "Feature", "geometry": {"type": "Point", "coordinates": [-97.41982, 42.025225]}, "properties": {"crashes": 6, "injury": 1, "fatal": 0, "pedestrian": 0, "bicycle": 0, "density": 1.5, "year_range": "2016-2020"}}, {"type": "Feature", "geometry": {"type": "Point", "coordinates": [-97.434234, 42.046847]}, "properties": {"crashes": 2, "injury": 0, "fatal": 0, "pedestrian": 0, "bicycle": 0, "density": 0.5, "year_range": "2016-2020"}}, {"type": "Feature", "geometry": {"type": "Point", "coordinates": [-97.414414, 42.036036]}, "properties": {"crashes": 3, "injury": 1, "fatal": 0, "pedestrian": 0, "bicycle": 0, "density": 0.8, "year_range": "2016-2020"}}, {"type": "Feature", "geometry": {"type": "Point", "coordinates": [-97.407207, 42.034234]}, "properties": {"crashes": 19, "injury": 4, "fatal": 0, "pedestrian": 0, "bicycle": 0, "density": 4.8, "year_range": "2016-2020"}}, {"type": "Feature", "geometry": {"type": "Point", "coordinates": [-97.459459, 42.046847]}, "properties": {"crashes": 2, "injury": 2, "fatal": 0, "pedestrian": 0, "bicycle": 0, "density": 0.5, "year_range": "2016-2020"}}, {"type": "Feature", "geometry": {"type": "Point", "coordinates": [-97.416216, 42.041441]}, "properties": {"crashes": 3, "injury": 0, "fatal": 0, "pedestrian": 0, "bicycle": 0, "density": 0.8, "year_range": "2016-2020"}}, {"type": "Feature", "geometry": {"type": "Point", "coordinates": [-97.427027, 42.030631]}, "properties": {"crashes": 12, "injury": 2, "fatal": 0, "pedestrian": 0, "bicycle": 0, "density": 3.0, "year_range": "2016-2020"}}, {"type": "Feature", "geometry": {"type": "Point", "coordinates": [-97.416216, 42.046847]}, "properties": {"crashes": 42, "injury": 12, "fatal": 0, "pedestrian": 0, "bicycle": 0, "density": 10.5, "year_range": "2016-2020"}}, {"type": "Feature", "geometry": {"type": "Point", "coordinates": [-97.410811, 42.028829]}, "properties": {"crashes": 4, "injury": 0, "fatal": 0, "pedestrian": 0, "bicycle": 0, "density": 1.0, "year_range": "2016-2020"}}, {"type": "Feature", "geometry": {"type": "Point", "coordinates": [-97.418018, 42.030631]}, "properties": {"crashes": 14, "injury": 4, "fatal": 0, "pedestrian": 0, "bicycle": 0, "density": 3.5, "year_range": "2016-2020"}}, {"type": "Feature", "geometry": {"type": "Point", "coordinates": [-97.430631, 42.034234]}, "properties": {"crashes": 1, "injury": 0, "fatal": 0, "pedestrian": 0, "bicycle": 0, "density": 0.2, "year_range": "2016-2020"}}, {"type": "Feature", "geometry": {"type": "Point", "coordinates": [-97.423423, 42.036036]}, "properties": {"crashes": 5, "injury": 1, "fatal": 0, "pedestrian": 0, "bicycle": 0, "density": 1.2, "year_range": "2016-2020"}}, {"type": "Feature", "geometry": {"type": "Point", "coordinates": [-97.414414, 42.01982]}, "properties": {"crashes": 3, "injury": 0, "fatal": 0, "pedestrian": 0, "bicycle": 0, "density": 0.8, "year_range": "2016-2020"}}, {"type": "Feature", "geometry": {"type": "Point", "coordinates": [-97.407207, 42.032432]}, "properties": {"crashes": 30, "injury": 16, "fatal": 0, "pedestrian": 0, "bicycle": 0, "density": 7.5, "year_range": "2016-2020"}}, {"type": "Feature", "geometry": {"type": "Point", "coordinates": [-97.412613, 42.032432]}, "properties": {"crashes": 33, "injury": 8, "fatal": 0, "pedestrian": 0, "bicycle": 0, "density": 8.2, "year_range": "2016-2020"}}, {"type": "Feature", "geometry": {"type": "Point", "coordinates": [-97.446847, 42.027027]}, "properties": {"crashes": 35, "injury": 12, "fatal": 0, "pedestrian": 0, "bicycle": 0, "density": 8.8, "year_range": "2016-2020"}}, {"type": "Feature", "geometry": {"type": "Point", "coordinates": [-97.41982, 42.021622]}, "properties": {"crashes": 3, "injury": 0, "fatal": 0, "pedestrian": 0, "bicycle": 0, "density": 0.8, "year_range": "2016-2020"}}, {"type": "Feature", "geometry": {"type": "Point", "coordinates": [-97.432432, 42.048649]}, "properties": {"crashes": 1, "injury": 0, "fatal": 0, "pedestrian": 0, "bicycle": 0, "density": 0.2, "year_range": "2016-2020"}}, {"type": "Feature", "geometry": {"type": "Point", "coordinates": [-97.407207, 42.025225]}, "properties": {"crashes": 2, "injury": 0, "fatal": 0, "pedestrian": 0, "bicycle": 0, "density": 0.5, "year_range": "2016-2020"}}, {"type": "Feature", "geometry": {"type": "Point", "coordinates": [-97.45045, 42.054054]}, "properties": {"crashes": 1, "injury": 0, "fatal": 0, "pedestrian": 0, "bicycle": 0, "density": 0.2, "year_range": "2016-2020"}}, {"type": "Feature", "geometry": {"type": "Point", "coordinates": [-97.403604, 42.028829]}, "properties": {"crashes": 6, "injury": 2, "fatal": 0, "pedestrian": 0, "bicycle": 0, "density": 1.5, "year_range": "2016-2020"}}, {"type": "Feature", "geometry": {"type": "Point", "coordinates": [-97.443243, 42.046847]}, "properties": {"crashes": 1, "injury": 0, "fatal": 0, "pedestrian": 0, "bicycle": 0, "density": 0.2, "year_range": "2016-2020"}}, {"type": "Feature", "geometry": {"type": "Point", "coordinates": [-97.41982, 42.018018]}, "properties": {"crashes": 4, "injury": 0, "fatal": 0, "pedestrian": 0, "bicycle": 0, "density": 1.0, "year_range": "2016-2020"}}, {"type": "Feature", "geometry": {"type": "Point", "coordinates": [-97.407207, 42.014414]}, "properties": {"crashes": 1, "injury": 0, "fatal": 0, "pedestrian": 0, "bicycle": 0, "density": 0.2, "year_range": "2016-2020"}}, {"type": "Feature", "geometry": {"type": "Point", "coordinates": [-97.412613, 42.034234]}, "properties": {"crashes": 5, "injury": 1, "fatal": 0, "pedestrian": 0, "bicycle": 0, "density": 1.2, "year_range": "2016-2020"}}, {"type": "Feature", "geometry": {"type": "Point", "coordinates": [-97.403604, 42.036036]}, "properties": {"crashes": 2, "injury": 0, "fatal": 0, "pedestrian": 0, "bicycle": 0, "density": 0.5, "year_range": "2016-2020"}}, {"type": "Feature", "geometry": {"type": "Point", "coordinates": [-97.416216, 42.045045]}, "properties": {"crashes": 1, "injury": 0, "fatal": 0, "pedestrian": 0, "bicycle": 0, "density": 0.2, "year_range": "2016-2020"}}, {"type": "Feature", "geometry": {"type": "Point", "coordinates": [-97.466667, 42.032432]}, "properties": {"crashes": 1, "injury": 1, "fatal": 0, "pedestrian": 0, "bicycle": 0, "density": 0.2, "year_range": "2016-2020"}}, {"type": "Feature", "geometry": {"type": "Point", "coordinates": [-97.387387, 42.043243]}, "properties": {"crashes": 2, "injury": 0, "fatal": 0, "pedestrian": 0, "bicycle": 0, "density": 0.5, "year_range": "2016-2020"}}, {"type": "Feature", "geometry": {"type": "Point", "coordinates": [-97.414414, 42.023423]}, "properties": {"crashes": 3, "injury": 2, "fatal": 0, "pedestrian": 0, "bicycle": 0, "density": 0.8, "year_range": "2016-2020"}}, {"type": "Feature", "geometry": {"type": "Point", "coordinates": [-97.446847, 42.037838]}, "properties": {"crashes": 1, "injury": 1, "fatal": 1, "pedestrian": 0, "bicycle": 0, "density": 0.2, "year_range": "2016-2020"}}, {"type": "Feature", "geometry": {"type": "Point", "coordinates": [-97.427027, 42.036036]}, "properties": {"crashes": 31, "injury": 13, "fatal": 1, "pedestrian": 0, "bicycle": 0, "density": 7.8, "year_range": "2016-2020"}}, {"type": "Feature", "geometry": {"type": "Point", "coordinates": [-97.398198, 42.034234]}, "properties": {"crashes": 1, "injury": 0, "fatal": 0, "pedestrian": 0, "bicycle": 0, "density": 0.2, "year_range": "2016-2020"}}, {"type": "Feature", "geometry": {"type": "Point", "coordinates": [-97.405405, 42.01982]}, "properties": {"crashes": 4, "injury": 1, "fatal": 0, "pedestrian": 0, "bicycle": 0, "density": 1.0, "year_range": "2016-2020"}}, {"type": "Feature", "geometry": {"type": "Point", "coordinates": [-97.446847, 42.055856]}, "properties": {"crashes": 2, "injury": 0, "fatal": 0, "pedestrian": 0, "bicycle": 0, "density": 0.5, "year_range": "2016-2020"}}, {"type": "Feature", "geometry": {"type": "Point", "coordinates": [-97.445045, 42.036036]}, "properties": {"crashes": 1, "injury": 0, "fatal": 0, "pedestrian": 0, "bicycle": 0, "density": 0.2, "year_range": "2016-2020"}}, {"type": "Feature", "geometry": {"type": "Point", "coordinates": [-97.414414, 42.028829]}, "properties": {"crashes": 4, "injury": 0, "fatal": 0, "pedestrian": 0, "bicycle": 0, "density": 1.0, "year_range": "2016-2020"}}, {"type": "Feature", "geometry": {"type": "Point", "coordinates": [-97.425225, 42.025225]}, "properties": {"crashes": 4, "injury": 1, "fatal": 0, "pedestrian": 0, "bicycle": 0, "density": 1.0, "year_range": "2016-2020"}}, {"type": "Feature", "geometry": {"type": "Point", "coordinates": [-97.418018, 42.027027]}, "properties": {"crashes": 2, "injury": 0, "fatal": 0, "pedestrian": 0, "bicycle": 0, "density": 0.5, "year_range": "2016-2020"}}, {"type": "Feature", "geometry": {"type": "Point", "coordinates": [-97.464865, 42.054054]}, "properties": {"crashes": 1, "injury": 1, "fatal": 0, "pedestrian": 0, "bicycle": 0, "density": 0.2, "year_range": "2016-2020"}}, {"type": "Feature", "geometry": {"type": "Point", "coordinates": [-97.441441, 42.032432]}, "properties": {"crashes": 1, "injury": 0, "fatal": 0, "pedestrian": 0, "bicycle": 0, "density": 0.2, "year_range": "2016-2020"}}, {"type": "Feature", "geometry": {"type": "Point", "coordinates": [-97.425225, 42.046847]}, "properties": {"crashes": 1, "injury": 0, "fatal": 0, "pedestrian": 0, "bicycle": 0, "density": 0.2, "year_range": "2016-2020"}}, {"type": "Feature", "geometry": {"type": "Point", "coordinates": [-97.425225, 42.027027]}, "properties": {"crashes": 1, "injury": 1, "fatal": 0, "pedestrian": 0, "bicycle": 0, "density": 0.2, "year_range": "2016-2020"}}, {"type": "Feature", "geometry": {"type": "Point", "coordinates": [-97.4, 42.023423]}, "properties": {"crashes": 1, "injury": 0, "fatal": 0, "pedestrian": 0, "bicycle": 0, "density": 0.2, "year_range": "2016-2020"}}, {"type": "Feature", "geometry": {"type": "Point", "coordinates": [-97.437838, 42.030631]}, "properties": {"crashes": 4, "injury": 0, "fatal": 0, "pedestrian": 0, "bicycle": 0, "density": 1.0, "year_range": "2016-2020"}}, {"type": "Feature", "geometry": {"type": "Point", "coordinates": [-97.425225, 42.036036]}, "properties": {"crashes": 3, "injury": 0, "fatal": 0, "pedestrian": 0, "bicycle": 0, "density": 0.8, "year_range": "2016-2020"}}, {"type": "Feature", "geometry": {"type": "Point", "coordinates": [-97.414414, 42.03964]}, "properties": {"crashes": 4, "injury": 1, "fatal": 0, "pedestrian": 0, "bicycle": 0, "density": 1.0, "year_range": "2016-2020"}}, {"type": "Feature", "geometry": {"type": "Point", "coordinates": [-97.441441, 42.05045]}, "properties": {"crashes": 2, "injury": 0, "fatal": 0, "pedestrian": 0, "bicycle": 0, "density": 0.5, "year_range": "2016-2020"}}, {"type": "Feature", "geometry": {"type": "Point", "coordinates": [-97.448649, 42.055856]}, "properties": {"crashes": 2, "injury": 0, "fatal": 0, "pedestrian": 0, "bicycle": 0, "density": 0.5, "year_range": "2016-2020"}}, {"type": "Feature", "geometry": {"type": "Point", "coordinates": [-97.432432, 42.021622]}, "properties": {"crashes": 4, "injury": 1, "fatal": 0, "pedestrian": 0, "bicycle": 0, "density": 1.0, "year_range": "2016-2020"}}, {"type": "Feature", "geometry": {"type": "Point", "coordinates": [-97.407207, 42.023423]}, "properties": {"crashes": 3, "injury": 2, "fatal": 0, "pedestrian": 0, "bicycle": 0, "density": 0.8, "year_range": "2016-2020"}}, {"type": "Feature", "geometry": {"type": "Point", "coordinates": [-97.418018, 42.021622]}, "properties": {"crashes": 5, "injury": 0, "fatal": 0, "pedestrian": 0, "bicycle": 0, "density": 1.2, "year_range": "2016-2020"}}, {"type": "Feature", "geometry": {"type": "Point", "coordinates": [-97.41982, 42.05045]}, "properties": {"crashes": 5, "injury": 1, "fatal": 0, "pedestrian": 0, "bicycle": 0, "density": 1.2, "year_range": "2016-2020"}}, {"type": "Feature", "geometry": {"type": "Point", "coordinates": [-97.410811, 42.027027]}, "properties": {"crashes": 8, "injury": 4, "fatal": 0, "pedestrian": 0, "bicycle": 0, "density": 2.0, "year_range": "2016-2020"}}, {"type": "Feature", "geometry": {"type": "Point", "coordinates": [-97.401802, 42.018018]}, "properties": {"crashes": 2, "injury": 0, "fatal": 0, "pedestrian": 0, "bicycle": 0, "density": 0.5, "year_range": "2016-2020"}}, {"type": "Feature", "geometry": {"type": "Point", "coordinates": [-97.409009, 42.027027]}, "properties": {"crashes": 4, "injury": 0, "fatal": 0, "pedestrian": 0, "bicycle": 0, "density": 1.0, "year_range": "2016-2020"}}, {"type": "Feature", "geometry": {"type": "Point", "coordinates": [-97.421622, 42.037838]}, "properties": {"crashes": 2, "injury": 0, "fatal": 0, "pedestrian": 0, "bicycle": 0, "density": 0.5, "year_range": "2016-2020"}}, {"type": "Feature", "geometry": {"type": "Point", "coordinates": [-97.461261, 42.032432]}, "properties": {"crashes": 5, "injury": 2, "fatal": 0, "pedestrian": 0, "bicycle": 0, "density": 1.2, "year_range": "2016-2020"}}, {"type": "Feature", "geometry": {"type": "Point", "coordinates": [-97.464865, 42.046847]}, "properties": {"crashes": 2, "injury": 0, "fatal": 0, "pedestrian": 0, "bicycle": 0, "density": 0.5, "year_range": "2016-2020"}}, {"type": "Feature", "geometry": {"type": "Point", "coordinates": [-97.443243, 42.023423]}, "properties": {"crashes": 12, "injury": 3, "fatal": 0, "pedestrian": 0, "bicycle": 0, "density": 3.0, "year_range": "2016-2020"}}, {"type": "Feature", "geometry": {"type": "Point", "coordinates": [-97.423423, 42.043243]}, "properties": {"crashes": 1, "injury": 0, "fatal": 0, "pedestrian": 0, "bicycle": 0, "density": 0.2, "year_range": "2016-2020"}}, {"type": "Feature", "geometry": {"type": "Point", "coordinates": [-97.446847, 42.032432]}, "properties": {"crashes": 8, "injury": 1, "fatal": 0, "pedestrian": 0, "bicycle": 0, "density": 2.0, "year_range": "2016-2020"}}, {"type": "Feature", "geometry": {"type": "Point", "coordinates": [-97.390991, 42.043243]}, "properties": {"crashes": 1, "injury": 0, "fatal": 0, "pedestrian": 0, "bicycle": 0, "density": 0.2, "year_range": "2016-2020"}}, {"type": "Feature", "geometry": {"type": "Point", "coordinates": [-97.385586, 42.034234]}, "properties": {"crashes": 1, "injury": 0, "fatal": 0, "pedestrian": 0, "bicycle": 0, "density": 0.2, "year_range": "2016-2020"}}, {"type": "Feature", "geometry": {"type": "Point", "coordinates": [-97.407207, 42.045045]}, "properties": {"crashes": 4, "injury": 1, "fatal": 0, "pedestrian": 0, "bicycle": 0, "density": 1.0, "year_range": "2016-2020"}}, {"type": "Feature", "geometry": {"type": "Point", "coordinates": [-97.428829, 42.032432]}, "properties": {"crashes": 2, "injury": 1, "fatal": 0, "pedestrian": 0, "bicycle": 0, "density": 0.5, "year_range": "2016-2020"}}, {"type": "Feature", "geometry": {"type": "Point", "coordinates": [-97.427027, 42.046847]}, "properties": {"crashes": 44, "injury": 17, "fatal": 0, "pedestrian": 0, "bicycle": 0, "density": 11.0, "year_range": "2016-2020"}}, {"type": "Feature", "geometry": {"type": "Point", "coordinates": [-97.421622, 42.023423]}, "properties": {"crashes": 2, "injury": 0, "fatal": 0, "pedestrian": 0, "bicycle": 0, "density": 0.5, "year_range": "2016-2020"}}, {"type": "Feature", "geometry": {"type": "Point", "coordinates": [-97.445045, 42.037838]}, "properties": {"crashes": 1, "injury": 0, "fatal": 0, "pedestrian": 0, "bicycle": 0, "density": 0.2, "year_range": "2016-2020"}}, {"type": "Feature", "geometry": {"type": "Point", "coordinates": [-97.403604, 42.010811]}, "properties": {"crashes": 1, "injury": 0, "fatal": 0, "pedestrian": 0, "bicycle": 0, "density": 0.2, "year_range": "2016-2020"}}, {"type": "Feature", "geometry": {"type": "Point", "coordinates": [-97.416216, 42.03964]}, "properties": {"crashes": 9, "injury": 1, "fatal": 0, "pedestrian": 0, "bicycle": 0, "density": 2.2, "year_range": "2016-2020"}}, {"type": "Feature", "geometry": {"type": "Point", "coordinates": [-97.430631, 42.046847]}, "properties": {"crashes": 4, "injury": 1, "fatal": 0, "pedestrian": 0, "bicycle": 0, "density": 1.0, "year_range": "2016-2020"}}, {"type": "Feature", "geometry": {"type": "Point", "coordinates": [-97.387387, 42.046847]}, "properties": {"crashes": 5, "injury": 3, "fatal": 0, "pedestrian": 0, "bicycle": 0, "density": 1.2, "year_range": "2016-2020"}}, {"type": "Feature", "geometry": {"type": "Point", "coordinates": [-97.432432, 42.032432]}, "properties": {"crashes": 2, "injury": 1, "fatal": 0, "pedestrian": 0, "bicycle": 0, "density": 0.5, "year_range": "2016-2020"}}, {"type": "Feature", "geometry": {"type": "Point", "coordinates": [-97.464865, 42.036036]}, "properties": {"crashes": 1, "injury": 0, "fatal": 0, "pedestrian": 0, "bicycle": 0, "density": 0.2, "year_range": "2016-2020"}}, {"type": "Feature", "geometry": {"type": "Point", "coordinates": [-97.455856, 42.054054]}, "properties": {"crashes": 2, "injury": 0, "fatal": 0, "pedestrian": 0, "bicycle": 0, "density": 0.5, "year_range": "2016-2020"}}, {"type": "Feature", "geometry": {"type": "Point", "coordinates": [-97.455856, 42.046847]}, "properties": {"crashes": 3, "injury": 1, "fatal": 0, "pedestrian": 0, "bicycle": 0, "density": 0.8, "year_range": "2016-2020"}}, {"type": "Feature", "geometry": {"type": "Point", "coordinates": [-97.414414, 42.010811]}, "properties": {"crashes": 2, "injury": 2, "fatal": 0, "pedestrian": 0, "bicycle": 0, "density": 0.5, "year_range": "2016-2020"}}, {"type": "Feature", "geometry": {"type": "Point", "coordinates": [-97.425225, 42.021622]}, "properties": {"crashes": 3, "injury": 1, "fatal": 0, "pedestrian": 0, "bicycle": 0, "density": 0.8, "year_range": "2016-2020"}}, {"type": "Feature", "geometry": {"type": "Point", "coordinates": [-97.407207, 42.043243]}, "properties": {"crashes": 6, "injury": 0, "fatal": 0, "pedestrian": 0, "bicycle": 0, "density": 1.5, "year_range": "2016-2020"}}, {"type": "Feature", "geometry": {"type": "Point", "coordinates": [-97.414414, 42.037838]}, "properties": {"crashes": 5, "injury": 0, "fatal": 0, "pedestrian": 0, "bicycle": 0, "density": 1.2, "year_range": "2016-2020"}}, {"type": "Feature", "geometry": {"type": "Point", "coordinates": [-97.423423, 42.045045]}, "properties": {"crashes": 1, "injury": 0, "fatal": 0, "pedestrian": 0, "bicycle": 0, "density": 0.2, "year_range": "2016-2020"}}, {"type": "Feature", "geometry": {"type": "Point", "coordinates": [-97.452252, 42.045045]}, "properties": {"crashes": 1, "injury": 0, "fatal": 0, "pedestrian": 0, "bicycle": 0, "density": 0.2, "year_range": "2016-2020"}}, {"type": "Feature", "geometry": {"type": "Point", "coordinates": [-97.432432, 42.034234]}, "properties": {"crashes": 1, "injury": 0, "fatal": 0, "pedestrian": 0, "bicycle": 0, "density": 0.2, "year_range": "2016-2020"}}, {"type": "Feature", "geometry": {"type": "Point", "coordinates": [-97.409009, 42.034234]}, "properties": {"crashes": 3, "injury": 1, "fatal": 0, "pedestrian": 0, "bicycle": 0, "density": 0.8, "year_range": "2016-2020"}}, {"type": "Feature", "geometry": {"type": "Point", "coordinates": [-97.396396, 42.046847]}, "properties": {"crashes": 8, "injury": 3, "fatal": 0, "pedestrian": 0, "bicycle": 0, "density": 2.0, "year_range": "2016-2020"}}, {"type": "Feature", "geometry": {"type": "Point", "coordinates": [-97.392793, 42.032432]}, "properties": {"crashes": 1, "injury": 1, "fatal": 0, "pedestrian": 0, "bicycle": 0, "density": 0.2, "year_range": "2016-2020"}}, {"type": "Feature", "geometry": {"type": "Point", "coordinates": [-97.398198, 42.018018]}, "properties": {"crashes": 1, "injury": 1, "fatal": 0, "pedestrian": 0, "bicycle": 0, "density": 0.2, "year_range": "2016-2020"}}, {"type": "Feature", "geometry": {"type": "Point", "coordinates": [-97.41982, 42.023423]}, "properties": {"crashes": 3, "injury": 0, "fatal": 0, "pedestrian": 0, "bicycle": 0, "density": 0.8, "year_range": "2016-2020"}}, {"type": "Feature", "geometry": {"type": "Point", "coordinates": [-97.405405, 42.032432]}, "properties": {"crashes": 7, "injury": 2, "fatal": 0, "pedestrian": 0, "bicycle": 0, "density": 1.8, "year_range": "2016-2020"}}, {"type": "Feature", "geometry": {"type": "Point", "coordinates": [-97.434234, 42.048649]}, "properties": {"crashes": 1, "injury": 0, "fatal": 0, "pedestrian": 0, "bicycle": 0, "density": 0.2, "year_range": "2016-2020"}}, {"type": "Feature", "geometry": {"type": "Point", "coordinates": [-97.437838, 42.05045]}, "properties": {"crashes": 1, "injury": 0, "fatal": 0, "pedestrian": 0, "bicycle": 0, "density": 0.2, "year_range": "2016-2020"}}, {"type": "Feature", "geometry": {"type": "Point", "coordinates": [-97.427027, 42.025225]}, "properties": {"crashes": 56, "injury": 20, "fatal": 0, "pedestrian": 0, "bicycle": 0, "density": 14.0, "year_range": "2016-2020"}}, {"type": "Feature", "geometry": {"type": "Point", "coordinates": [-97.427027, 42.003604]}, "properties": {"crashes": 3, "injury": 2, "fatal": 0, "pedestrian": 0, "bicycle": 0, "density": 0.8, "year_range": "2016-2020"}}, {"type": "Feature", "geometry": {"type": "Point", "coordinates": [-97.434234, 42.021622]}, "properties": {"crashes": 1, "injury": 0, "fatal": 0, "pedestrian": 0, "bicycle": 0, "density": 0.2, "year_range": "2016-2020"}}, {"type": "Feature", "geometry": {"type": "Point", "coordinates": [-97.443243, 42.018018]}, "properties": {"crashes": 2, "injury": 0, "fatal": 0, "pedestrian": 0, "bicycle": 0, "density": 0.5, "year_range": "2016-2020"}}, {"type": "Feature", "geometry": {"type": "Point", "coordinates": [-97.390991, 42.041441]}, "properties": {"crashes": 1, "injury": 0, "fatal": 0, "pedestrian": 0, "bicycle": 0, "density": 0.2, "year_range": "2016-2020"}}, {"type": "Feature", "geometry": {"type": "Point", "coordinates": [-97.427027, 42.01982]}, "properties": {"crashes": 9, "injury": 3, "fatal": 0, "pedestrian": 0, "bicycle": 0, "density": 2.2, "year_range": "2016-2020"}}, {"type": "Feature", "geometry": {"type": "Point", "coordinates": [-97.412613, 42.041441]}, "properties": {"crashes": 9, "injury": 1, "fatal": 0, "pedestrian": 0, "bicycle": 0, "density": 2.2, "year_range": "2016-2020"}}, {"type": "Feature", "geometry": {"type": "Point", "coordinates": [-97.387387, 42.028829]}, "properties": {"crashes": 1, "injury": 0, "fatal": 0, "pedestrian": 0, "bicycle": 0, "density": 0.2, "year_range": "2016-2020"}}, {"type": "Feature", "geometry": {"type": "Point", "coordinates": [-97.455856, 42.045045]}, "properties": {"crashes": 1, "injury": 0, "fatal": 0, "pedestrian": 0, "bicycle": 0, "density": 0.2, "year_range": "2016-2020"}}, {"type": "Feature", "geometry": {"type": "Point", "coordinates": [-97.441441, 42.025225]}, "properties": {"crashes": 38, "injury": 14, "fatal": 1, "pedestrian": 0, "bicycle": 0, "density": 9.5, "year_range": "2016-2020"}}, {"type": "Feature", "geometry": {"type": "Point", "coordinates": [-97.427027, 42.023423]}, "properties": {"crashes": 12, "injury": 5, "fatal": 0, "pedestrian": 0, "bicycle": 0, "density": 3.0, "year_range": "2016-2020"}}, {"type": "Feature", "geometry": {"type": "Point", "coordinates": [-97.4, 42.037838]}, "properties": {"crashes": 1, "injury": 0, "fatal": 0, "pedestrian": 0, "bicycle": 0, "density": 0.2, "year_range": "2016-2020"}}, {"type": "Feature", "geometry": {"type": "Point", "coordinates": [-97.394595, 42.030631]}, "properties": {"crashes": 1, "injury": 0, "fatal": 0, "pedestrian": 0, "bicycle": 0, "density": 0.2, "year_range": "2016-2020"}}, {"type": "Feature", "geometry": {"type": "Point", "coordinates": [-97.409009, 42.046847]}, "properties": {"crashes": 6, "injury": 1, "fatal": 0, "pedestrian": 0, "bicycle": 0, "density": 1.5, "year_range": "2016-2020"}}, {"type": "Feature", "geometry": {"type": "Point", "coordinates": [-97.436036, 42.023423]}, "properties": {"crashes": 2, "injury": 0, "fatal": 0, "pedestrian": 0, "bicycle": 0, "density": 0.5, "year_range": "2016-2020"}}, {"type": "Feature", "geometry": {"type": "Point", "coordinates": [-97.421622, 42.043243]}, "properties": {"crashes": 4, "injury": 0, "fatal": 0, "pedestrian": 0, "bicycle": 0, "density": 1.0, "year_range": "2016-2020"}}, {"type": "Feature", "geometry": {"type": "Point", "coordinates": [-97.418018, 42.010811]}, "properties": {"crashes": 1, "injury": 0, "fatal": 0, "pedestrian": 0, "bicycle": 0, "density": 0.2, "year_range": "2016-2020"}}, {"type": "Feature", "geometry": {"type": "Point", "coordinates": [-97.390991, 42.046847]}, "properties": {"crashes": 1, "injury": 0, "fatal": 0, "pedestrian": 0, "bicycle": 0, "density": 0.2, "year_range": "2016-2020"}}, {"type": "Feature", "geometry": {"type": "Point", "coordinates": [-97.418018, 42.046847]}, "properties": {"crashes": 3, "injury": 1, "fatal": 0, "pedestrian": 0, "bicycle": 0, "density": 0.8, "year_range": "2016-2020"}}, {"type": "Feature", "geometry": {"type": "Point", "coordinates": [-97.387387, 42.034234]}, "properties": {"crashes": 1, "injury": 0, "fatal": 0, "pedestrian": 0, "bicycle": 0, "density": 0.2, "year_range": "2016-2020"}}, {"type": "Feature", "geometry": {"type": "Point", "coordinates": [-97.401802, 42.041441]}, "properties": {"crashes": 1, "injury": 0, "fatal": 0, "pedestrian": 0, "bicycle": 0, "density": 0.2, "year_range": "2016-2020"}}, {"type": "Feature", "geometry": {"type": "Point", "coordinates": [-97.403604, 42.046847]}, "properties": {"crashes": 2, "injury": 2, "fatal": 0, "pedestrian": 0, "bicycle": 0, "density": 0.5, "year_range": "2016-2020"}}, {"type": "Feature", "geometry": {"type": "Point", "coordinates": [-97.412613, 42.01982]}, "properties": {"crashes": 3, "injury": 2, "fatal": 0, "pedestrian": 0, "bicycle": 0, "density": 0.8, "year_range": "2016-2020"}}, {"type": "Feature", "geometry": {"type": "Point", "coordinates": [-97.412613, 42.014414]}, "properties": {"crashes": 1, "injury": 0, "fatal": 0, "pedestrian": 0, "bicycle": 0, "density": 0.2, "year_range": "2016-2020"}}, {"type": "Feature", "geometry": {"type": "Point", "coordinates": [-97.427027, 42.016216]}, "properties": {"crashes": 3, "injury": 1, "fatal": 0, "pedestrian": 0, "bicycle": 0, "density": 0.8, "year_range": "2016-2020"}}, {"type": "Feature", "geometry": {"type": "Point", "coordinates": [-97.452252, 42.030631]}, "properties": {"crashes": 1, "injury": 0, "fatal": 0, "pedestrian": 0, "bicycle": 0, "density": 0.2, "year_range": "2016-2020"}}, {"type": "Feature", "geometry": {"type": "Point", "coordinates": [-97.414414, 42.046847]}, "properties": {"crashes": 3, "injury": 0, "fatal": 0, "pedestrian": 0, "bicycle": 0, "density": 0.8, "year_range": "2016-2020"}}, {"type": "Feature", "geometry": {"type": "Point", "coordinates": [-97.387387, 42.018018]}, "properties": {"crashes": 1, "injury": 0, "fatal": 0, "pedestrian": 0, "bicycle": 0, "density": 0.2, "year_range": "2016-2020"}}, {"type": "Feature", "geometry": {"type": "Point", "coordinates": [-97.427027, 42.032432]}, "properties": {"crashes": 51, "injury": 22, "fatal": 0, "pedestrian": 0, "bicycle": 0, "density": 12.8, "year_range": "2016-2020"}}, {"type": "Feature", "geometry": {"type": "Point", "coordinates": [-97.436036, 42.01982]}, "properties": {"crashes": 2, "injury": 0, "fatal": 0, "pedestrian": 0, "bicycle": 0, "density": 0.5, "year_range": "2016-2020"}}, {"type": "Feature", "geometry": {"type": "Point", "coordinates": [-97.416216, 42.016216]}, "properties": {"crashes": 1, "injury": 0, "fatal": 0, "pedestrian": 0, "bicycle": 0, "density": 0.2, "year_range": "2016-2020"}}, {"type": "Feature", "geometry": {"type": "Point", "coordinates": [-97.428829, 42.037838]}, "properties": {"crashes": 2, "injury": 0, "fatal": 0, "pedestrian": 0, "bicycle": 0, "density": 0.5, "year_range": "2016-2020"}}, {"type": "Feature", "geometry": {"type": "Point", "coordinates": [-97.43964, 42.048649]}, "properties": {"crashes": 1, "injury": 0, "fatal": 0, "pedestrian": 0, "bicycle": 0, "density": 0.2, "year_range": "2016-2020"}}, {"type": "Feature", "geometry": {"type": "Point", "coordinates": [-97.463063, 42.032432]}, "properties": {"crashes": 1, "injury": 1, "fatal": 0, "pedestrian": 0, "bicycle": 0, "density": 0.2, "year_range": "2016-2020"}}, {"type": "Feature", "geometry": {"type": "Point", "coordinates": [-97.445045, 42.027027]}, "properties": {"crashes": 1, "injury": 1, "fatal": 0, "pedestrian": 0, "bicycle": 0, "density": 0.2, "year_range": "2016-2020"}}, {"type": "Feature", "geometry": {"type": "Point", "coordinates": [-97.416216, 42.037838]}, "properties": {"crashes": 4, "injury": 0, "fatal": 0, "pedestrian": 0, "bicycle": 0, "density": 1.0, "year_range": "2016-2020"}}, {"type": "Feature", "geometry": {"type": "Point", "coordinates": [-97.412613, 42.03964]}, "properties": {"crashes": 6, "injury": 1, "fatal": 0, "pedestrian": 0, "bicycle": 0, "density": 1.5, "year_range": "2016-2020"}}, {"type": "Feature", "geometry": {"type": "Point", "coordinates": [-97.405405, 42.027027]}, "properties": {"crashes": 2, "injury": 0, "fatal": 0, "pedestrian": 0, "bicycle": 0, "density": 0.5, "year_range": "2016-2020"}}, {"type": "Feature", "geometry": {"type": "Point", "coordinates": [-97.407207, 42.018018]}, "properties": {"crashes": 38, "injury": 14, "fatal": 0, "pedestrian": 0, "bicycle": 0, "density": 9.5, "year_range": "2016-2020"}}, {"type": "Feature", "geometry": {"type": "Point", "coordinates": [-97.446847, 42.030631]}, "properties": {"crashes": 2, "injury": 1, "fatal": 0, "pedestrian": 0, "bicycle": 0, "density": 0.5, "year_range": "2016-2020"}}, {"type": "Feature", "geometry": {"type": "Point", "coordinates": [-97.407207, 42.046847]}, "properties": {"crashes": 22, "injury": 7, "fatal": 0, "pedestrian": 0, "bicycle": 0, "density": 5.5, "year_range": "2016-2020"}}, {"type": "Feature", "geometry": {"type": "Point", "coordinates": [-97.405405, 42.046847]}, "properties": {"crashes": 2, "injury": 0, "fatal": 0, "pedestrian": 0, "bicycle": 0, "density": 0.5, "year_range": "2016-2020"}}, {"type": "Feature", "geometry": {"type": "Point", "coordinates": [-97.409009, 42.010811]}, "properties": {"crashes": 1, "injury": 0, "fatal": 0, "pedestrian": 0, "bicycle": 0, "density": 0.2, "year_range": "2016-2020"}}, {"type": "Feature", "geometry": {"type": "Point", "coordinates": [-97.387387, 42.030631]}, "properties": {"crashes": 1, "injury": 0, "fatal": 0, "pedestrian": 0, "bicycle": 0, "density": 0.2, "year_range": "2016-2020"}}, {"type": "Feature", "geometry": {"type": "Point", "coordinates": [-97.405405, 42.018018]}, "properties": {"crashes": 2, "injury": 0, "fatal": 0, "pedestrian": 0, "bicycle": 0, "density": 0.5, "year_range": "2016-2020"}}, {"type": "Feature", "geometry": {"type": "Point", "coordinates": [-97.441441, 42.052252]}, "properties": {"crashes": 2, "injury": 0, "fatal": 0, "pedestrian": 0, "bicycle": 0, "density": 0.5, "year_range": "2016-2020"}}, {"type": "Feature", "geometry": {"type": "Point", "coordinates": [-97.455856, 42.032432]}, "properties": {"crashes": 2, "injury": 1, "fatal": 0, "pedestrian": 0, "bicycle": 0, "density": 0.5, "year_range": "2016-2020"}}, {"type": "Feature", "geometry": {"type": "Point", "coordinates": [-97.463063, 42.046847]}, "properties": {"crashes": 1, "injury": 0, "fatal": 0, "pedestrian": 0, "bicycle": 0, "density": 0.2, "year_range": "2016-2020"}}, {"type": "Feature", "geometry": {"type": "Point", "coordinates": [-97.418018, 42.043243]}, "properties": {"crashes": 2, "injury": 0, "fatal": 0, "pedestrian": 0, "bicycle": 0, "density": 0.5, "year_range": "2016-2020"}}, {"type": "Feature", "geometry": {"type": "Point", "coordinates": [-97.392793, 42.018018]}, "properties": {"crashes": 3, "injury": 1, "fatal": 0, "pedestrian": 0, "bicycle": 0, "density": 0.8, "year_range": "2016-2020"}}, {"type": "Feature", "geometry": {"type": "Point", "coordinates": [-97.401802, 42.016216]}, "properties": {"crashes": 1, "injury": 1, "fatal": 0, "pedestrian": 0, "bicycle": 0, "density": 0.2, "year_range": "2016-2020"}}, {"type": "Feature", "geometry": {"type": "Point", "coordinates": [-97.427027, 42.05045]}, "properties": {"crashes": 3, "injury": 1, "fatal": 0, "pedestrian": 0, "bicycle": 0, "density": 0.8, "year_range": "2016-2020"}}, {"type": "Feature", "geometry": {"type": "Point", "coordinates": [-97.41982, 42.03964]}, "properties": {"crashes": 2, "injury": 0, "fatal": 0, "pedestrian": 0, "bicycle": 0, "density": 0.5, "year_range": "2016-2020"}}, {"type": "Feature", "geometry": {"type": "Point", "coordinates": [-97.409009, 42.028829]}, "properties": {"crashes": 1, "injury": 0, "fatal": 0, "pedestrian": 0, "bicycle": 0, "density": 0.2, "year_range": "2016-2020"}}, {"type": "Feature", "geometry": {"type": "Point", "coordinates": [-97.434234, 42.054054]}, "properties": {"crashes": 2, "injury": 0, "fatal": 0, "pedestrian": 0, "bicycle": 0, "density": 0.5, "year_range": "2016-2020"}}, {"type": "Feature", "geometry": {"type": "Point", "coordinates": [-97.407207, 42.052252]}, "properties": {"crashes": 1, "injury": 1, "fatal": 0, "pedestrian": 0, "bicycle": 0, "density": 0.2, "year_range": "2016-2020"}}, {"type": "Feature", "geometry": {"type": "Point", "coordinates": [-97.418018, 42.023423]}, "properties": {"crashes": 3, "injury": 0, "fatal": 0, "pedestrian": 0, "bicycle": 0, "density": 0.8, "year_range": "2016-2020"}}, {"type": "Feature", "geometry": {"type": "Point", "coordinates": [-97.401802, 42.037838]}, "properties": {"crashes": 1, "injury": 0, "fatal": 0, "pedestrian": 0, "bicycle": 0, "density": 0.2, "year_range": "2016-2020"}}, {"type": "Feature", "geometry": {"type": "Point", "coordinates": [-97.436036, 42.025225]}, "properties": {"crashes": 3, "injury": 1, "fatal": 0, "pedestrian": 0, "bicycle": 0, "density": 0.8, "year_range": "2016-2020"}}, {"type": "Feature", "geometry": {"type": "Point", "coordinates": [-97.427027, 42.018018]}, "properties": {"crashes": 75, "injury": 27, "fatal": 0, "pedestrian": 0, "bicycle": 0, "density": 18.8, "year_range": "2016-2020"}}, {"type": "Feature", "geometry": {"type": "Point", "coordinates": [-97.412613, 42.012613]}, "properties": {"crashes": 1, "injury": 0, "fatal": 0, "pedestrian": 0, "bicycle": 0, "density": 0.2, "year_range": "2016-2020"}}, {"type": "Feature", "geometry": {"type": "Point", "coordinates": [-97.403604, 42.037838]}, "properties": {"crashes": 1, "injury": 0, "fatal": 0, "pedestrian": 0, "bicycle": 0, "density": 0.2, "year_range": "2016-2020"}}, {"type": "Feature", "geometry": {"type": "Point", "coordinates": [-97.414414, 42.045045]}, "properties": {"crashes": 3, "injury": 0, "fatal": 0, "pedestrian": 0, "bicycle": 0, "density": 0.8, "year_range": "2016-2020"}}, {"type": "Feature", "geometry": {"type": "Point", "coordinates": [-97.425225, 42.043243]}, "properties": {"crashes": 1, "injury": 0, "fatal": 0, "pedestrian": 0, "bicycle": 0, "density": 0.2, "year_range": "2016-2020"}}, {"type": "Feature", "geometry": {"type": "Point", "coordinates": [-97.407207, 42.055856]}, "properties": {"crashes": 1, "injury": 1, "fatal": 0, "pedestrian": 0, "bicycle": 0, "density": 0.2, "year_range": "2016-2020"}}, {"type": "Feature", "geometry": {"type": "Point", "coordinates": [-97.423423, 42.018018]}, "properties": {"crashes": 7, "injury": 1, "fatal": 0, "pedestrian": 0, "bicycle": 0, "density": 1.8, "year_range": "2016-2020"}}, {"type": "Feature", "geometry": {"type": "Point", "coordinates": [-97.410811, 42.025225]}, "properties": {"crashes": 1, "injury": 0, "fatal": 0, "pedestrian": 0, "bicycle": 0, "density": 0.2, "year_range": "2016-2020"}}, {"type": "Feature", "geometry": {"type": "Point", "coordinates": [-97.43964, 42.023423]}, "properties": {"crashes": 3, "injury": 2, "fatal": 0, "pedestrian": 0, "bicycle": 0, "density": 0.8, "year_range": "2016-2020"}}, {"type": "Feature", "geometry": {"type": "Point", "coordinates": [-97.430631, 42.012613]}, "properties": {"crashes": 1, "injury": 0, "fatal": 0, "pedestrian": 0, "bicycle": 0, "density": 0.2, "year_range": "2016-2020"}}, {"type": "Feature", "geometry": {"type": "Point", "coordinates": [-97.401802, 42.046847]}, "properties": {"crashes": 4, "injury": 0, "fatal": 0, "pedestrian": 0, "bicycle": 0, "density": 1.0, "year_range": "2016-2020"}}, {"type": "Feature", "geometry": {"type": "Point", "coordinates": [-97.41982, 42.037838]}, "properties": {"crashes": 4, "injury": 2, "fatal": 0, "pedestrian": 0, "bicycle": 0, "density": 1.0, "year_range": "2016-2020"}}, {"type": "Feature", "geometry": {"type": "Point", "coordinates": [-97.427027, 42.014414]}, "properties": {"crashes": 3, "injury": 0, "fatal": 0, "pedestrian": 0, "bicycle": 0, "density": 0.8, "year_range": "2016-2020"}}, {"type": "Feature", "geometry": {"type": "Point", "coordinates": [-97.421622, 42.010811]}, "properties": {"crashes": 1, "injury": 0, "fatal": 0, "pedestrian": 0, "bicycle": 0, "density": 0.2, "year_range": "2016-2020"}}, {"type": "Feature", "geometry": {"type": "Point", "coordinates": [-97.43964, 42.027027]}, "properties": {"crashes": 2, "injury": 1, "fatal": 0, "pedestrian": 0, "bicycle": 0, "density": 0.5, "year_range": "2016-2020"}}, {"type": "Feature", "geometry": {"type": "Point", "coordinates": [-97.383784, 42.03964]}, "properties": {"crashes": 1, "injury": 0, "fatal": 0, "pedestrian": 0, "bicycle": 0, "density": 0.2, "year_range": "2016-2020"}}, {"type": "Feature", "geometry": {"type": "Point", "coordinates": [-97.405405, 42.010811]}, "properties": {"crashes": 1, "injury": 0, "fatal": 0, "pedestrian": 0, "bicycle": 0, "density": 0.2, "year_range": "2016-2020"}}, {"type": "Feature", "geometry": {"type": "Point", "coordinates": [-97.430631, 42.045045]}, "properties": {"crashes": 3, "injury": 0, "fatal": 0, "pedestrian": 0, "bicycle": 0, "density": 0.8, "year_range": "2016-2020"}}, {"type": "Feature", "geometry": {"type": "Point", "coordinates": [-97.425225, 42.030631]}, "properties": {"crashes": 4, "injury": 1, "fatal": 0, "pedestrian": 0, "bicycle": 0, "density": 1.0, "year_range": "2016-2020"}}, {"type": "Feature", "geometry": {"type": "Point", "coordinates": [-97.405405, 42.03964]}, "properties": {"crashes": 1, "injury": 0, "fatal": 0, "pedestrian": 0, "bicycle": 0, "density": 0.2, "year_range": "2016-2020"}}, {"type": "Feature", "geometry": {"type": "Point", "coordinates": [-97.454054, 42.034234]}, "properties": {"crashes": 1, "injury": 0, "fatal": 0, "pedestrian": 0, "bicycle": 0, "density": 0.2, "year_range": "2016-2020"}}, {"type": "Feature", "geometry": {"type": "Point", "coordinates": [-97.423423, 42.023423]}, "properties": {"crashes": 5, "injury": 0, "fatal": 0, "pedestrian": 0, "bicycle": 0, "density": 1.2, "year_range": "2016-2020"}}, {"type": "Feature", "geometry": {"type": "Point", "coordinates": [-97.418018, 42.036036]}, "properties": {"crashes": 2, "injury": 1, "fatal": 0, "pedestrian": 0, "bicycle": 0, "density": 0.5, "year_range": "2016-2020"}}, {"type": "Feature", "geometry": {"type": "Point", "coordinates": [-97.410811, 42.030631]}, "properties": {"crashes": 1, "injury": 1, "fatal": 0, "pedestrian": 0, "bicycle": 0, "density": 0.2, "year_range": "2016-2020"}}, {"type": "Feature", "geometry": {"type": "Point", "coordinates": [-97.409009, 42.014414]}, "properties": {"crashes": 1, "injury": 1, "fatal": 0, "pedestrian": 0, "bicycle": 0, "density": 0.2, "year_range": "2016-2020"}}, {"type": "Feature", "geometry": {"type": "Point", "coordinates": [-97.428829, 42.052252]}, "properties": {"crashes": 1, "injury": 0, "fatal": 0, "pedestrian": 0, "bicycle": 0, "density": 0.2, "year_range": "2016-2020"}}, {"type": "Feature", "geometry": {"type": "Point", "coordinates": [-97.412613, 42.046847]}, "properties": {"crashes": 3, "injury": 2, "fatal": 0, "pedestrian": 0, "bicycle": 0, "density": 0.8, "year_range": "2016-2020"}}, {"type": "Feature", "geometry": {"type": "Point", "coordinates": [-97.427027, 42.048649]}, "properties": {"crashes": 2, "injury": 0, "fatal": 0, "pedestrian": 0, "bicycle": 0, "density": 0.5, "year_range": "2016-2020"}}, {"type": "Feature", "geometry": {"type": "Point", "coordinates": [-97.445045, 42.028829]}, "properties": {"crashes": 1, "injury": 0, "fatal": 0, "pedestrian": 0, "bicycle": 0, "density": 0.2, "year_range": "2016-2020"}}, {"type": "Feature", "geometry": {"type": "Point", "coordinates": [-97.407207, 42.021622]}, "properties": {"crashes": 2, "injury": 0, "fatal": 0, "pedestrian": 0, "bicycle": 0, "density": 0.5, "year_range": "2016-2020"}}, {"type": "Feature", "geometry": {"type": "Point", "coordinates": [-97.418018, 42.025225]}, "properties": {"crashes": 2, "injury": 0, "fatal": 0, "pedestrian": 0, "bicycle": 0, "density": 0.5, "year_range": "2016-2020"}}, {"type": "Feature", "geometry": {"type": "Point", "coordinates": [-97.455856, 42.05045]}, "properties": {"crashes": 1, "injury": 0, "fatal": 0, "pedestrian": 0, "bicycle": 0, "density": 0.2, "year_range": "2016-2020"}}, {"type": "Feature", "geometry": {"type": "Point", "coordinates": [-97.394595, 42.032432]}, "properties": {"crashes": 1, "injury": 1, "fatal": 0, "pedestrian": 0, "bicycle": 0, "density": 0.2, "year_range": "2016-2020"}}, {"type": "Feature", "geometry": {"type": "Point", "coordinates": [-97.392793, 42.028829]}, "properties": {"crashes": 1, "injury": 0, "fatal": 0, "pedestrian": 0, "bicycle": 0, "density": 0.2, "year_range": "2016-2020"}}, {"type": "Feature", "geometry": {"type": "Point", "coordinates": [-97.427027, 42.041441]}, "properties": {"crashes": 1, "injury": 1, "fatal": 0, "pedestrian": 0, "bicycle": 0, "density": 0.2, "year_range": "2016-2020"}}, {"type": "Feature", "geometry": {"type": "Point", "coordinates": [-97.394595, 42.018018]}, "properties": {"crashes": 1, "injury": 0, "fatal": 0, "pedestrian": 0, "bicycle": 0, "density": 0.2, "year_range": "2016-2020"}}, {"type": "Feature", "geometry": {"type": "Point", "coordinates": [-97.432432, 42.023423]}, "properties": {"crashes": 1, "injury": 0, "fatal": 0, "pedestrian": 0, "bicycle": 0, "density": 0.2, "year_range": "2016-2020"}}, {"type": "Feature", "geometry": {"type": "Point", "coordinates": [-97.428829, 42.030631]}, "properties": {"crashes": 2, "injury": 0, "fatal": 0, "pedestrian": 0, "bicycle": 0, "density": 0.5, "year_range": "2016-2020"}}, {"type": "Feature", "geometry": {"type": "Point", "coordinates": [-97.410811, 42.023423]}, "properties": {"crashes": 2, "injury": 0, "fatal": 0, "pedestrian": 0, "bicycle": 0, "density": 0.5, "year_range": "2016-2020"}}, {"type": "Feature", "geometry": {"type": "Point", "coordinates": [-97.455856, 42.052252]}, "properties": {"crashes": 1, "injury": 0, "fatal": 0, "pedestrian": 0, "bicycle": 0, "density": 0.2, "year_range": "2016-2020"}}, {"type": "Feature", "geometry": {"type": "Point", "coordinates": [-97.381982, 42.041441]}, "properties": {"crashes": 1, "injury": 0, "fatal": 0, "pedestrian": 0, "bicycle": 0, "density": 0.2, "year_range": "2016-2020"}}, {"type": "Feature", "geometry": {"type": "Point", "coordinates": [-97.436036, 42.036036]}, "properties": {"crashes": 1, "injury": 0, "fatal": 0, "pedestrian": 0, "bicycle": 0, "density": 0.2, "year_range": "2016-2020"}}, {"type": "Feature", "geometry": {"type": "Point", "coordinates": [-97.423423, 42.010811]}, "properties": {"crashes": 1, "injury": 0, "fatal": 0, "pedestrian": 0, "bicycle": 0, "density": 0.2, "year_range": "2016-2020"}}, {"type": "Feature", "geometry": {"type": "Point", "coordinates": [-97.409009, 42.037838]}, "properties": {"crashes": 2, "injury": 0, "fatal": 0, "pedestrian": 0, "bicycle": 0, "density": 0.5, "year_range": "2016-2020"}}, {"type": "Feature", "geometry": {"type": "Point", "coordinates": [-97.407207, 42.041441]}, "properties": {"crashes": 2, "injury": 0, "fatal": 0, "pedestrian": 0, "bicycle": 0, "density": 0.5, "year_range": "2016-2020"}}, {"type": "Feature", "geometry": {"type": "Point", "coordinates": [-97.437838, 42.032432]}, "properties": {"crashes": 1, "injury": 0, "fatal": 0, "pedestrian": 0, "bicycle": 0, "density": 0.2, "year_range": "2016-2020"}}, {"type": "Feature", "geometry": {"type": "Point", "coordinates": [-97.437838, 42.045045]}, "properties": {"crashes": 1, "injury": 0, "fatal": 0, "pedestrian": 0, "bicycle": 0, "density": 0.2, "year_range": "2016-2020"}}, {"type": "Feature", "geometry": {"type": "Point", "coordinates": [-97.396396, 42.037838]}, "properties": {"crashes": 1, "injury": 0, "fatal": 0, "pedestrian": 0, "bicycle": 0, "density": 0.2, "year_range": "2016-2020"}}, {"type": "Feature", "geometry": {"type": "Point", "coordinates": [-97.434234, 42.034234]}, "properties": {"crashes": 1, "injury": 0, "fatal": 0, "pedestrian": 0, "bicycle": 0, "density": 0.2, "year_range": "2016-2020"}}, {"type": "Feature", "geometry": {"type": "Point", "coordinates": [-97.455856, 42.055856]}, "properties": {"crashes": 1, "injury": 0, "fatal": 0, "pedestrian": 0, "bicycle": 0, "density": 0.2, "year_range": "2016-2020"}}, {"type": "Feature", "geometry": {"type": "Point", "coordinates": [-97.45045, 42.03964]}, "properties": {"crashes": 2, "injury": 0, "fatal": 0, "pedestrian": 0, "bicycle": 0, "density": 0.5, "year_range": "2016-2020"}}, {"type": "Feature", "geometry": {"type": "Point", "coordinates": [-97.430631, 42.032432]}, "properties": {"crashes": 3, "injury": 0, "fatal": 0, "pedestrian": 0, "bicycle": 0, "density": 0.8, "year_range": "2016-2020"}}, {"type": "Feature", "geometry": {"type": "Point", "coordinates": [-97.412613, 42.010811]}, "properties": {"crashes": 2, "injury": 0, "fatal": 0, "pedestrian": 0, "bicycle": 0, "density": 0.5, "year_range": "2016-2020"}}, {"type": "Feature", "geometry": {"type": "Point", "coordinates": [-97.409009, 42.030631]}, "properties": {"crashes": 2, "injury": 0, "fatal": 0, "pedestrian": 0, "bicycle": 0, "density": 0.5, "year_range": "2016-2020"}}, {"type": "Feature", "geometry": {"type": "Point", "coordinates": [-97.430631, 42.037838]}, "properties": {"crashes": 1, "injury": 0, "fatal": 0, "pedestrian": 0, "bicycle": 0, "density": 0.2, "year_range": "2016-2020"}}, {"type": "Feature", "geometry": {"type": "Point", "coordinates": [-97.389189, 42.032432]}, "properties": {"crashes": 2, "injury": 0, "fatal": 0, "pedestrian": 0, "bicycle": 0, "density": 0.5, "year_range": "2016-2020"}}, {"type": "Feature", "geometry": {"type": "Point", "coordinates": [-97.452252, 42.037838]}, "properties": {"crashes": 1, "injury": 0, "fatal": 0, "pedestrian": 0, "bicycle": 0, "density": 0.2, "year_range": "2016-2020"}}, {"type": "Feature", "geometry": {"type": "Point", "coordinates": [-97.418018, 42.05045]}, "properties": {"crashes": 1, "injury": 1, "fatal": 0, "pedestrian": 0, "bicycle": 0, "density": 0.2, "year_range": "2016-2020"}}, {"type": "Feature", "geometry": {"type": "Point", "coordinates": [-97.432432, 42.025225]}, "properties": {"crashes": 1, "injury": 0, "fatal": 0, "pedestrian": 0, "bicycle": 0, "density": 0.2, "year_range": "2016-2020"}}, {"type": "Feature", "geometry": {"type": "Point", "coordinates": [-97.410811, 42.01982]}, "properties": {"crashes": 1, "injury": 0, "fatal": 0, "pedestrian": 0, "bicycle": 0, "density": 0.2, "year_range": "2016-2020"}}, {"type": "Feature", "geometry": {"type": "Point", "coordinates": [-97.387387, 42.055856]}, "properties": {"crashes": 1, "injury": 0, "fatal": 0, "pedestrian": 0, "bicycle": 0, "density": 0.2, "year_range": "2016-2020"}}, {"type": "Feature", "geometry": {"type": "Point", "coordinates": [-97.423423, 42.05045]}, "properties": {"crashes": 1, "injury": 1, "fatal": 0, "pedestrian": 0, "bicycle": 0, "density": 0.2, "year_range": "2016-2020"}}, {"type": "Feature", "geometry": {"type": "Point", "coordinates": [-97.401802, 42.028829]}, "properties": {"crashes": 1, "injury": 0, "fatal": 0, "pedestrian": 0, "bicycle": 0, "density": 0.2, "year_range": "2016-2020"}}, {"type": "Feature", "geometry": {"type": "Point", "coordinates": [-97.446847, 42.048649]}, "properties": {"crashes": 1, "injury": 0, "fatal": 0, "pedestrian": 0, "bicycle": 0, "density": 0.2, "year_range": "2016-2020"}}, {"type": "Feature", "geometry": {"type": "Point", "coordinates": [-97.390991, 42.032432]}, "properties": {"crashes": 1, "injury": 1, "fatal": 0, "pedestrian": 0, "bicycle": 0, "density": 0.2, "year_range": "2016-2020"}}, {"type": "Feature", "geometry": {"type": "Point", "coordinates": [-97.43964, 42.030631]}, "properties": {"crashes": 1, "injury": 0, "fatal": 0, "pedestrian": 0, "bicycle": 0, "density": 0.2, "year_range": "2016-2020"}}, {"type": "Feature", "geometry": {"type": "Point", "coordinates": [-97.436036, 42.048649]}, "properties": {"crashes": 1, "injury": 0, "fatal": 0, "pedestrian": 0, "bicycle": 0, "density": 0.2, "year_range": "2016-2020"}}, {"type": "Feature", "geometry": {"type": "Point", "coordinates": [-97.416216, 42.023423]}, "properties": {"crashes": 1, "injury": 0, "fatal": 0, "pedestrian": 0, "bicycle": 0, "density": 0.2, "year_range": "2016-2020"}}, {"type": "Feature", "geometry": {"type": "Point", "coordinates": [-97.448649, 42.054054]}, "properties": {"crashes": 1, "injury": 0, "fatal": 0, "pedestrian": 0, "bicycle": 0, "density": 0.2, "year_range": "2016-2020"}}, {"type": "Feature", "geometry": {"type": "Point", "coordinates": [-97.421622, 42.036036]}, "properties": {"crashes": 2, "injury": 0, "fatal": 0, "pedestrian": 0, "bicycle": 0, "density": 0.5, "year_range": "2016-2020"}}, {"type": "Feature", "geometry": {"type": "Point", "coordinates": [-97.446847, 42.045045]}, "properties": {"crashes": 1, "injury": 0, "fatal": 0, "pedestrian": 0, "bicycle": 0, "density": 0.2, "year_range": "2016-2020"}}, {"type": "Feature", "geometry": {"type": "Point", "coordinates": [-97.396396, 42.032432]}, "properties": {"crashes": 1, "injury": 0, "fatal": 0, "pedestrian": 0, "bicycle": 0, "density": 0.2, "year_range": "2016-2020"}}, {"type": "Feature", "geometry": {"type": "Point", "coordinates": [-97.45045, 42.046847]}, "properties": {"crashes": 2, "injury": 0, "fatal": 0, "pedestrian": 0, "bicycle": 0, "density": 0.5, "year_range": "2016-2020"}}, {"type": "Feature", "geometry": {"type": "Point", "coordinates": [-97.427027, 42.009009]}, "properties": {"crashes": 1, "injury": 0, "fatal": 0, "pedestrian": 0, "bicycle": 0, "density": 0.2, "year_range": "2016-2020"}}, {"type": "Feature", "geometry": {"type": "Point", "coordinates": [-97.436036, 42.045045]}, "properties": {"crashes": 1, "injury": 0, "fatal": 0, "pedestrian": 0, "bicycle": 0, "density": 0.2, "year_range": "2016-2020"}}, {"type": "Feature", "geometry": {"type": "Point", "coordinates": [-97.441441, 42.046847]}, "properties": {"crashes": 1, "injury": 0, "fatal": 0, "pedestrian": 0, "bicycle": 0, "density": 0.2, "year_range": "2016-2020"}}, {"type": "Feature", "geometry": {"type": "Point", "coordinates": [-97.4, 42.034234]}, "properties": {"crashes": 1, "injury": 1, "fatal": 0, "pedestrian": 0, "bicycle": 0, "density": 0.2, "year_range": "2016-2020"}}, {"type": "Feature", "geometry": {"type": "Point", "coordinates": [-97.418018, 42.018018]}, "properties": {"crashes": 1, "injury": 0, "fatal": 0, "pedestrian": 0, "bicycle": 0, "density": 0.2, "year_range": "2016-2020"}}, {"type": "Feature", "geometry": {"type": "Point", "coordinates": [-97.403604, 42.034234]}, "properties": {"crashes": 3, "injury": 0, "fatal": 0, "pedestrian": 0, "bicycle": 0, "density": 0.8, "year_range": "2016-2020"}}, {"type": "Feature", "geometry": {"type": "Point", "coordinates": [-97.41982, 42.045045]}, "properties": {"crashes": 1, "injury": 0, "fatal": 0, "pedestrian": 0, "bicycle": 0, "density": 0.2, "year_range": "2016-2020"}}, {"type": "Feature", "geometry": {"type": "Point", "coordinates": [-97.437838, 42.052252]}, "properties": {"crashes": 1, "injury": 0, "fatal": 0, "pedestrian": 0, "bicycle": 0, "density": 0.2, "year_range": "2016-2020"}}, {"type": "Feature", "geometry": {"type": "Point", "coordinates": [-97.418018, 42.045045]}, "properties": {"crashes": 1, "injury": 0, "fatal": 0, "pedestrian": 0, "bicycle": 0, "density": 0.2, "year_range": "2016-2020"}}, {"type": "Feature", "geometry": {"type": "Point", "coordinates": [-97.430631, 42.021622]}, "properties": {"crashes": 1, "injury": 0, "fatal": 0, "pedestrian": 0, "bicycle": 0, "density": 0.2, "year_range": "2016-2020"}}, {"type": "Feature", "geometry": {"type": "Point", "coordinates": [-97.425225, 42.045045]}, "properties": {"crashes": 1, "injury": 0, "fatal": 0, "pedestrian": 0, "bicycle": 0, "density": 0.2, "year_range": "2016-2020"}}, {"type": "Feature", "geometry": {"type": "Point", "coordinates": [-97.405405, 42.037838]}, "properties": {"crashes": 1, "injury": 1, "fatal": 0, "pedestrian": 0, "bicycle": 0, "density": 0.2, "year_range": "2016-2020"}}, {"type": "Feature", "geometry": {"type": "Point", "coordinates": [-97.410811, 42.034234]}, "properties": {"crashes": 2, "injury": 1, "fatal": 0, "pedestrian": 0, "bicycle": 0, "density": 0.5, "year_range": "2016-2020"}}, {"type": "Feature", "geometry": {"type": "Point", "coordinates": [-97.407207, 42.027027]}, "properties": {"crashes": 21, "injury": 7, "fatal": 0, "pedestrian": 0, "bicycle": 0, "density": 5.2, "year_range": "2016-2020"}}, {"type": "Feature", "geometry": {"type": "Point", "coordinates": [-97.430631, 42.030631]}, "properties": {"crashes": 1, "injury": 0, "fatal": 0, "pedestrian": 0, "bicycle": 0, "density": 0.2, "year_range": "2016-2020"}}, {"type": "Feature", "geometry": {"type": "Point", "coordinates": [-97.441441, 42.048649]}, "properties": {"crashes": 1, "injury": 1, "fatal": 0, "pedestrian": 0, "bicycle": 0, "density": 0.2, "year_range": "2016-2020"}}, {"type": "Feature", "geometry": {"type": "Point", "coordinates": [-97.421622, 42.01982]}, "properties": {"crashes": 2, "injury": 1, "fatal": 0, "pedestrian": 0, "bicycle": 0, "density": 0.5, "year_range": "2016-2020"}}, {"type": "Feature", "geometry": {"type": "Point", "coordinates": [-97.432432, 42.037838]}, "properties": {"crashes": 2, "injury": 0, "fatal": 0, "pedestrian": 0, "bicycle": 0, "density": 0.5, "year_range": "2016-2020"}}, {"type": "Feature", "geometry": {"type": "Point", "coordinates": [-97.410811, 42.021622]}, "properties": {"crashes": 1, "injury": 0, "fatal": 0, "pedestrian": 0, "bicycle": 0, "density": 0.2, "year_range": "2016-2020"}}, {"type": "Feature", "geometry": {"type": "Point", "coordinates": [-97.389189, 42.043243]}, "properties": {"crashes": 2, "injury": 0, "fatal": 0, "pedestrian": 0, "bicycle": 0, "density": 0.5, "year_range": "2016-2020"}}, {"type": "Feature", "geometry": {"type": "Point", "coordinates": [-97.454054, 42.054054]}, "properties": {"crashes": 1, "injury": 0, "fatal": 0, "pedestrian": 0, "bicycle": 0, "density": 0.2, "year_range": "2016-2020"}}, {"type": "Feature", "geometry": {"type": "Point", "coordinates": [-97.436036, 42.052252]}, "properties": {"crashes": 1, "injury": 0, "fatal": 0, "pedestrian": 0, "bicycle": 0, "density": 0.2, "year_range": "2016-2020"}}, {"type": "Feature", "geometry": {"type": "Point", "coordinates": [-97.445045, 42.052252]}, "properties": {"crashes": 1, "injury": 1, "fatal": 0, "pedestrian": 0, "bicycle": 0, "density": 0.2, "year_range": "2016-2020"}}, {"type": "Feature", "geometry": {"type": "Point", "coordinates": [-97.416216, 42.032432]}, "properties": {"crashes": 14, "injury": 8, "fatal": 0, "pedestrian": 0, "bicycle": 0, "density": 3.5, "year_range": "2016-2020"}}, {"type": "Feature", "geometry": {"type": "Point", "coordinates": [-97.434234, 42.032432]}, "properties": {"crashes": 18, "injury": 6, "fatal": 0, "pedestrian": 0, "bicycle": 0, "density": 4.5, "year_range": "2016-2020"}}, {"type": "Feature", "geometry": {"type": "Point", "coordinates": [-97.436036, 42.021622]}, "properties": {"crashes": 17, "injury": 6, "fatal": 0, "pedestrian": 0, "bicycle": 0, "density": 4.2, "year_range": "2016-2020"}}, {"type": "Feature", "geometry": {"type": "Point", "coordinates": [-97.441441, 42.023423]}, "properties": {"crashes": 2, "injury": 1, "fatal": 0, "pedestrian": 0, "bicycle": 0, "density": 0.5, "year_range": "2016-2020"}}, {"type": "Feature", "geometry": {"type": "Point", "coordinates": [-97.421622, 42.018018]}, "properties": {"crashes": 9, "injury": 4, "fatal": 0, "pedestrian": 0, "bicycle": 0, "density": 2.2, "year_range": "2016-2020"}}, {"type": "Feature", "geometry": {"type": "Point", "coordinates": [-97.427027, 42.010811]}, "properties": {"crashes": 20, "injury": 3, "fatal": 0, "pedestrian": 0, "bicycle": 0, "density": 5.0, "year_range": "2016-2020"}}, {"type": "Feature", "geometry": {"type": "Point", "coordinates": [-97.436036, 42.046847]}, "properties": {"crashes": 5, "injury": 2, "fatal": 0, "pedestrian": 0, "bicycle": 0, "density": 1.2, "year_range": "2016-2020"}}, {"type": "Feature", "geometry": {"type": "Point", "coordinates": [-97.427027, 42.007207]}, "properties": {"crashes": 20, "injury": 8, "fatal": 0, "pedestrian": 0, "bicycle": 0, "density": 5.0, "year_range": "2016-2020"}}, {"type": "Feature", "geometry": {"type": "Point", "coordinates": [-97.427027, 42.045045]}, "properties": {"crashes": 8, "injury": 1, "fatal": 0, "pedestrian": 0, "bicycle": 0, "density": 2.0, "year_range": "2016-2020"}}, {"type": "Feature", "geometry": {"type": "Point", "coordinates": [-97.445045, 42.032432]}, "properties": {"crashes": 3, "injury": 2, "fatal": 0, "pedestrian": 0, "bicycle": 0, "density": 0.8, "year_range": "2016-2020"}}, {"type": "Feature", "geometry": {"type": "Point", "coordinates": [-97.425225, 42.018018]}, "properties": {"crashes": 1, "injury": 0, "fatal": 0, "pedestrian": 0, "bicycle": 0, "density": 0.2, "year_range": "2016-2020"}}, {"type": "Feature", "geometry": {"type": "Point", "coordinates": [-97.396396, 42.030631]}, "properties": {"crashes": 1, "injury": 0, "fatal": 0, "pedestrian": 0, "bicycle": 0, "density": 0.2, "year_range": "2016-2020"}}, {"type": "Feature", "geometry": {"type": "Point", "coordinates": [-97.387387, 42.027027]}, "properties": {"crashes": 1, "injury": 0, "fatal": 0, "pedestrian": 0, "bicycle": 0, "density": 0.2, "year_range": "2016-2020"}}, {"type": "Feature", "geometry": {"type": "Point", "coordinates": [-97.437838, 42.025225]}, "properties": {"crashes": 1, "injury": 0, "fatal": 0, "pedestrian": 0, "bicycle": 0, "density": 0.2, "year_range": "2016-2020"}}, {"type": "Feature", "geometry": {"type": "Point", "coordinates": [-97.407207, 42.05045]}, "properties": {"crashes": 1, "injury": 0, "fatal": 0, "pedestrian": 0, "bicycle": 0, "density": 0.2, "year_range": "2016-2020"}}]}