{"type": "FeatureCollection", "metadata": {"state": "md", "source": "MDOT SHA Fatal Crash Locations", "source_url": "https://maps.roads.maryland.gov/arcgis/rest/services/OOTS/FatalCrash_Maryland_MDOTSHA/MapServer/0", "years": "2022-2026", "harvested": "2026-07-11", "total_raw": 255, "total_cells": 247, "grid_cell_m": 200, "skipped": 0, "converter": "allie-crash-convert.py"}, "features": [{"type": "Feature", "geometry": {"type": "Point", "coordinates": [-77.158559, 39.068468]}, "properties": {"crashes": 1, "injury": 0, "fatal": 0, "pedestrian": 0, "bicycle": 0, "density": 0.2, "severity_avg": 1.0, "top_type": "Pedestrian", "road": "IS"}}, {"type": "Feature", "geometry": {"type": "Point", "coordinates": [-76.954955, 39.398198]}, "properties": {"crashes": 1, "injury": 0, "fatal": 0, "pedestrian": 0, "bicycle": 0, "density": 0.2, "severity_avg": 1.0, "top_type": "Pedestrian", "road": "MD"}}, {"type": "Feature", "geometry": {"type": "Point", "coordinates": [-76.924324, 38.612613]}, "properties": {"crashes": 2, "injury": 0, "fatal": 0, "pedestrian": 0, "bicycle": 0, "density": 0.4, "severity_avg": 1.0, "top_type": "Pedestrian", "road": "US"}}, {"type": "Feature", "geometry": {"type": "Point", "coordinates": [-76.569369, 38.926126]}, "properties": {"crashes": 1, "injury": 0, "fatal": 0, "pedestrian": 0, "bicycle": 0, "density": 0.2, "severity_avg": 1.0, "top_type": "Pedestrian", "road": "MD"}}, {"type": "Feature", "geometry": {"type": "Point", "coordinates": [-77.185586, 39.336937]}, "properties": {"crashes": 1, "injury": 0, "fatal": 0, "pedestrian": 0, "bicycle": 0, "density": 0.2, "severity_avg": 1.0, "top_type": "Pedestrian", "road": "MD"}}, {"type": "Feature", "geometry": {"type": "Point", "coordinates": [-77.717117, 39.641441]}, "properties": {"crashes": 1, "injury": 0, "fatal": 0, "pedestrian": 0, "bicycle": 0, "density": 0.2, "severity_avg": 1.0, "top_type": "Bicyclist", "road": "US"}}, {"type": "Feature", "geometry": {"type": "Point", "coordinates": [-76.992793, 38.996396]}, "properties": {"crashes": 1, "injury": 0, "fatal": 0, "pedestrian": 0, "bicycle": 0, "density": 0.2, "severity_avg": 1.0, "top_type": "Pedestrian", "road": "MD"}}, {"type": "Feature", "geometry": {"type": "Point", "coordinates": [-77.007207, 38.798198]}, "properties": {"crashes": 1, "injury": 0, "fatal": 0, "pedestrian": 0, "bicycle": 0, "density": 0.2, "severity_avg": 1.0, "top_type": "Pedestrian", "road": "IS"}}, {"type": "Feature", "geometry": {"type": "Point", "coordinates": [-76.895495, 38.637838]}, "properties": {"crashes": 1, "injury": 0, "fatal": 0, "pedestrian": 0, "bicycle": 0, "density": 0.2, "severity_avg": 1.0, "top_type": "Pedestrian", "road": "MD"}}, {"type": "Feature", "geometry": {"type": "Point", "coordinates": [-76.753153, 39.284685]}, "properties": {"crashes": 1, "injury": 0, "fatal": 0, "pedestrian": 0, "bicycle": 0, "density": 0.2, "severity_avg": 1.0, "top_type": "Pedestrian", "road": "US"}}, {"type": "Feature", "geometry": {"type": "Point", "coordinates": [-76.657658, 38.769369]}, "properties": {"crashes": 1, "injury": 0, "fatal": 0, "pedestrian": 0, "bicycle": 0, "density": 0.2, "severity_avg": 1.0, "top_type": "Pedestrian", "road": "MD"}}, {"type": "Feature", "geometry": {"type": "Point", "coordinates": [-75.616216, 38.372973]}, "properties": {"crashes": 1, "injury": 0, "fatal": 0, "pedestrian": 0, "bicycle": 0, "density": 0.2, "severity_avg": 1.0, "top_type": "Bicyclist", "road": "US"}}, {"type": "Feature", "geometry": {"type": "Point", "coordinates": [-76.704505, 39.09009]}, "properties": {"crashes": 1, "injury": 0, "fatal": 0, "pedestrian": 0, "bicycle": 0, "density": 0.2, "severity_avg": 1.0, "top_type": "Bicyclist", "road": "MD"}}, {"type": "Feature", "geometry": {"type": "Point", "coordinates": [-76.983784, 38.531532]}, "properties": {"crashes": 1, "injury": 0, "fatal": 0, "pedestrian": 0, "bicycle": 0, "density": 0.2, "severity_avg": 1.0, "top_type": "Pedestrian", "road": "US"}}, {"type": "Feature", "geometry": {"type": "Point", "coordinates": [-76.962162, 38.578378]}, "properties": {"crashes": 1, "injury": 0, "fatal": 0, "pedestrian": 0, "bicycle": 0, "density": 0.2, "severity_avg": 1.0, "top_type": "Pedestrian", "road": "US"}}, {"type": "Feature", "geometry": {"type": "Point", "coordinates": [-76.915315, 38.816216]}, "properties": {"crashes": 2, "injury": 0, "fatal": 0, "pedestrian": 0, "bicycle": 0, "density": 0.4, "severity_avg": 1.0, "top_type": "Pedestrian", "road": "MD"}}, {"type": "Feature", "geometry": {"type": "Point", "coordinates": [-76.304505, 39.436036]}, "properties": {"crashes": 1, "injury": 0, "fatal": 0, "pedestrian": 0, "bicycle": 0, "density": 0.2, "severity_avg": 1.0, "top_type": "Pedestrian", "road": "US"}}, {"type": "Feature", "geometry": {"type": "Point", "coordinates": [-76.738739, 39.389189]}, "properties": {"crashes": 1, "injury": 0, "fatal": 0, "pedestrian": 0, "bicycle": 0, "density": 0.2, "severity_avg": 1.0, "top_type": "Bicyclist", "road": "MD"}}, {"type": "Feature", "geometry": {"type": "Point", "coordinates": [-76.587387, 39.124324]}, "properties": {"crashes": 1, "injury": 0, "fatal": 0, "pedestrian": 0, "bicycle": 0, "density": 0.2, "severity_avg": 1.0, "top_type": "Pedestrian", "road": "MD"}}, {"type": "Feature", "geometry": {"type": "Point", "coordinates": [-77.001802, 39.093694]}, "properties": {"crashes": 1, "injury": 0, "fatal": 0, "pedestrian": 0, "bicycle": 0, "density": 0.2, "severity_avg": 1.0, "top_type": "Pedestrian", "road": "MD"}}, {"type": "Feature", "geometry": {"type": "Point", "coordinates": [-76.790991, 38.900901]}, "properties": {"crashes": 1, "injury": 0, "fatal": 0, "pedestrian": 0, "bicycle": 0, "density": 0.2, "severity_avg": 1.0, "top_type": "Pedestrian", "road": "MD"}}, {"type": "Feature", "geometry": {"type": "Point", "coordinates": [-76.983784, 39.030631]}, "properties": {"crashes": 1, "injury": 0, "fatal": 0, "pedestrian": 0, "bicycle": 0, "density": 0.2, "severity_avg": 1.0, "top_type": "Pedestrian", "road": "MD"}}, {"type": "Feature", "geometry": {"type": "Point", "coordinates": [-77.304505, 39.299099]}, "properties": {"crashes": 1, "injury": 0, "fatal": 0, "pedestrian": 0, "bicycle": 0, "density": 0.2, "severity_avg": 1.0, "top_type": "Pedestrian", "road": "MD"}}, {"type": "Feature", "geometry": {"type": "Point", "coordinates": [-77.003604, 39.032432]}, "properties": {"crashes": 1, "injury": 0, "fatal": 0, "pedestrian": 0, "bicycle": 0, "density": 0.2, "severity_avg": 1.0, "top_type": "Pedestrian", "road": "US"}}, {"type": "Feature", "geometry": {"type": "Point", "coordinates": [-76.897297, 38.641441]}, "properties": {"crashes": 1, "injury": 0, "fatal": 0, "pedestrian": 0, "bicycle": 0, "density": 0.2, "severity_avg": 1.0, "top_type": "Pedestrian", "road": "US"}}, {"type": "Feature", "geometry": {"type": "Point", "coordinates": [-76.96036, 39.01982]}, "properties": {"crashes": 1, "injury": 0, "fatal": 0, "pedestrian": 0, "bicycle": 0, "density": 0.2, "severity_avg": 1.0, "top_type": "Pedestrian", "road": "IS"}}, {"type": "Feature", "geometry": {"type": "Point", "coordinates": [-77.69009, 39.612613]}, "properties": {"crashes": 1, "injury": 0, "fatal": 0, "pedestrian": 0, "bicycle": 0, "density": 0.2, "severity_avg": 1.0, "top_type": "Pedestrian", "road": "US"}}, {"type": "Feature", "geometry": {"type": "Point", "coordinates": [-76.900901, 38.807207]}, "properties": {"crashes": 1, "injury": 0, "fatal": 0, "pedestrian": 0, "bicycle": 0, "density": 0.2, "severity_avg": 1.0, "top_type": "Pedestrian", "road": "MD"}}, {"type": "Feature", "geometry": {"type": "Point", "coordinates": [-76.763964, 39.183784]}, "properties": {"crashes": 1, "injury": 0, "fatal": 0, "pedestrian": 0, "bicycle": 0, "density": 0.2, "severity_avg": 1.0, "top_type": "Pedestrian", "road": "US"}}, {"type": "Feature", "geometry": {"type": "Point", "coordinates": [-77.45045, 39.418018]}, "properties": {"crashes": 1, "injury": 0, "fatal": 0, "pedestrian": 0, "bicycle": 0, "density": 0.2, "severity_avg": 1.0, "top_type": "Pedestrian", "road": "US"}}, {"type": "Feature", "geometry": {"type": "Point", "coordinates": [-76.744144, 39.376577]}, "properties": {"crashes": 1, "injury": 0, "fatal": 0, "pedestrian": 0, "bicycle": 0, "density": 0.2, "severity_avg": 1.0, "top_type": "Pedestrian", "road": "IS"}}, {"type": "Feature", "geometry": {"type": "Point", "coordinates": [-76.935135, 39.01982]}, "properties": {"crashes": 1, "injury": 0, "fatal": 0, "pedestrian": 0, "bicycle": 0, "density": 0.2, "severity_avg": 1.0, "top_type": "Pedestrian", "road": "IS"}}, {"type": "Feature", "geometry": {"type": "Point", "coordinates": [-76.306306, 39.452252]}, "properties": {"crashes": 1, "injury": 0, "fatal": 0, "pedestrian": 0, "bicycle": 0, "density": 0.2, "severity_avg": 1.0, "top_type": "Pedestrian", "road": "MD"}}, {"type": "Feature", "geometry": {"type": "Point", "coordinates": [-76.190991, 39.491892]}, "properties": {"crashes": 1, "injury": 0, "fatal": 0, "pedestrian": 0, "bicycle": 0, "density": 0.2, "severity_avg": 1.0, "top_type": "Bicyclist", "road": "US"}}, {"type": "Feature", "geometry": {"type": "Point", "coordinates": [-76.996396, 39.574775]}, "properties": {"crashes": 1, "injury": 0, "fatal": 0, "pedestrian": 0, "bicycle": 0, "density": 0.2, "severity_avg": 1.0, "top_type": "Bicyclist", "road": "MD"}}, {"type": "Feature", "geometry": {"type": "Point", "coordinates": [-76.473874, 39.023423]}, "properties": {"crashes": 1, "injury": 0, "fatal": 0, "pedestrian": 0, "bicycle": 0, "density": 0.2, "severity_avg": 1.0, "top_type": "Pedestrian", "road": "US"}}, {"type": "Feature", "geometry": {"type": "Point", "coordinates": [-76.978378, 38.805405]}, "properties": {"crashes": 1, "injury": 0, "fatal": 0, "pedestrian": 0, "bicycle": 0, "density": 0.2, "severity_avg": 1.0, "top_type": "Pedestrian", "road": "MD"}}, {"type": "Feature", "geometry": {"type": "Point", "coordinates": [-76.718919, 38.938739]}, "properties": {"crashes": 1, "injury": 0, "fatal": 0, "pedestrian": 0, "bicycle": 0, "density": 0.2, "severity_avg": 1.0, "top_type": "Pedestrian", "road": "US"}}, {"type": "Feature", "geometry": {"type": "Point", "coordinates": [-76.486486, 39.106306]}, "properties": {"crashes": 1, "injury": 0, "fatal": 0, "pedestrian": 0, "bicycle": 0, "density": 0.2, "severity_avg": 1.0, "top_type": "Pedestrian", "road": "MD"}}, {"type": "Feature", "geometry": {"type": "Point", "coordinates": [-76.787387, 38.538739]}, "properties": {"crashes": 1, "injury": 0, "fatal": 0, "pedestrian": 0, "bicycle": 0, "density": 0.2, "severity_avg": 1.0, "top_type": "Pedestrian", "road": "MD"}}, {"type": "Feature", "geometry": {"type": "Point", "coordinates": [-76.902703, 38.992793]}, "properties": {"crashes": 2, "injury": 0, "fatal": 0, "pedestrian": 0, "bicycle": 0, "density": 0.4, "severity_avg": 1.0, "top_type": "Pedestrian", "road": "MD"}}, {"type": "Feature", "geometry": {"type": "Point", "coordinates": [-76.85045, 38.861261]}, "properties": {"crashes": 1, "injury": 0, "fatal": 0, "pedestrian": 0, "bicycle": 0, "density": 0.2, "severity_avg": 1.0, "top_type": "Pedestrian", "road": "IS"}}, {"type": "Feature", "geometry": {"type": "Point", "coordinates": [-76.893694, 39.054054]}, "properties": {"crashes": 1, "injury": 0, "fatal": 0, "pedestrian": 0, "bicycle": 0, "density": 0.2, "severity_avg": 1.0, "top_type": "Bicyclist", "road": "US"}}, {"type": "Feature", "geometry": {"type": "Point", "coordinates": [-76.98018, 38.983784]}, "properties": {"crashes": 1, "injury": 0, "fatal": 0, "pedestrian": 0, "bicycle": 0, "density": 0.2, "severity_avg": 1.0, "top_type": "Pedestrian", "road": "MD"}}, {"type": "Feature", "geometry": {"type": "Point", "coordinates": [-76.922523, 38.956757]}, "properties": {"crashes": 1, "injury": 0, "fatal": 0, "pedestrian": 0, "bicycle": 0, "density": 0.2, "severity_avg": 1.0, "top_type": "Pedestrian", "road": "MD"}}, {"type": "Feature", "geometry": {"type": "Point", "coordinates": [-76.52973, 38.657658]}, "properties": {"crashes": 1, "injury": 0, "fatal": 0, "pedestrian": 0, "bicycle": 0, "density": 0.2, "severity_avg": 1.0, "top_type": "Pedestrian", "road": "MD"}}, {"type": "Feature", "geometry": {"type": "Point", "coordinates": [-76.902703, 38.8]}, "properties": {"crashes": 1, "injury": 0, "fatal": 0, "pedestrian": 0, "bicycle": 0, "density": 0.2, "severity_avg": 1.0, "top_type": "Pedestrian", "road": "MD"}}, {"type": "Feature", "geometry": {"type": "Point", "coordinates": [-76.499099, 39.326126]}, "properties": {"crashes": 1, "injury": 0, "fatal": 0, "pedestrian": 0, "bicycle": 0, "density": 0.2, "severity_avg": 1.0, "top_type": "Pedestrian", "road": "US"}}, {"type": "Feature", "geometry": {"type": "Point", "coordinates": [-76.511712, 39.318919]}, "properties": {"crashes": 3, "injury": 0, "fatal": 0, "pedestrian": 0, "bicycle": 0, "density": 0.6, "severity_avg": 1.0, "top_type": "Pedestrian", "road": "GV"}}, {"type": "Feature", "geometry": {"type": "Point", "coordinates": [-76.461261, 39.315315]}, "properties": {"crashes": 1, "injury": 0, "fatal": 0, "pedestrian": 0, "bicycle": 0, "density": 0.2, "severity_avg": 1.0, "top_type": "Pedestrian", "road": "GV"}}, {"type": "Feature", "geometry": {"type": "Point", "coordinates": [-76.455856, 39.317117]}, "properties": {"crashes": 1, "injury": 0, "fatal": 0, "pedestrian": 0, "bicycle": 0, "density": 0.2, "severity_avg": 1.0, "top_type": "Pedestrian", "road": "MD"}}, {"type": "Feature", "geometry": {"type": "Point", "coordinates": [-76.794595, 39.306306]}, "properties": {"crashes": 1, "injury": 0, "fatal": 0, "pedestrian": 0, "bicycle": 0, "density": 0.2, "severity_avg": 1.0, "top_type": "Pedestrian", "road": "IS"}}, {"type": "Feature", "geometry": {"type": "Point", "coordinates": [-76.727928, 39.342342]}, "properties": {"crashes": 1, "injury": 0, "fatal": 0, "pedestrian": 0, "bicycle": 0, "density": 0.2, "severity_avg": 1.0, "top_type": "Pedestrian", "road": "MD"}}, {"type": "Feature", "geometry": {"type": "Point", "coordinates": [-76.72973, 39.216216]}, "properties": {"crashes": 1, "injury": 0, "fatal": 0, "pedestrian": 0, "bicycle": 0, "density": 0.2, "severity_avg": 1.0, "top_type": "Pedestrian", "road": "IS"}}, {"type": "Feature", "geometry": {"type": "Point", "coordinates": [-76.989189, 38.713514]}, "properties": {"crashes": 1, "injury": 0, "fatal": 0, "pedestrian": 0, "bicycle": 0, "density": 0.2, "severity_avg": 1.0, "top_type": "Pedestrian", "road": "MD"}}, {"type": "Feature", "geometry": {"type": "Point", "coordinates": [-76.888288, 38.776577]}, "properties": {"crashes": 1, "injury": 0, "fatal": 0, "pedestrian": 0, "bicycle": 0, "density": 0.2, "severity_avg": 1.0, "top_type": "Pedestrian", "road": "MD"}}, {"type": "Feature", "geometry": {"type": "Point", "coordinates": [-76.877477, 38.994595]}, "properties": {"crashes": 1, "injury": 0, "fatal": 0, "pedestrian": 0, "bicycle": 0, "density": 0.2, "severity_avg": 1.0, "top_type": "Pedestrian", "road": "MD"}}, {"type": "Feature", "geometry": {"type": "Point", "coordinates": [-76.864865, 38.96036]}, "properties": {"crashes": 1, "injury": 0, "fatal": 0, "pedestrian": 0, "bicycle": 0, "density": 0.2, "severity_avg": 1.0, "top_type": "Pedestrian", "road": "MD"}}, {"type": "Feature", "geometry": {"type": "Point", "coordinates": [-76.837838, 38.913514]}, "properties": {"crashes": 1, "injury": 0, "fatal": 0, "pedestrian": 0, "bicycle": 0, "density": 0.2, "severity_avg": 1.0, "top_type": "Pedestrian", "road": "MD"}}, {"type": "Feature", "geometry": {"type": "Point", "coordinates": [-76.744144, 39.317117]}, "properties": {"crashes": 1, "injury": 0, "fatal": 0, "pedestrian": 0, "bicycle": 0, "density": 0.2, "severity_avg": 1.0, "top_type": "Pedestrian", "road": "IS"}}, {"type": "Feature", "geometry": {"type": "Point", "coordinates": [-76.92973, 38.938739]}, "properties": {"crashes": 1, "injury": 0, "fatal": 0, "pedestrian": 0, "bicycle": 0, "density": 0.2, "severity_avg": 1.0, "top_type": "Pedestrian", "road": "MD"}}, {"type": "Feature", "geometry": {"type": "Point", "coordinates": [-76.563964, 39.398198]}, "properties": {"crashes": 1, "injury": 0, "fatal": 0, "pedestrian": 0, "bicycle": 0, "density": 0.2, "severity_avg": 1.0, "top_type": "Pedestrian", "road": "MD"}}, {"type": "Feature", "geometry": {"type": "Point", "coordinates": [-76.61982, 39.158559]}, "properties": {"crashes": 1, "injury": 0, "fatal": 0, "pedestrian": 0, "bicycle": 0, "density": 0.2, "severity_avg": 1.0, "top_type": "Pedestrian", "road": "MD"}}, {"type": "Feature", "geometry": {"type": "Point", "coordinates": [-76.933333, 39.104505]}, "properties": {"crashes": 1, "injury": 0, "fatal": 0, "pedestrian": 0, "bicycle": 0, "density": 0.2, "severity_avg": 1.0, "top_type": "Pedestrian", "road": "US"}}, {"type": "Feature", "geometry": {"type": "Point", "coordinates": [-77.452252, 39.418018]}, "properties": {"crashes": 1, "injury": 0, "fatal": 0, "pedestrian": 0, "bicycle": 0, "density": 0.2, "severity_avg": 1.0, "top_type": "Pedestrian", "road": "US"}}, {"type": "Feature", "geometry": {"type": "Point", "coordinates": [-76.767568, 39.513514]}, "properties": {"crashes": 1, "injury": 0, "fatal": 0, "pedestrian": 0, "bicycle": 0, "density": 0.2, "severity_avg": 1.0, "top_type": "Bicyclist", "road": "MD"}}, {"type": "Feature", "geometry": {"type": "Point", "coordinates": [-76.789189, 39.176577]}, "properties": {"crashes": 1, "injury": 0, "fatal": 0, "pedestrian": 0, "bicycle": 0, "density": 0.2, "severity_avg": 1.0, "top_type": "Pedestrian", "road": "IS"}}, {"type": "Feature", "geometry": {"type": "Point", "coordinates": [-76.886486, 38.821622]}, "properties": {"crashes": 1, "injury": 0, "fatal": 0, "pedestrian": 0, "bicycle": 0, "density": 0.2, "severity_avg": 1.0, "top_type": "Pedestrian", "road": "IS"}}, {"type": "Feature", "geometry": {"type": "Point", "coordinates": [-76.735135, 38.823423]}, "properties": {"crashes": 1, "injury": 0, "fatal": 0, "pedestrian": 0, "bicycle": 0, "density": 0.2, "severity_avg": 1.0, "top_type": "Pedestrian", "road": "US"}}, {"type": "Feature", "geometry": {"type": "Point", "coordinates": [-77.697297, 39.625225]}, "properties": {"crashes": 1, "injury": 0, "fatal": 0, "pedestrian": 0, "bicycle": 0, "density": 0.2, "severity_avg": 1.0, "top_type": "Pedestrian", "road": "US"}}, {"type": "Feature", "geometry": {"type": "Point", "coordinates": [-76.918919, 38.81982]}, "properties": {"crashes": 1, "injury": 0, "fatal": 0, "pedestrian": 0, "bicycle": 0, "density": 0.2, "severity_avg": 1.0, "top_type": "Pedestrian", "road": "MD"}}, {"type": "Feature", "geometry": {"type": "Point", "coordinates": [-77.115315, 39.075676]}, "properties": {"crashes": 1, "injury": 0, "fatal": 0, "pedestrian": 0, "bicycle": 0, "density": 0.2, "severity_avg": 1.0, "top_type": "Pedestrian", "road": "MD"}}, {"type": "Feature", "geometry": {"type": "Point", "coordinates": [-77.126126, 39.030631]}, "properties": {"crashes": 1, "injury": 0, "fatal": 0, "pedestrian": 0, "bicycle": 0, "density": 0.2, "severity_avg": 1.0, "top_type": "Pedestrian", "road": "IS"}}, {"type": "Feature", "geometry": {"type": "Point", "coordinates": [-76.836036, 39.111712]}, "properties": {"crashes": 1, "injury": 0, "fatal": 0, "pedestrian": 0, "bicycle": 0, "density": 0.2, "severity_avg": 1.0, "top_type": "Pedestrian", "road": "US"}}, {"type": "Feature", "geometry": {"type": "Point", "coordinates": [-76.911712, 38.933333]}, "properties": {"crashes": 1, "injury": 0, "fatal": 0, "pedestrian": 0, "bicycle": 0, "density": 0.2, "severity_avg": 1.0, "top_type": "Pedestrian", "road": "MD"}}, {"type": "Feature", "geometry": {"type": "Point", "coordinates": [-76.965766, 39.385586]}, "properties": {"crashes": 1, "injury": 0, "fatal": 0, "pedestrian": 0, "bicycle": 0, "density": 0.2, "severity_avg": 1.0, "top_type": "Pedestrian", "road": "MD"}}, {"type": "Feature", "geometry": {"type": "Point", "coordinates": [-78.834234, 39.592793]}, "properties": {"crashes": 1, "injury": 0, "fatal": 0, "pedestrian": 0, "bicycle": 0, "density": 0.2, "severity_avg": 1.0, "top_type": "Pedestrian", "road": "US"}}, {"type": "Feature", "geometry": {"type": "Point", "coordinates": [-76.944144, 38.827027]}, "properties": {"crashes": 1, "injury": 0, "fatal": 0, "pedestrian": 0, "bicycle": 0, "density": 0.2, "severity_avg": 1.0, "top_type": "Pedestrian", "road": "MD"}}, {"type": "Feature", "geometry": {"type": "Point", "coordinates": [-76.857658, 38.942342]}, "properties": {"crashes": 1, "injury": 0, "fatal": 0, "pedestrian": 0, "bicycle": 0, "density": 0.2, "severity_avg": 1.0, "top_type": "Pedestrian", "road": "IS"}}, {"type": "Feature", "geometry": {"type": "Point", "coordinates": [-76.848649, 38.891892]}, "properties": {"crashes": 1, "injury": 0, "fatal": 0, "pedestrian": 0, "bicycle": 0, "density": 0.2, "severity_avg": 1.0, "top_type": "Pedestrian", "road": "MD"}}, {"type": "Feature", "geometry": {"type": "Point", "coordinates": [-77.418018, 39.398198]}, "properties": {"crashes": 1, "injury": 0, "fatal": 0, "pedestrian": 0, "bicycle": 0, "density": 0.2, "severity_avg": 1.0, "top_type": "Pedestrian", "road": "IS"}}, {"type": "Feature", "geometry": {"type": "Point", "coordinates": [-76.596396, 39.425225]}, "properties": {"crashes": 1, "injury": 0, "fatal": 0, "pedestrian": 0, "bicycle": 0, "density": 0.2, "severity_avg": 1.0, "top_type": "Pedestrian", "road": "MD"}}, {"type": "Feature", "geometry": {"type": "Point", "coordinates": [-76.616216, 39.578378]}, "properties": {"crashes": 1, "injury": 0, "fatal": 0, "pedestrian": 0, "bicycle": 0, "density": 0.2, "severity_avg": 1.0, "top_type": "Pedestrian", "road": "MD"}}, {"type": "Feature", "geometry": {"type": "Point", "coordinates": [-76.506306, 39.282883]}, "properties": {"crashes": 1, "injury": 0, "fatal": 0, "pedestrian": 0, "bicycle": 0, "density": 0.2, "severity_avg": 1.0, "top_type": "Pedestrian", "road": "MD"}}, {"type": "Feature", "geometry": {"type": "Point", "coordinates": [-77.414414, 39.432432]}, "properties": {"crashes": 1, "injury": 0, "fatal": 0, "pedestrian": 0, "bicycle": 0, "density": 0.2, "severity_avg": 1.0, "top_type": "Pedestrian", "road": "GV"}}, {"type": "Feature", "geometry": {"type": "Point", "coordinates": [-76.345946, 39.522523]}, "properties": {"crashes": 1, "injury": 0, "fatal": 0, "pedestrian": 0, "bicycle": 0, "density": 0.2, "severity_avg": 1.0, "top_type": "Pedestrian", "road": "MD"}}, {"type": "Feature", "geometry": {"type": "Point", "coordinates": [-76.482883, 39.327928]}, "properties": {"crashes": 1, "injury": 0, "fatal": 0, "pedestrian": 0, "bicycle": 0, "density": 0.2, "severity_avg": 1.0, "top_type": "Pedestrian", "road": "MD"}}, {"type": "Feature", "geometry": {"type": "Point", "coordinates": [-76.526126, 39.311712]}, "properties": {"crashes": 1, "injury": 0, "fatal": 0, "pedestrian": 0, "bicycle": 0, "density": 0.2, "severity_avg": 1.0, "top_type": "Pedestrian", "road": "US"}}, {"type": "Feature", "geometry": {"type": "Point", "coordinates": [-76.897297, 39.69009]}, "properties": {"crashes": 1, "injury": 0, "fatal": 0, "pedestrian": 0, "bicycle": 0, "density": 0.2, "severity_avg": 1.0, "top_type": "Pedestrian", "road": "MD"}}, {"type": "Feature", "geometry": {"type": "Point", "coordinates": [-76.171171, 39.499099]}, "properties": {"crashes": 1, "injury": 0, "fatal": 0, "pedestrian": 0, "bicycle": 0, "density": 0.2, "severity_avg": 1.0, "top_type": "Pedestrian", "road": "US"}}, {"type": "Feature", "geometry": {"type": "Point", "coordinates": [-76.542342, 38.972973]}, "properties": {"crashes": 1, "injury": 0, "fatal": 0, "pedestrian": 0, "bicycle": 0, "density": 0.2, "severity_avg": 1.0, "top_type": "Pedestrian", "road": "MD"}}, {"type": "Feature", "geometry": {"type": "Point", "coordinates": [-76.956757, 38.852252]}, "properties": {"crashes": 1, "injury": 0, "fatal": 0, "pedestrian": 0, "bicycle": 0, "density": 0.2, "severity_avg": 1.0, "top_type": "Pedestrian", "road": "MD"}}, {"type": "Feature", "geometry": {"type": "Point", "coordinates": [-77.041441, 39.010811]}, "properties": {"crashes": 1, "injury": 0, "fatal": 0, "pedestrian": 0, "bicycle": 0, "density": 0.2, "severity_avg": 1.0, "top_type": "Pedestrian", "road": "MD"}}, {"type": "Feature", "geometry": {"type": "Point", "coordinates": [-76.920721, 39.194595]}, "properties": {"crashes": 1, "injury": 0, "fatal": 0, "pedestrian": 0, "bicycle": 0, "density": 0.2, "severity_avg": 1.0, "top_type": "Pedestrian", "road": "MD"}}, {"type": "Feature", "geometry": {"type": "Point", "coordinates": [-76.540541, 38.500901]}, "properties": {"crashes": 2, "injury": 0, "fatal": 0, "pedestrian": 0, "bicycle": 0, "density": 0.4, "severity_avg": 1.0, "top_type": "Pedestrian", "road": "MD"}}, {"type": "Feature", "geometry": {"type": "Point", "coordinates": [-77.063063, 39.045045]}, "properties": {"crashes": 1, "injury": 0, "fatal": 0, "pedestrian": 0, "bicycle": 0, "density": 0.2, "severity_avg": 1.0, "top_type": "Pedestrian", "road": "MD"}}, {"type": "Feature", "geometry": {"type": "Point", "coordinates": [-75.699099, 38.214414]}, "properties": {"crashes": 1, "injury": 0, "fatal": 0, "pedestrian": 0, "bicycle": 0, "density": 0.2, "severity_avg": 1.0, "top_type": "Pedestrian", "road": "US"}}, {"type": "Feature", "geometry": {"type": "Point", "coordinates": [-77.030631, 38.994595]}, "properties": {"crashes": 1, "injury": 0, "fatal": 0, "pedestrian": 0, "bicycle": 0, "density": 0.2, "severity_avg": 1.0, "top_type": "Pedestrian", "road": "MD"}}, {"type": "Feature", "geometry": {"type": "Point", "coordinates": [-77.169369, 39.079279]}, "properties": {"crashes": 1, "injury": 0, "fatal": 0, "pedestrian": 0, "bicycle": 0, "density": 0.2, "severity_avg": 1.0, "top_type": "Pedestrian", "road": "IS"}}, {"type": "Feature", "geometry": {"type": "Point", "coordinates": [-76.816216, 39.100901]}, "properties": {"crashes": 1, "injury": 0, "fatal": 0, "pedestrian": 0, "bicycle": 0, "density": 0.2, "severity_avg": 1.0, "top_type": "Pedestrian", "road": "MD"}}, {"type": "Feature", "geometry": {"type": "Point", "coordinates": [-75.144144, 38.338739]}, "properties": {"crashes": 1, "injury": 0, "fatal": 0, "pedestrian": 0, "bicycle": 0, "density": 0.2, "severity_avg": 1.0, "top_type": "Pedestrian", "road": "OP"}}, {"type": "Feature", "geometry": {"type": "Point", "coordinates": [-76.918919, 38.754955]}, "properties": {"crashes": 1, "injury": 0, "fatal": 0, "pedestrian": 0, "bicycle": 0, "density": 0.2, "severity_avg": 1.0, "top_type": "Pedestrian", "road": "MD"}}, {"type": "Feature", "geometry": {"type": "Point", "coordinates": [-77.131532, 39.07027]}, "properties": {"crashes": 1, "injury": 0, "fatal": 0, "pedestrian": 0, "bicycle": 0, "density": 0.2, "severity_avg": 1.0, "top_type": "Bicyclist", "road": "MD"}}, {"type": "Feature", "geometry": {"type": "Point", "coordinates": [-76.641441, 39.201802]}, "properties": {"crashes": 1, "injury": 0, "fatal": 0, "pedestrian": 0, "bicycle": 0, "density": 0.2, "severity_avg": 1.0, "top_type": "Pedestrian", "road": "MD"}}, {"type": "Feature", "geometry": {"type": "Point", "coordinates": [-76.913514, 38.816216]}, "properties": {"crashes": 1, "injury": 0, "fatal": 0, "pedestrian": 0, "bicycle": 0, "density": 0.2, "severity_avg": 1.0, "top_type": "Pedestrian", "road": "MD"}}, {"type": "Feature", "geometry": {"type": "Point", "coordinates": [-76.491892, 39.248649]}, "properties": {"crashes": 1, "injury": 0, "fatal": 0, "pedestrian": 0, "bicycle": 0, "density": 0.2, "severity_avg": 1.0, "top_type": "Pedestrian", "road": "MD"}}, {"type": "Feature", "geometry": {"type": "Point", "coordinates": [-76.882883, 38.917117]}, "properties": {"crashes": 1, "injury": 0, "fatal": 0, "pedestrian": 0, "bicycle": 0, "density": 0.2, "severity_avg": 1.0, "top_type": "Pedestrian", "road": "MD"}}, {"type": "Feature", "geometry": {"type": "Point", "coordinates": [-76.776577, 38.900901]}, "properties": {"crashes": 1, "injury": 0, "fatal": 0, "pedestrian": 0, "bicycle": 0, "density": 0.2, "severity_avg": 1.0, "top_type": "Pedestrian", "road": "MD"}}, {"type": "Feature", "geometry": {"type": "Point", "coordinates": [-76.8, 38.942342]}, "properties": {"crashes": 1, "injury": 0, "fatal": 0, "pedestrian": 0, "bicycle": 0, "density": 0.2, "severity_avg": 1.0, "top_type": "Pedestrian", "road": "MD"}}, {"type": "Feature", "geometry": {"type": "Point", "coordinates": [-76.783784, 39.363964]}, "properties": {"crashes": 1, "injury": 0, "fatal": 0, "pedestrian": 0, "bicycle": 0, "density": 0.2, "severity_avg": 1.0, "top_type": "Pedestrian", "road": "MD"}}, {"type": "Feature", "geometry": {"type": "Point", "coordinates": [-76.724324, 39.209009]}, "properties": {"crashes": 1, "injury": 0, "fatal": 0, "pedestrian": 0, "bicycle": 0, "density": 0.2, "severity_avg": 1.0, "top_type": "Pedestrian", "road": "US"}}, {"type": "Feature", "geometry": {"type": "Point", "coordinates": [-76.816216, 39.279279]}, "properties": {"crashes": 1, "injury": 0, "fatal": 0, "pedestrian": 0, "bicycle": 0, "density": 0.2, "severity_avg": 1.0, "top_type": "Pedestrian", "road": "US"}}, {"type": "Feature", "geometry": {"type": "Point", "coordinates": [-76.576577, 38.702703]}, "properties": {"crashes": 1, "injury": 0, "fatal": 0, "pedestrian": 0, "bicycle": 0, "density": 0.2, "severity_avg": 1.0, "top_type": "Pedestrian", "road": "MD"}}, {"type": "Feature", "geometry": {"type": "Point", "coordinates": [-76.90991, 38.486486]}, "properties": {"crashes": 1, "injury": 0, "fatal": 0, "pedestrian": 0, "bicycle": 0, "density": 0.2, "severity_avg": 1.0, "top_type": "Bicyclist", "road": "MD"}}, {"type": "Feature", "geometry": {"type": "Point", "coordinates": [-76.818018, 38.54955]}, "properties": {"crashes": 1, "injury": 0, "fatal": 0, "pedestrian": 0, "bicycle": 0, "density": 0.2, "severity_avg": 1.0, "top_type": "Pedestrian", "road": "MD"}}, {"type": "Feature", "geometry": {"type": "Point", "coordinates": [-76.956757, 38.648649]}, "properties": {"crashes": 1, "injury": 0, "fatal": 0, "pedestrian": 0, "bicycle": 0, "density": 0.2, "severity_avg": 1.0, "top_type": "Pedestrian", "road": "MD"}}, {"type": "Feature", "geometry": {"type": "Point", "coordinates": [-76.877477, 38.610811]}, "properties": {"crashes": 1, "injury": 0, "fatal": 0, "pedestrian": 0, "bicycle": 0, "density": 0.2, "severity_avg": 1.0, "top_type": "Pedestrian", "road": "MD"}}, {"type": "Feature", "geometry": {"type": "Point", "coordinates": [-76.987387, 38.990991]}, "properties": {"crashes": 1, "injury": 0, "fatal": 0, "pedestrian": 0, "bicycle": 0, "density": 0.2, "severity_avg": 1.0, "top_type": "Pedestrian", "road": "MD"}}, {"type": "Feature", "geometry": {"type": "Point", "coordinates": [-75.645045, 38.369369]}, "properties": {"crashes": 1, "injury": 0, "fatal": 0, "pedestrian": 0, "bicycle": 0, "density": 0.2, "severity_avg": 1.0, "top_type": "Pedestrian", "road": "MD"}}, {"type": "Feature", "geometry": {"type": "Point", "coordinates": [-76.481081, 39.279279]}, "properties": {"crashes": 2, "injury": 0, "fatal": 0, "pedestrian": 0, "bicycle": 0, "density": 0.4, "severity_avg": 1.0, "top_type": "Pedestrian", "road": "MD"}}, {"type": "Feature", "geometry": {"type": "Point", "coordinates": [-76.873874, 38.652252]}, "properties": {"crashes": 1, "injury": 0, "fatal": 0, "pedestrian": 0, "bicycle": 0, "density": 0.2, "severity_avg": 1.0, "top_type": "Bicyclist", "road": "MD"}}, {"type": "Feature", "geometry": {"type": "Point", "coordinates": [-76.90991, 38.810811]}, "properties": {"crashes": 1, "injury": 0, "fatal": 0, "pedestrian": 0, "bicycle": 0, "density": 0.2, "severity_avg": 1.0, "top_type": "Pedestrian", "road": "MD"}}, {"type": "Feature", "geometry": {"type": "Point", "coordinates": [-76.803604, 39.14955]}, "properties": {"crashes": 1, "injury": 0, "fatal": 0, "pedestrian": 0, "bicycle": 0, "density": 0.2, "severity_avg": 1.0, "top_type": "Pedestrian", "road": "US"}}, {"type": "Feature", "geometry": {"type": "Point", "coordinates": [-76.996396, 39.001802]}, "properties": {"crashes": 1, "injury": 0, "fatal": 0, "pedestrian": 0, "bicycle": 0, "density": 0.2, "severity_avg": 1.0, "top_type": "Pedestrian", "road": "MD"}}, {"type": "Feature", "geometry": {"type": "Point", "coordinates": [-76.776577, 39.416216]}, "properties": {"crashes": 1, "injury": 0, "fatal": 0, "pedestrian": 0, "bicycle": 0, "density": 0.2, "severity_avg": 1.0, "top_type": "Pedestrian", "road": "MD"}}, {"type": "Feature", "geometry": {"type": "Point", "coordinates": [-76.897297, 38.63964]}, "properties": {"crashes": 1, "injury": 0, "fatal": 0, "pedestrian": 0, "bicycle": 0, "density": 0.2, "severity_avg": 1.0, "top_type": "Pedestrian", "road": "US"}}, {"type": "Feature", "geometry": {"type": "Point", "coordinates": [-77.081081, 39.10991]}, "properties": {"crashes": 1, "injury": 0, "fatal": 0, "pedestrian": 0, "bicycle": 0, "density": 0.2, "severity_avg": 1.0, "top_type": "Pedestrian", "road": "MD"}}, {"type": "Feature", "geometry": {"type": "Point", "coordinates": [-76.774775, 39.405405]}, "properties": {"crashes": 1, "injury": 0, "fatal": 0, "pedestrian": 0, "bicycle": 0, "density": 0.2, "severity_avg": 1.0, "top_type": "Pedestrian", "road": "IS"}}, {"type": "Feature", "geometry": {"type": "Point", "coordinates": [-77.432432, 39.589189]}, "properties": {"crashes": 1, "injury": 0, "fatal": 0, "pedestrian": 0, "bicycle": 0, "density": 0.2, "severity_avg": 1.0, "top_type": "Bicyclist", "road": "US"}}, {"type": "Feature", "geometry": {"type": "Point", "coordinates": [-76.917117, 38.96036]}, "properties": {"crashes": 1, "injury": 0, "fatal": 0, "pedestrian": 0, "bicycle": 0, "density": 0.2, "severity_avg": 1.0, "top_type": "Bicyclist", "road": "MD"}}, {"type": "Feature", "geometry": {"type": "Point", "coordinates": [-76.942342, 38.938739]}, "properties": {"crashes": 1, "injury": 0, "fatal": 0, "pedestrian": 0, "bicycle": 0, "density": 0.2, "severity_avg": 1.0, "top_type": "Pedestrian", "road": "US"}}, {"type": "Feature", "geometry": {"type": "Point", "coordinates": [-76.794595, 38.783784]}, "properties": {"crashes": 1, "injury": 0, "fatal": 0, "pedestrian": 0, "bicycle": 0, "density": 0.2, "severity_avg": 1.0, "top_type": "Pedestrian", "road": "US"}}, {"type": "Feature", "geometry": {"type": "Point", "coordinates": [-76.569369, 39.389189]}, "properties": {"crashes": 1, "injury": 0, "fatal": 0, "pedestrian": 0, "bicycle": 0, "density": 0.2, "severity_avg": 1.0, "top_type": "Pedestrian", "road": "MD"}}, {"type": "Feature", "geometry": {"type": "Point", "coordinates": [-77.356757, 39.475676]}, "properties": {"crashes": 1, "injury": 0, "fatal": 0, "pedestrian": 0, "bicycle": 0, "density": 0.2, "severity_avg": 1.0, "top_type": "Pedestrian", "road": "MD"}}, {"type": "Feature", "geometry": {"type": "Point", "coordinates": [-76.983784, 39.028829]}, "properties": {"crashes": 1, "injury": 0, "fatal": 0, "pedestrian": 0, "bicycle": 0, "density": 0.2, "severity_avg": 1.0, "top_type": "Pedestrian", "road": "MD"}}, {"type": "Feature", "geometry": {"type": "Point", "coordinates": [-77.133333, 39.073874]}, "properties": {"crashes": 1, "injury": 0, "fatal": 0, "pedestrian": 0, "bicycle": 0, "density": 0.2, "severity_avg": 1.0, "top_type": "Pedestrian", "road": "MD"}}, {"type": "Feature", "geometry": {"type": "Point", "coordinates": [-76.517117, 39.317117]}, "properties": {"crashes": 1, "injury": 0, "fatal": 0, "pedestrian": 0, "bicycle": 0, "density": 0.2, "severity_avg": 1.0, "top_type": "Pedestrian", "road": "US"}}, {"type": "Feature", "geometry": {"type": "Point", "coordinates": [-76.998198, 38.78018]}, "properties": {"crashes": 1, "injury": 0, "fatal": 0, "pedestrian": 0, "bicycle": 0, "density": 0.2, "severity_avg": 1.0, "top_type": "Pedestrian", "road": "MD"}}, {"type": "Feature", "geometry": {"type": "Point", "coordinates": [-76.855856, 38.938739]}, "properties": {"crashes": 1, "injury": 0, "fatal": 0, "pedestrian": 0, "bicycle": 0, "density": 0.2, "severity_avg": 1.0, "top_type": "Pedestrian", "road": "MD"}}, {"type": "Feature", "geometry": {"type": "Point", "coordinates": [-76.902703, 38.996396]}, "properties": {"crashes": 1, "injury": 0, "fatal": 0, "pedestrian": 0, "bicycle": 0, "density": 0.2, "severity_avg": 1.0, "top_type": "Pedestrian", "road": "MD"}}, {"type": "Feature", "geometry": {"type": "Point", "coordinates": [-76.98018, 39.003604]}, "properties": {"crashes": 1, "injury": 0, "fatal": 0, "pedestrian": 0, "bicycle": 0, "density": 0.2, "severity_avg": 1.0, "top_type": "Pedestrian", "road": "MD"}}, {"type": "Feature", "geometry": {"type": "Point", "coordinates": [-76.882883, 38.915315]}, "properties": {"crashes": 1, "injury": 0, "fatal": 0, "pedestrian": 0, "bicycle": 0, "density": 0.2, "severity_avg": 1.0, "top_type": "Pedestrian", "road": "MD"}}, {"type": "Feature", "geometry": {"type": "Point", "coordinates": [-76.926126, 38.846847]}, "properties": {"crashes": 1, "injury": 0, "fatal": 0, "pedestrian": 0, "bicycle": 0, "density": 0.2, "severity_avg": 1.0, "top_type": "Pedestrian", "road": "MD"}}, {"type": "Feature", "geometry": {"type": "Point", "coordinates": [-77.538739, 39.481081]}, "properties": {"crashes": 1, "injury": 0, "fatal": 0, "pedestrian": 0, "bicycle": 0, "density": 0.2, "severity_avg": 1.0, "top_type": "Pedestrian", "road": "IS"}}, {"type": "Feature", "geometry": {"type": "Point", "coordinates": [-75.98018, 39.596396]}, "properties": {"crashes": 1, "injury": 0, "fatal": 0, "pedestrian": 0, "bicycle": 0, "density": 0.2, "severity_avg": 1.0, "top_type": "Pedestrian", "road": "US"}}, {"type": "Feature", "geometry": {"type": "Point", "coordinates": [-76.794595, 38.899099]}, "properties": {"crashes": 1, "injury": 0, "fatal": 0, "pedestrian": 0, "bicycle": 0, "density": 0.2, "severity_avg": 1.0, "top_type": "Pedestrian", "road": "MD"}}, {"type": "Feature", "geometry": {"type": "Point", "coordinates": [-76.603604, 39.21982]}, "properties": {"crashes": 1, "injury": 0, "fatal": 0, "pedestrian": 0, "bicycle": 0, "density": 0.2, "severity_avg": 1.0, "top_type": "Pedestrian", "road": "MD"}}, {"type": "Feature", "geometry": {"type": "Point", "coordinates": [-76.936937, 38.830631]}, "properties": {"crashes": 1, "injury": 0, "fatal": 0, "pedestrian": 0, "bicycle": 0, "density": 0.2, "severity_avg": 1.0, "top_type": "Pedestrian", "road": "MD"}}, {"type": "Feature", "geometry": {"type": "Point", "coordinates": [-76.906306, 39.073874]}, "properties": {"crashes": 1, "injury": 0, "fatal": 0, "pedestrian": 0, "bicycle": 0, "density": 0.2, "severity_avg": 1.0, "top_type": "Pedestrian", "road": "IS"}}, {"type": "Feature", "geometry": {"type": "Point", "coordinates": [-76.978378, 39.567568]}, "properties": {"crashes": 1, "injury": 0, "fatal": 0, "pedestrian": 0, "bicycle": 0, "density": 0.2, "severity_avg": 1.0, "top_type": "Pedestrian", "road": "MD"}}, {"type": "Feature", "geometry": {"type": "Point", "coordinates": [-76.636036, 39.176577]}, "properties": {"crashes": 1, "injury": 0, "fatal": 0, "pedestrian": 0, "bicycle": 0, "density": 0.2, "severity_avg": 1.0, "top_type": "Pedestrian", "road": "IS"}}, {"type": "Feature", "geometry": {"type": "Point", "coordinates": [-76.744144, 39.326126]}, "properties": {"crashes": 1, "injury": 0, "fatal": 0, "pedestrian": 0, "bicycle": 0, "density": 0.2, "severity_avg": 1.0, "top_type": "Pedestrian", "road": "IS"}}, {"type": "Feature", "geometry": {"type": "Point", "coordinates": [-77.49009, 39.70991]}, "properties": {"crashes": 1, "injury": 0, "fatal": 0, "pedestrian": 0, "bicycle": 0, "density": 0.2, "severity_avg": 1.0, "top_type": "Pedestrian", "road": "MD"}}, {"type": "Feature", "geometry": {"type": "Point", "coordinates": [-76.823423, 38.899099]}, "properties": {"crashes": 2, "injury": 0, "fatal": 0, "pedestrian": 0, "bicycle": 0, "density": 0.4, "severity_avg": 1.0, "top_type": "Pedestrian", "road": "MD"}}, {"type": "Feature", "geometry": {"type": "Point", "coordinates": [-77.072072, 39.079279]}, "properties": {"crashes": 1, "injury": 0, "fatal": 0, "pedestrian": 0, "bicycle": 0, "density": 0.2, "severity_avg": 1.0, "top_type": "Pedestrian", "road": "MD"}}, {"type": "Feature", "geometry": {"type": "Point", "coordinates": [-76.356757, 39.428829]}, "properties": {"crashes": 1, "injury": 0, "fatal": 0, "pedestrian": 0, "bicycle": 0, "density": 0.2, "severity_avg": 1.0, "top_type": "Pedestrian", "road": "US"}}, {"type": "Feature", "geometry": {"type": "Point", "coordinates": [-76.605405, 39.171171]}, "properties": {"crashes": 1, "injury": 0, "fatal": 0, "pedestrian": 0, "bicycle": 0, "density": 0.2, "severity_avg": 1.0, "top_type": "Pedestrian", "road": "MD"}}, {"type": "Feature", "geometry": {"type": "Point", "coordinates": [-76.524324, 38.972973]}, "properties": {"crashes": 1, "injury": 0, "fatal": 0, "pedestrian": 0, "bicycle": 0, "density": 0.2, "severity_avg": 1.0, "top_type": "Pedestrian", "road": "MD"}}, {"type": "Feature", "geometry": {"type": "Point", "coordinates": [-77.063063, 39.340541]}, "properties": {"crashes": 1, "injury": 0, "fatal": 0, "pedestrian": 0, "bicycle": 0, "density": 0.2, "severity_avg": 1.0, "top_type": "Pedestrian", "road": "IS"}}, {"type": "Feature", "geometry": {"type": "Point", "coordinates": [-77.18018, 39.344144]}, "properties": {"crashes": 1, "injury": 0, "fatal": 0, "pedestrian": 0, "bicycle": 0, "density": 0.2, "severity_avg": 1.0, "top_type": "Pedestrian", "road": "MD"}}, {"type": "Feature", "geometry": {"type": "Point", "coordinates": [-76.72973, 38.98018]}, "properties": {"crashes": 1, "injury": 0, "fatal": 0, "pedestrian": 0, "bicycle": 0, "density": 0.2, "severity_avg": 1.0, "top_type": "Pedestrian", "road": "MD"}}, {"type": "Feature", "geometry": {"type": "Point", "coordinates": [-77.063063, 39.068468]}, "properties": {"crashes": 1, "injury": 0, "fatal": 0, "pedestrian": 0, "bicycle": 0, "density": 0.2, "severity_avg": 1.0, "top_type": "Pedestrian", "road": "MD"}}, {"type": "Feature", "geometry": {"type": "Point", "coordinates": [-76.987387, 39.046847]}, "properties": {"crashes": 1, "injury": 0, "fatal": 0, "pedestrian": 0, "bicycle": 0, "density": 0.2, "severity_avg": 1.0, "top_type": "Pedestrian", "road": "US"}}, {"type": "Feature", "geometry": {"type": "Point", "coordinates": [-76.873874, 38.659459]}, "properties": {"crashes": 1, "injury": 0, "fatal": 0, "pedestrian": 0, "bicycle": 0, "density": 0.2, "severity_avg": 1.0, "top_type": "Pedestrian", "road": "US"}}, {"type": "Feature", "geometry": {"type": "Point", "coordinates": [-76.978378, 39.317117]}, "properties": {"crashes": 1, "injury": 0, "fatal": 0, "pedestrian": 0, "bicycle": 0, "density": 0.2, "severity_avg": 1.0, "top_type": "Pedestrian", "road": "IS"}}, {"type": "Feature", "geometry": {"type": "Point", "coordinates": [-76.632432, 39.142342]}, "properties": {"crashes": 1, "injury": 0, "fatal": 0, "pedestrian": 0, "bicycle": 0, "density": 0.2, "severity_avg": 1.0, "top_type": "Pedestrian", "road": "MD"}}, {"type": "Feature", "geometry": {"type": "Point", "coordinates": [-77.311712, 39.389189]}, "properties": {"crashes": 1, "injury": 0, "fatal": 0, "pedestrian": 0, "bicycle": 0, "density": 0.2, "severity_avg": 1.0, "top_type": "Pedestrian", "road": "IS"}}, {"type": "Feature", "geometry": {"type": "Point", "coordinates": [-77.681081, 39.32973]}, "properties": {"crashes": 1, "injury": 0, "fatal": 0, "pedestrian": 0, "bicycle": 0, "density": 0.2, "severity_avg": 1.0, "top_type": "Pedestrian", "road": "US"}}, {"type": "Feature", "geometry": {"type": "Point", "coordinates": [-77.232432, 39.124324]}, "properties": {"crashes": 1, "injury": 0, "fatal": 0, "pedestrian": 0, "bicycle": 0, "density": 0.2, "severity_avg": 1.0, "top_type": "Pedestrian", "road": "MD"}}, {"type": "Feature", "geometry": {"type": "Point", "coordinates": [-76.535135, 38.983784]}, "properties": {"crashes": 1, "injury": 0, "fatal": 0, "pedestrian": 0, "bicycle": 0, "density": 0.2, "severity_avg": 1.0, "top_type": "Pedestrian", "road": "MD"}}, {"type": "Feature", "geometry": {"type": "Point", "coordinates": [-76.646847, 39.246847]}, "properties": {"crashes": 1, "injury": 0, "fatal": 0, "pedestrian": 0, "bicycle": 0, "density": 0.2, "severity_avg": 1.0, "top_type": "Pedestrian", "road": "MD"}}, {"type": "Feature", "geometry": {"type": "Point", "coordinates": [-76.473874, 39.403604]}, "properties": {"crashes": 1, "injury": 0, "fatal": 0, "pedestrian": 0, "bicycle": 0, "density": 0.2, "severity_avg": 1.0, "top_type": "Pedestrian", "road": "GV"}}, {"type": "Feature", "geometry": {"type": "Point", "coordinates": [-76.906306, 38.763964]}, "properties": {"crashes": 1, "injury": 0, "fatal": 0, "pedestrian": 0, "bicycle": 0, "density": 0.2, "severity_avg": 1.0, "top_type": "Pedestrian", "road": "MD"}}, {"type": "Feature", "geometry": {"type": "Point", "coordinates": [-76.506306, 39.320721]}, "properties": {"crashes": 1, "injury": 0, "fatal": 0, "pedestrian": 0, "bicycle": 0, "density": 0.2, "severity_avg": 1.0, "top_type": "Pedestrian", "road": "US"}}, {"type": "Feature", "geometry": {"type": "Point", "coordinates": [-76.441441, 39.32973]}, "properties": {"crashes": 1, "injury": 0, "fatal": 0, "pedestrian": 0, "bicycle": 0, "density": 0.2, "severity_avg": 1.0, "top_type": "Pedestrian", "road": "MD"}}, {"type": "Feature", "geometry": {"type": "Point", "coordinates": [-77.403604, 39.63964]}, "properties": {"crashes": 1, "injury": 0, "fatal": 0, "pedestrian": 0, "bicycle": 0, "density": 0.2, "severity_avg": 1.0, "top_type": "Bicyclist", "road": "US"}}, {"type": "Feature", "geometry": {"type": "Point", "coordinates": [-77.468468, 39.41982]}, "properties": {"crashes": 1, "injury": 0, "fatal": 0, "pedestrian": 0, "bicycle": 0, "density": 0.2, "severity_avg": 1.0, "top_type": "Pedestrian", "road": "US"}}, {"type": "Feature", "geometry": {"type": "Point", "coordinates": [-76.58018, 39.38018]}, "properties": {"crashes": 1, "injury": 0, "fatal": 0, "pedestrian": 0, "bicycle": 0, "density": 0.2, "severity_avg": 1.0, "top_type": "Pedestrian", "road": "MD"}}, {"type": "Feature", "geometry": {"type": "Point", "coordinates": [-75.536937, 38.369369]}, "properties": {"crashes": 1, "injury": 0, "fatal": 0, "pedestrian": 0, "bicycle": 0, "density": 0.2, "severity_avg": 1.0, "top_type": "Pedestrian", "road": "US"}}, {"type": "Feature", "geometry": {"type": "Point", "coordinates": [-75.142342, 38.300901]}, "properties": {"crashes": 1, "injury": 0, "fatal": 0, "pedestrian": 0, "bicycle": 0, "density": 0.2, "severity_avg": 1.0, "top_type": "Pedestrian", "road": "MD"}}, {"type": "Feature", "geometry": {"type": "Point", "coordinates": [-76.985586, 38.547748]}, "properties": {"crashes": 1, "injury": 0, "fatal": 0, "pedestrian": 0, "bicycle": 0, "density": 0.2, "severity_avg": 1.0, "top_type": "Pedestrian", "road": "US"}}, {"type": "Feature", "geometry": {"type": "Point", "coordinates": [-76.981982, 38.803604]}, "properties": {"crashes": 1, "injury": 0, "fatal": 0, "pedestrian": 0, "bicycle": 0, "density": 0.2, "severity_avg": 1.0, "top_type": "Pedestrian", "road": "MD"}}, {"type": "Feature", "geometry": {"type": "Point", "coordinates": [-76.893694, 38.783784]}, "properties": {"crashes": 1, "injury": 0, "fatal": 0, "pedestrian": 0, "bicycle": 0, "density": 0.2, "severity_avg": 1.0, "top_type": "Pedestrian", "road": "MD"}}, {"type": "Feature", "geometry": {"type": "Point", "coordinates": [-77.095495, 39.063063]}, "properties": {"crashes": 1, "injury": 0, "fatal": 0, "pedestrian": 0, "bicycle": 0, "density": 0.2, "severity_avg": 1.0, "top_type": "Pedestrian", "road": "MD"}}, {"type": "Feature", "geometry": {"type": "Point", "coordinates": [-76.724324, 39.392793]}, "properties": {"crashes": 1, "injury": 0, "fatal": 0, "pedestrian": 0, "bicycle": 0, "density": 0.2, "severity_avg": 1.0, "top_type": "Pedestrian", "road": "MD"}}, {"type": "Feature", "geometry": {"type": "Point", "coordinates": [-77.025225, 39.52973]}, "properties": {"crashes": 1, "injury": 0, "fatal": 0, "pedestrian": 0, "bicycle": 0, "density": 0.2, "severity_avg": 1.0, "top_type": "Bicyclist", "road": "MD"}}, {"type": "Feature", "geometry": {"type": "Point", "coordinates": [-76.971171, 38.809009]}, "properties": {"crashes": 1, "injury": 0, "fatal": 0, "pedestrian": 0, "bicycle": 0, "density": 0.2, "severity_avg": 1.0, "top_type": "Pedestrian", "road": "MD"}}, {"type": "Feature", "geometry": {"type": "Point", "coordinates": [-77.151351, 39.36036]}, "properties": {"crashes": 1, "injury": 0, "fatal": 0, "pedestrian": 0, "bicycle": 0, "density": 0.2, "severity_avg": 1.0, "top_type": "Pedestrian", "road": "IS"}}, {"type": "Feature", "geometry": {"type": "Point", "coordinates": [-76.781982, 39.421622]}, "properties": {"crashes": 1, "injury": 0, "fatal": 0, "pedestrian": 0, "bicycle": 0, "density": 0.2, "severity_avg": 1.0, "top_type": "Pedestrian", "road": "MD"}}, {"type": "Feature", "geometry": {"type": "Point", "coordinates": [-76.735135, 39.345946]}, "properties": {"crashes": 1, "injury": 0, "fatal": 0, "pedestrian": 0, "bicycle": 0, "density": 0.2, "severity_avg": 1.0, "top_type": "Pedestrian", "road": "MD"}}, {"type": "Feature", "geometry": {"type": "Point", "coordinates": [-76.972973, 38.996396]}, "properties": {"crashes": 1, "injury": 0, "fatal": 0, "pedestrian": 0, "bicycle": 0, "density": 0.2, "severity_avg": 1.0, "top_type": "Pedestrian", "road": "MD"}}, {"type": "Feature", "geometry": {"type": "Point", "coordinates": [-76.497297, 39.326126]}, "properties": {"crashes": 1, "injury": 0, "fatal": 0, "pedestrian": 0, "bicycle": 0, "density": 0.2, "severity_avg": 1.0, "top_type": "Pedestrian", "road": "US"}}, {"type": "Feature", "geometry": {"type": "Point", "coordinates": [-77.113514, 39.046847]}, "properties": {"crashes": 1, "injury": 0, "fatal": 0, "pedestrian": 0, "bicycle": 0, "density": 0.2, "severity_avg": 1.0, "top_type": "Pedestrian", "road": "MD"}}, {"type": "Feature", "geometry": {"type": "Point", "coordinates": [-76.731532, 39.344144]}, "properties": {"crashes": 1, "injury": 0, "fatal": 0, "pedestrian": 0, "bicycle": 0, "density": 0.2, "severity_avg": 1.0, "top_type": "Pedestrian", "road": "MD"}}, {"type": "Feature", "geometry": {"type": "Point", "coordinates": [-76.881081, 38.994595]}, "properties": {"crashes": 1, "injury": 0, "fatal": 0, "pedestrian": 0, "bicycle": 0, "density": 0.2, "severity_avg": 1.0, "top_type": "Pedestrian", "road": "MD"}}, {"type": "Feature", "geometry": {"type": "Point", "coordinates": [-76.976577, 38.807207]}, "properties": {"crashes": 1, "injury": 0, "fatal": 0, "pedestrian": 0, "bicycle": 0, "density": 0.2, "severity_avg": 1.0, "top_type": "Pedestrian", "road": "IS"}}, {"type": "Feature", "geometry": {"type": "Point", "coordinates": [-77.720721, 39.684685]}, "properties": {"crashes": 1, "injury": 0, "fatal": 0, "pedestrian": 0, "bicycle": 0, "density": 0.2, "severity_avg": 1.0, "top_type": "Pedestrian", "road": "US"}}, {"type": "Feature", "geometry": {"type": "Point", "coordinates": [-76.554955, 39.086486]}, "properties": {"crashes": 1, "injury": 0, "fatal": 0, "pedestrian": 0, "bicycle": 0, "density": 0.2, "severity_avg": 1.0, "top_type": "Pedestrian", "road": "MD"}}, {"type": "Feature", "geometry": {"type": "Point", "coordinates": [-76.972973, 38.969369]}, "properties": {"crashes": 1, "injury": 0, "fatal": 0, "pedestrian": 0, "bicycle": 0, "density": 0.2, "severity_avg": 1.0, "top_type": "Pedestrian", "road": "MD"}}, {"type": "Feature", "geometry": {"type": "Point", "coordinates": [-76.664865, 39.255856]}, "properties": {"crashes": 1, "injury": 0, "fatal": 0, "pedestrian": 0, "bicycle": 0, "density": 0.2, "severity_avg": 1.0, "top_type": "Pedestrian", "road": "US"}}, {"type": "Feature", "geometry": {"type": "Point", "coordinates": [-76.924324, 38.938739]}, "properties": {"crashes": 1, "injury": 0, "fatal": 0, "pedestrian": 0, "bicycle": 0, "density": 0.2, "severity_avg": 1.0, "top_type": "Pedestrian", "road": "MD"}}, {"type": "Feature", "geometry": {"type": "Point", "coordinates": [-76.675676, 39.257658]}, "properties": {"crashes": 1, "injury": 0, "fatal": 0, "pedestrian": 0, "bicycle": 0, "density": 0.2, "severity_avg": 1.0, "top_type": "Pedestrian", "road": "IS"}}, {"type": "Feature", "geometry": {"type": "Point", "coordinates": [-76.61982, 38.286486]}, "properties": {"crashes": 1, "injury": 0, "fatal": 0, "pedestrian": 0, "bicycle": 0, "density": 0.2, "severity_avg": 1.0, "top_type": "Pedestrian", "road": "MD"}}, {"type": "Feature", "geometry": {"type": "Point", "coordinates": [-76.12973, 39.527928]}, "properties": {"crashes": 1, "injury": 0, "fatal": 0, "pedestrian": 0, "bicycle": 0, "density": 0.2, "severity_avg": 1.0, "top_type": "Pedestrian", "road": "US"}}, {"type": "Feature", "geometry": {"type": "Point", "coordinates": [-77.075676, 39.081081]}, "properties": {"crashes": 1, "injury": 0, "fatal": 0, "pedestrian": 0, "bicycle": 0, "density": 0.2, "severity_avg": 1.0, "top_type": "Pedestrian", "road": "MD"}}, {"type": "Feature", "geometry": {"type": "Point", "coordinates": [-76.796396, 39.407207]}, "properties": {"crashes": 1, "injury": 0, "fatal": 0, "pedestrian": 0, "bicycle": 0, "density": 0.2, "severity_avg": 1.0, "top_type": "Pedestrian", "road": "IS"}}, {"type": "Feature", "geometry": {"type": "Point", "coordinates": [-76.72973, 39.344144]}, "properties": {"crashes": 1, "injury": 0, "fatal": 0, "pedestrian": 0, "bicycle": 0, "density": 0.2, "severity_avg": 1.0, "top_type": "Pedestrian", "road": "MD"}}, {"type": "Feature", "geometry": {"type": "Point", "coordinates": [-76.917117, 39.018018]}, "properties": {"crashes": 1, "injury": 0, "fatal": 0, "pedestrian": 0, "bicycle": 0, "density": 0.2, "severity_avg": 1.0, "top_type": "Pedestrian", "road": "IS"}}, {"type": "Feature", "geometry": {"type": "Point", "coordinates": [-76.881081, 39.100901]}, "properties": {"crashes": 1, "injury": 0, "fatal": 0, "pedestrian": 0, "bicycle": 0, "density": 0.2, "severity_avg": 1.0, "top_type": "Pedestrian", "road": "MD"}}, {"type": "Feature", "geometry": {"type": "Point", "coordinates": [-76.686486, 39.135135]}, "properties": {"crashes": 1, "injury": 0, "fatal": 0, "pedestrian": 0, "bicycle": 0, "density": 0.2, "severity_avg": 1.0, "top_type": "Pedestrian", "road": "MD"}}, {"type": "Feature", "geometry": {"type": "Point", "coordinates": [-76.807207, 39.372973]}, "properties": {"crashes": 1, "injury": 0, "fatal": 0, "pedestrian": 0, "bicycle": 0, "density": 0.2, "severity_avg": 1.0, "top_type": "Pedestrian", "road": "MD"}}, {"type": "Feature", "geometry": {"type": "Point", "coordinates": [-76.461261, 39.414414]}, "properties": {"crashes": 1, "injury": 0, "fatal": 0, "pedestrian": 0, "bicycle": 0, "density": 0.2, "severity_avg": 1.0, "top_type": "Pedestrian", "road": "US"}}, {"type": "Feature", "geometry": {"type": "Point", "coordinates": [-76.881081, 38.726126]}, "properties": {"crashes": 1, "injury": 0, "fatal": 0, "pedestrian": 0, "bicycle": 0, "density": 0.2, "severity_avg": 1.0, "top_type": "Pedestrian", "road": "MD"}}, {"type": "Feature", "geometry": {"type": "Point", "coordinates": [-77.162162, 39.113514]}, "properties": {"crashes": 1, "injury": 0, "fatal": 0, "pedestrian": 0, "bicycle": 0, "density": 0.2, "severity_avg": 1.0, "top_type": "Pedestrian", "road": "MD"}}, {"type": "Feature", "geometry": {"type": "Point", "coordinates": [-76.736937, 38.947748]}, "properties": {"crashes": 1, "injury": 0, "fatal": 0, "pedestrian": 0, "bicycle": 0, "density": 0.2, "severity_avg": 1.0, "top_type": "Pedestrian", "road": "MD"}}, {"type": "Feature", "geometry": {"type": "Point", "coordinates": [-75.428829, 38.198198]}, "properties": {"crashes": 1, "injury": 0, "fatal": 0, "pedestrian": 0, "bicycle": 0, "density": 0.2, "severity_avg": 1.0, "top_type": "Pedestrian", "road": "MD"}}, {"type": "Feature", "geometry": {"type": "Point", "coordinates": [-76.947748, 38.825225]}, "properties": {"crashes": 1, "injury": 0, "fatal": 0, "pedestrian": 0, "bicycle": 0, "density": 0.2, "severity_avg": 1.0, "top_type": "Pedestrian", "road": "MD"}}, {"type": "Feature", "geometry": {"type": "Point", "coordinates": [-76.873874, 38.63964]}, "properties": {"crashes": 1, "injury": 0, "fatal": 0, "pedestrian": 0, "bicycle": 0, "density": 0.2, "severity_avg": 1.0, "top_type": "Pedestrian", "road": "MD"}}, {"type": "Feature", "geometry": {"type": "Point", "coordinates": [-76.587387, 38.536937]}, "properties": {"crashes": 1, "injury": 0, "fatal": 0, "pedestrian": 0, "bicycle": 0, "density": 0.2, "severity_avg": 1.0, "top_type": "Pedestrian", "road": "MD"}}, {"type": "Feature", "geometry": {"type": "Point", "coordinates": [-77.122523, 38.607207]}, "properties": {"crashes": 1, "injury": 0, "fatal": 0, "pedestrian": 0, "bicycle": 0, "density": 0.2, "severity_avg": 1.0, "top_type": "Pedestrian", "road": "MD"}}, {"type": "Feature", "geometry": {"type": "Point", "coordinates": [-77.138739, 39.142342]}, "properties": {"crashes": 1, "injury": 0, "fatal": 0, "pedestrian": 0, "bicycle": 0, "density": 0.2, "severity_avg": 1.0, "top_type": "Pedestrian", "road": "MD"}}, {"type": "Feature", "geometry": {"type": "Point", "coordinates": [-76.963964, 38.814414]}, "properties": {"crashes": 1, "injury": 0, "fatal": 0, "pedestrian": 0, "bicycle": 0, "density": 0.2, "severity_avg": 1.0, "top_type": "Pedestrian", "road": "MD"}}, {"type": "Feature", "geometry": {"type": "Point", "coordinates": [-76.989189, 38.803604]}, "properties": {"crashes": 1, "injury": 0, "fatal": 0, "pedestrian": 0, "bicycle": 0, "density": 0.2, "severity_avg": 1.0, "top_type": "Pedestrian", "road": "MD"}}, {"type": "Feature", "geometry": {"type": "Point", "coordinates": [-76.479279, 39.277477]}, "properties": {"crashes": 1, "injury": 0, "fatal": 0, "pedestrian": 0, "bicycle": 0, "density": 0.2, "severity_avg": 1.0, "top_type": "Pedestrian", "road": "MD"}}, {"type": "Feature", "geometry": {"type": "Point", "coordinates": [-76.718919, 39.29009]}, "properties": {"crashes": 1, "injury": 0, "fatal": 0, "pedestrian": 0, "bicycle": 0, "density": 0.2, "severity_avg": 1.0, "top_type": "Pedestrian", "road": "US"}}, {"type": "Feature", "geometry": {"type": "Point", "coordinates": [-76.87027, 38.956757]}, "properties": {"crashes": 1, "injury": 0, "fatal": 0, "pedestrian": 0, "bicycle": 0, "density": 0.2, "severity_avg": 1.0, "top_type": "Pedestrian", "road": "MD"}}, {"type": "Feature", "geometry": {"type": "Point", "coordinates": [-76.794595, 38.873874]}, "properties": {"crashes": 1, "injury": 0, "fatal": 0, "pedestrian": 0, "bicycle": 0, "density": 0.2, "severity_avg": 1.0, "top_type": "Pedestrian", "road": "MD"}}, {"type": "Feature", "geometry": {"type": "Point", "coordinates": [-76.924324, 38.825225]}, "properties": {"crashes": 1, "injury": 0, "fatal": 0, "pedestrian": 0, "bicycle": 0, "density": 0.2, "severity_avg": 1.0, "top_type": "Pedestrian", "road": "MD"}}, {"type": "Feature", "geometry": {"type": "Point", "coordinates": [-76.967568, 39.057658]}, "properties": {"crashes": 1, "injury": 0, "fatal": 0, "pedestrian": 0, "bicycle": 0, "density": 0.2, "severity_avg": 1.0, "top_type": "Pedestrian", "road": "US"}}, {"type": "Feature", "geometry": {"type": "Point", "coordinates": [-75.556757, 38.338739]}, "properties": {"crashes": 1, "injury": 0, "fatal": 0, "pedestrian": 0, "bicycle": 0, "density": 0.2, "severity_avg": 1.0, "top_type": "Pedestrian", "road": "US"}}, {"type": "Feature", "geometry": {"type": "Point", "coordinates": [-77.246847, 39.203604]}, "properties": {"crashes": 1, "injury": 0, "fatal": 0, "pedestrian": 0, "bicycle": 0, "density": 0.2, "severity_avg": 1.0, "top_type": "Pedestrian", "road": "MD"}}, {"type": "Feature", "geometry": {"type": "Point", "coordinates": [-76.891892, 38.845045]}, "properties": {"crashes": 1, "injury": 0, "fatal": 0, "pedestrian": 0, "bicycle": 0, "density": 0.2, "severity_avg": 1.0, "top_type": "Bicyclist", "road": "MD"}}, {"type": "Feature", "geometry": {"type": "Point", "coordinates": [-77.068468, 39.036036]}, "properties": {"crashes": 1, "injury": 0, "fatal": 0, "pedestrian": 0, "bicycle": 0, "density": 0.2, "severity_avg": 1.0, "top_type": "Pedestrian", "road": "MD"}}, {"type": "Feature", "geometry": {"type": "Point", "coordinates": [-76.85045, 38.891892]}, "properties": {"crashes": 1, "injury": 0, "fatal": 0, "pedestrian": 0, "bicycle": 0, "density": 0.2, "severity_avg": 1.0, "top_type": "Pedestrian", "road": "MD"}}, {"type": "Feature", "geometry": {"type": "Point", "coordinates": [-76.614414, 39.216216]}, "properties": {"crashes": 1, "injury": 0, "fatal": 0, "pedestrian": 0, "bicycle": 0, "density": 0.2, "severity_avg": 1.0, "top_type": "Pedestrian", "road": "MD"}}, {"type": "Feature", "geometry": {"type": "Point", "coordinates": [-77.396396, 39.445045]}, "properties": {"crashes": 1, "injury": 0, "fatal": 0, "pedestrian": 0, "bicycle": 0, "density": 0.2, "severity_avg": 1.0, "top_type": "Pedestrian", "road": "MD"}}, {"type": "Feature", "geometry": {"type": "Point", "coordinates": [-76.695495, 39.158559]}, "properties": {"crashes": 1, "injury": 0, "fatal": 0, "pedestrian": 0, "bicycle": 0, "density": 0.2, "severity_avg": 1.0, "top_type": "Pedestrian", "road": "MD"}}, {"type": "Feature", "geometry": {"type": "Point", "coordinates": [-76.956757, 38.931532]}, "properties": {"crashes": 1, "injury": 0, "fatal": 0, "pedestrian": 0, "bicycle": 0, "density": 0.2, "severity_avg": 1.0, "top_type": "Pedestrian", "road": "US"}}, {"type": "Feature", "geometry": {"type": "Point", "coordinates": [-76.857658, 38.963964]}, "properties": {"crashes": 1, "injury": 0, "fatal": 0, "pedestrian": 0, "bicycle": 0, "density": 0.2, "severity_avg": 1.0, "top_type": "Pedestrian", "road": "MD"}}, {"type": "Feature", "geometry": {"type": "Point", "coordinates": [-76.801802, 38.899099]}, "properties": {"crashes": 1, "injury": 0, "fatal": 0, "pedestrian": 0, "bicycle": 0, "density": 0.2, "severity_avg": 1.0, "top_type": "Pedestrian", "road": "MD"}}, {"type": "Feature", "geometry": {"type": "Point", "coordinates": [-76.877477, 38.927928]}, "properties": {"crashes": 1, "injury": 0, "fatal": 0, "pedestrian": 0, "bicycle": 0, "density": 0.2, "severity_avg": 1.0, "top_type": "Pedestrian", "road": "MD"}}, {"type": "Feature", "geometry": {"type": "Point", "coordinates": [-77.001802, 39.104505]}, "properties": {"crashes": 1, "injury": 0, "fatal": 0, "pedestrian": 0, "bicycle": 0, "density": 0.2, "severity_avg": 1.0, "top_type": "Bicyclist", "road": "MD"}}, {"type": "Feature", "geometry": {"type": "Point", "coordinates": [-76.976577, 39.565766]}, "properties": {"crashes": 1, "injury": 0, "fatal": 0, "pedestrian": 0, "bicycle": 0, "density": 0.2, "severity_avg": 1.0, "top_type": "Pedestrian", "road": "MD"}}, {"type": "Feature", "geometry": {"type": "Point", "coordinates": [-76.917117, 38.61982]}, "properties": {"crashes": 1, "injury": 0, "fatal": 0, "pedestrian": 0, "bicycle": 0, "density": 0.2, "severity_avg": 1.0, "top_type": "Pedestrian", "road": "US"}}, {"type": "Feature", "geometry": {"type": "Point", "coordinates": [-76.72973, 39.288288]}, "properties": {"crashes": 1, "injury": 0, "fatal": 0, "pedestrian": 0, "bicycle": 0, "density": 0.2, "severity_avg": 1.0, "top_type": "Pedestrian", "road": "US"}}, {"type": "Feature", "geometry": {"type": "Point", "coordinates": [-76.637838, 39.464865]}, "properties": {"crashes": 1, "injury": 0, "fatal": 0, "pedestrian": 0, "bicycle": 0, "density": 0.2, "severity_avg": 1.0, "top_type": "Pedestrian", "road": "MD"}}, {"type": "Feature", "geometry": {"type": "Point", "coordinates": [-76.745946, 38.544144]}, "properties": {"crashes": 1, "injury": 0, "fatal": 0, "pedestrian": 0, "bicycle": 0, "density": 0.2, "severity_avg": 1.0, "top_type": "Pedestrian", "road": "MD"}}]}